{"type":"FeatureCollection","features":[{"type":"Feature","properties":{"id":"district:wanhua","name":"萬華區","nameEn":"Wanhua District","category":"district","source":"osm","tags":{"admin_level":"7"}},"geometry":{"type":"Polygon","coordinates":[[[121.48872,25.01934],[121.48881,25.02375],[121.48814,25.02488],[121.48789,25.02605],[121.48581,25.02902],[121.48502,25.03066],[121.48361,25.03408],[121.48332,25.03539],[121.48366,25.03695],[121.48539,25.03924],[121.48786,25.04184],[121.48997,25.0423],[121.49571,25.0428],[121.49701,25.04368],[121.50034,25.04513],[121.5049,25.0497],[121.50602,25.04909],[121.50898,25.04829],[121.50986,25.04846],[121.51067,25.04833],[121.50964,25.04733],[121.50653,25.03605],[121.50414,25.03128],[121.50412,25.03002],[121.50592,25.02793],[121.50913,25.02493],[121.51277,25.02405],[121.51289,25.02172],[121.51055,25.02181],[121.50839,25.02113],[121.50366,25.01605],[121.50168,25.0135],[121.5001,25.01186],[121.49565,25.00938],[121.49456,25.00915],[121.49336,25.00918],[121.49136,25.01027],[121.49077,25.01076],[121.48985,25.01208],[121.48896,25.01571],[121.48872,25.01934]]]}},{"type":"Feature","properties":{"id":"district:zhongzheng","name":"中正區","nameEn":"Zhongzheng District","category":"district","source":"osm","tags":{"admin_level":"7"}},"geometry":{"type":"Polygon","coordinates":[[[121.53391,25.01508],[121.53591,25.01322],[121.53722,25.01097],[121.53682,25.01106],[121.53576,25.01078],[121.53198,25.00859],[121.53143,25.00926],[121.53009,25.00989],[121.52839,25.01016],[121.5272,25.01072],[121.5258,25.01168],[121.52091,25.0184],[121.51908,25.01978],[121.51628,25.02095],[121.51289,25.02172],[121.51277,25.02405],[121.50913,25.02493],[121.50592,25.02793],[121.50419,25.02987],[121.50414,25.03128],[121.50653,25.03605],[121.50964,25.04733],[121.51067,25.04833],[121.51146,25.04849],[121.512,25.04992],[121.51557,25.0489],[121.52103,25.04802],[121.52498,25.04772],[121.53289,25.04545],[121.53268,25.03362],[121.52996,25.03368],[121.52725,25.03409],[121.52429,25.03549],[121.52248,25.0325],[121.52172,25.02808],[121.52532,25.02324],[121.52925,25.01972],[121.53391,25.01508]]]}},{"type":"Feature","properties":{"id":"district:zhongshan","name":"中山區","nameEn":"Zhongshan District","category":"district","source":"osm","tags":{"admin_level":"7"}},"geometry":{"type":"Polygon","coordinates":[[[121.51896,25.04842],[121.52103,25.04802],[121.52498,25.04772],[121.53452,25.045],[121.54104,25.04459],[121.54381,25.04488],[121.54435,25.06699],[121.54112,25.06865],[121.5388,25.06899],[121.53855,25.06944],[121.53858,25.07129],[121.54944,25.07101],[121.54971,25.07219],[121.55105,25.07226],[121.55223,25.07345],[121.55223,25.07578],[121.55489,25.07539],[121.55745,25.07462],[121.56046,25.07302],[121.56202,25.07247],[121.5636,25.07261],[121.56813,25.0755],[121.56958,25.07583],[121.57018,25.07697],[121.56404,25.07882],[121.56265,25.08031],[121.56275,25.08054],[121.56095,25.08428],[121.56059,25.08459],[121.55943,25.08503],[121.55857,25.08496],[121.5577,25.08452],[121.55765,25.08526],[121.55678,25.08634],[121.55671,25.08674],[121.55678,25.0872],[121.55739,25.0878],[121.55501,25.08849],[121.55411,25.08916],[121.55393,25.08967],[121.55325,25.08996],[121.55265,25.09127],[121.55199,25.092],[121.55127,25.09169],[121.55049,25.09181],[121.5495,25.09166],[121.54931,25.09126],[121.54578,25.09041],[121.54487,25.09042],[121.54454,25.09112],[121.54397,25.09173],[121.54138,25.09176],[121.53996,25.09207],[121.53935,25.09199],[121.5363,25.09049],[121.53336,25.08773],[121.53294,25.08764],[121.53255,25.08686],[121.5308,25.08519],[121.52916,25.08462],[121.52811,25.08368],[121.52693,25.08252],[121.52691,25.08202],[121.52628,25.08153],[121.5257,25.08133],[121.5251,25.08204],[121.52465,25.08142],[121.52427,25.08045],[121.52594,25.07487],[121.525,25.07416],[121.52378,25.07627],[121.52235,25.07712],[121.52069,25.07368],[121.51981,25.0678],[121.51939,25.0661],[121.51927,25.06445],[121.51937,25.06289],[121.52072,25.05932],[121.52032,25.05266],[121.52047,25.05264],[121.52021,25.05018],[121.51896,25.04842]]]}},{"type":"Feature","properties":{"id":"district:datong","name":"大同區","nameEn":"Datong District","category":"district","source":"osm","tags":{"admin_level":"7"}},"geometry":{"type":"Polygon","coordinates":[[[121.512,25.04992],[121.51146,25.04849],[121.51067,25.04833],[121.50986,25.04846],[121.50951,25.04828],[121.50602,25.04909],[121.5049,25.0497],[121.50627,25.054],[121.50638,25.0559],[121.50537,25.05862],[121.50536,25.05943],[121.5068,25.06463],[121.50703,25.07045],[121.50692,25.07131],[121.50633,25.07302],[121.50615,25.07447],[121.50473,25.07794],[121.50943,25.07819],[121.51139,25.07868],[121.51325,25.07948],[121.51457,25.0793],[121.51624,25.08023],[121.51811,25.07906],[121.52172,25.07761],[121.52235,25.07712],[121.52069,25.07368],[121.51981,25.0678],[121.51939,25.0661],[121.51937,25.06289],[121.52072,25.05932],[121.52032,25.05266],[121.52047,25.05264],[121.52021,25.05018],[121.51896,25.04842],[121.51557,25.0489],[121.512,25.04992]]]}},{"type":"Feature","properties":{"id":"district:daan","name":"大安區","nameEn":"Da'an District","category":"district","source":"osm","tags":{"admin_level":"7"}},"geometry":{"type":"Polygon","coordinates":[[[121.53289,25.04545],[121.53268,25.03362],[121.52996,25.03368],[121.52725,25.03409],[121.52429,25.03549],[121.52248,25.0325],[121.52172,25.02808],[121.52466,25.02398],[121.53591,25.01322],[121.53722,25.01097],[121.53802,25.00832],[121.53921,25.0085],[121.53919,25.00864],[121.5418,25.00806],[121.54322,25.00822],[121.54362,25.00865],[121.54409,25.00791],[121.54475,25.00781],[121.54654,25.00834],[121.54785,25.00935],[121.54844,25.0094],[121.54899,25.00977],[121.54949,25.00965],[121.55005,25.00984],[121.55066,25.00961],[121.55139,25.00961],[121.55255,25.00883],[121.55355,25.00921],[121.55518,25.01128],[121.55636,25.01196],[121.55748,25.01224],[121.55827,25.01216],[121.55934,25.01144],[121.56023,25.01015],[121.5612,25.00988],[121.56232,25.00858],[121.56246,25.00812],[121.56486,25.00722],[121.56588,25.00817],[121.56536,25.00996],[121.56367,25.01118],[121.56338,25.01196],[121.56335,25.01321],[121.56257,25.01386],[121.56214,25.01477],[121.56059,25.01609],[121.56005,25.01732],[121.55261,25.02438],[121.55644,25.0278],[121.55739,25.02944],[121.55776,25.04507],[121.55375,25.04437],[121.54685,25.04511],[121.54104,25.04459],[121.53636,25.04483],[121.53452,25.045],[121.53289,25.04545]]]}},{"type":"Feature","properties":{"id":"district:xinyi","name":"信義區","nameEn":"Xinyi District","category":"district","source":"osm","tags":{"admin_level":"7"}},"geometry":{"type":"Polygon","coordinates":[[[121.5778,25.04951],[121.57075,25.04939],[121.56926,25.0492],[121.5658,25.04831],[121.55776,25.0452],[121.55739,25.02944],[121.55644,25.0278],[121.55261,25.02438],[121.56005,25.01732],[121.56059,25.01609],[121.56214,25.01477],[121.56257,25.01386],[121.56335,25.01321],[121.56338,25.01196],[121.56367,25.01118],[121.56536,25.00996],[121.56588,25.00817],[121.56703,25.00849],[121.56801,25.00903],[121.56921,25.00975],[121.57063,25.01108],[121.57139,25.01147],[121.572,25.01231],[121.57214,25.01351],[121.57247,25.01368],[121.57498,25.01316],[121.57614,25.01446],[121.57771,25.01414],[121.58015,25.01701],[121.58146,25.01803],[121.5828,25.01879],[121.58363,25.01861],[121.58439,25.0205],[121.5844,25.0216],[121.58501,25.02229],[121.58508,25.02367],[121.58659,25.02674],[121.58824,25.02848],[121.59136,25.03014],[121.59223,25.03131],[121.59059,25.03321],[121.58935,25.03423],[121.58954,25.03515],[121.58917,25.03587],[121.58934,25.03678],[121.58906,25.03746],[121.58827,25.03807],[121.58743,25.03978],[121.58714,25.0397],[121.58677,25.04093],[121.58698,25.04099],[121.58677,25.0416],[121.58545,25.04164],[121.58414,25.04241],[121.58186,25.04422],[121.58127,25.04424],[121.58124,25.04476],[121.58068,25.0454],[121.58064,25.04747],[121.58021,25.04801],[121.58009,25.04949],[121.5778,25.04951]]]}},{"type":"Feature","properties":{"id":"district:nangang","name":"南港區","nameEn":"Nangang District","category":"district","source":"osm","tags":{"admin_level":"7"}},"geometry":{"type":"Polygon","coordinates":[[[121.64022,25.02355],[121.63837,25.02374],[121.63751,25.02407],[121.63569,25.02321],[121.63562,25.02401],[121.63455,25.02431],[121.63382,25.0249],[121.63236,25.02563],[121.6315,25.02523],[121.63081,25.02454],[121.63027,25.02322],[121.63027,25.02223],[121.62894,25.01993],[121.62806,25.01952],[121.62693,25.01954],[121.62617,25.01862],[121.62424,25.0179],[121.62328,25.01727],[121.62249,25.01738],[121.62055,25.01839],[121.61936,25.01811],[121.61752,25.01841],[121.61608,25.0197],[121.61342,25.01912],[121.61273,25.01962],[121.6121,25.01953],[121.61136,25.01987],[121.61019,25.01993],[121.60925,25.02096],[121.60873,25.02055],[121.60819,25.01943],[121.60416,25.01911],[121.60307,25.01687],[121.60292,25.01557],[121.6027,25.01516],[121.60231,25.015],[121.60144,25.01518],[121.60069,25.0148],[121.59992,25.01497],[121.59896,25.01478],[121.59757,25.01481],[121.59723,25.01439],[121.59706,25.01463],[121.59608,25.01496],[121.59562,25.0154],[121.59509,25.0155],[121.59434,25.01532],[121.59348,25.01456],[121.59257,25.01456],[121.5917,25.01488],[121.59128,25.01429],[121.58784,25.0134],[121.58609,25.01342],[121.58477,25.01309],[121.58367,25.01313],[121.58277,25.01279],[121.5815,25.01268],[121.58063,25.01226],[121.57979,25.01244],[121.57945,25.01279],[121.57815,25.01328],[121.57771,25.01414],[121.58015,25.01701],[121.58146,25.01803],[121.5828,25.01879],[121.58363,25.01861],[121.58439,25.0205],[121.5844,25.0216],[121.58501,25.02229],[121.58508,25.02367],[121.58659,25.02674],[121.58824,25.02848],[121.59136,25.03014],[121.59223,25.03131],[121.59059,25.03321],[121.58935,25.03423],[121.58954,25.03515],[121.58917,25.03587],[121.58934,25.03678],[121.58906,25.03746],[121.58827,25.03807],[121.58743,25.03978],[121.58714,25.0397],[121.58677,25.04093],[121.58698,25.04099],[121.58677,25.0416],[121.58545,25.04164],[121.58414,25.04241],[121.58186,25.04422],[121.58127,25.04424],[121.58124,25.04476],[121.58068,25.0454],[121.58064,25.04747],[121.58021,25.04801],[121.58007,25.0496],[121.57964,25.05046],[121.58004,25.05158],[121.57978,25.05298],[121.58293,25.05348],[121.58651,25.05474],[121.58905,25.05628],[121.59246,25.05961],[121.59373,25.06011],[121.59472,25.0602],[121.59804,25.05916],[121.5997,25.05901],[121.60307,25.05914],[121.60707,25.05967],[121.61015,25.06105],[121.61169,25.0626],[121.61261,25.06414],[121.61392,25.0646],[121.6144,25.06448],[121.61852,25.06307],[121.62005,25.06202],[121.62165,25.06034],[121.62251,25.05844],[121.62423,25.05585],[121.62413,25.05527],[121.62343,25.055],[121.62165,25.05651],[121.62053,25.05665],[121.62023,25.05631],[121.6202,25.05582],[121.62104,25.05422],[121.62093,25.05351],[121.62054,25.05307],[121.62017,25.05316],[121.61817,25.0523],[121.61722,25.0513],[121.61647,25.0508],[121.61631,25.05055],[121.61623,25.04937],[121.61652,25.04801],[121.61911,25.04347],[121.62001,25.04258],[121.62158,25.04037],[121.62195,25.04005],[121.62314,25.03965],[121.62445,25.03844],[121.62493,25.03772],[121.6264,25.03787],[121.62767,25.03721],[121.62948,25.03673],[121.62997,25.03626],[121.63021,25.03508],[121.63257,25.03578],[121.63348,25.03574],[121.63407,25.0348],[121.63485,25.035],[121.63564,25.03447],[121.63791,25.03374],[121.6384,25.03311],[121.63991,25.03201],[121.64046,25.03193],[121.64155,25.03132],[121.64211,25.03128],[121.64332,25.03048],[121.64375,25.03049],[121.64427,25.02977],[121.64585,25.02944],[121.64654,25.02884],[121.64648,25.02821],[121.64672,25.02799],[121.64735,25.02817],[121.64798,25.02864],[121.6488,25.02792],[121.64952,25.02811],[121.65024,25.02763],[121.65146,25.02775],[121.65184,25.02815],[121.65263,25.02757],[121.65324,25.02748],[121.65418,25.02792],[121.6549,25.02775],[121.65515,25.02744],[121.65549,25.02767],[121.65682,25.02794],[121.65729,25.02826],[121.65768,25.02887],[121.6608,25.03045],[121.66315,25.03018],[121.66482,25.02955],[121.66594,25.02988],[121.66483,25.0278],[121.66538,25.02602],[121.66494,25.02469],[121.6644,25.02427],[121.66405,25.02317],[121.66284,25.02275],[121.66154,25.023],[121.66065,25.0234],[121.65824,25.02357],[121.65764,25.02323],[121.65611,25.02383],[121.65558,25.02367],[121.65382,25.02442],[121.65166,25.0239],[121.64991,25.02397],[121.6487,25.02289],[121.64705,25.02187],[121.64643,25.02171],[121.64599,25.02189],[121.64493,25.02356],[121.64298,25.02456],[121.64192,25.02422],[121.64081,25.02349],[121.64022,25.02355]]]}},{"type":"Feature","properties":{"id":"district:songshan","name":"松山區","nameEn":"Songshan District","category":"district","source":"osm","tags":{"admin_level":"7"}},"geometry":{"type":"Polygon","coordinates":[[[121.55776,25.0452],[121.5658,25.04831],[121.56926,25.0492],[121.57075,25.04939],[121.58009,25.04949],[121.57964,25.05046],[121.58004,25.05158],[121.57978,25.05298],[121.57512,25.05186],[121.57345,25.05188],[121.57219,25.05254],[121.57167,25.05383],[121.57153,25.0568],[121.57123,25.05849],[121.5693,25.06405],[121.56958,25.06503],[121.57182,25.06915],[121.57194,25.07219],[121.57121,25.07401],[121.57005,25.07551],[121.56958,25.07583],[121.56813,25.0755],[121.5636,25.07261],[121.56202,25.07247],[121.56046,25.07302],[121.55745,25.07462],[121.55489,25.07539],[121.55223,25.07578],[121.55223,25.07345],[121.55105,25.07226],[121.54971,25.07219],[121.54944,25.07101],[121.53858,25.07129],[121.53855,25.06944],[121.5388,25.06899],[121.54112,25.06865],[121.54435,25.06699],[121.54381,25.04488],[121.54685,25.04511],[121.55375,25.04437],[121.55776,25.04507],[121.55776,25.0452]]]}},{"type":"Feature","properties":{"id":"district:wenshan","name":"文山區","nameEn":"Wenshan District","category":"district","source":"osm","tags":{"admin_level":"7"}},"geometry":{"type":"Polygon","coordinates":[[[121.53137,24.99544],[121.53056,24.99791],[121.53137,25.00101],[121.53422,25.00314],[121.53368,25.0038],[121.53251,25.00628],[121.53237,25.00782],[121.53198,25.00859],[121.53623,25.01096],[121.53722,25.01097],[121.53802,25.00832],[121.53921,25.0085],[121.53919,25.00864],[121.5418,25.00806],[121.54322,25.00822],[121.54362,25.00865],[121.54409,25.00791],[121.54475,25.00781],[121.54654,25.00834],[121.54779,25.00932],[121.54844,25.0094],[121.54899,25.00977],[121.54949,25.00965],[121.55005,25.00984],[121.55066,25.00961],[121.55139,25.00961],[121.55255,25.00883],[121.55355,25.00921],[121.55518,25.01128],[121.55596,25.01174],[121.55692,25.01215],[121.55827,25.01216],[121.55934,25.01144],[121.56023,25.01015],[121.5612,25.00988],[121.56232,25.00858],[121.56246,25.00812],[121.56486,25.00722],[121.56588,25.00817],[121.56703,25.00849],[121.56921,25.00975],[121.57063,25.01108],[121.57139,25.01147],[121.572,25.01231],[121.57206,25.01342],[121.57247,25.01368],[121.57498,25.01316],[121.57614,25.01446],[121.57771,25.01414],[121.57815,25.01328],[121.57945,25.01279],[121.57979,25.01244],[121.58063,25.01226],[121.5815,25.01268],[121.58277,25.01279],[121.58367,25.01313],[121.58477,25.01309],[121.58609,25.01342],[121.58784,25.0134],[121.5888,25.01376],[121.58988,25.01386],[121.59128,25.01429],[121.5917,25.01488],[121.59257,25.01456],[121.59348,25.01456],[121.59434,25.01532],[121.5953,25.01552],[121.59608,25.01496],[121.59706,25.01463],[121.59759,25.01337],[121.59728,25.01278],[121.59666,25.01231],[121.59642,25.0117],[121.59634,25.01054],[121.59587,25.00922],[121.59563,25.00706],[121.59592,25.00658],[121.59592,25.00444],[121.5962,25.00429],[121.59715,25.00456],[121.5977,25.00428],[121.59944,25.00283],[121.60055,25.00075],[121.60055,24.99843],[121.59969,24.99761],[121.59958,24.99638],[121.5988,24.99595],[121.59814,24.99454],[121.59854,24.99352],[121.5994,24.99295],[121.59907,24.99167],[121.59986,24.9911],[121.60195,24.99037],[121.60174,24.98916],[121.60204,24.9886],[121.60178,24.98785],[121.60128,24.98748],[121.6005,24.98727],[121.59984,24.98647],[121.60065,24.9803],[121.60029,24.97949],[121.59931,24.97869],[121.59947,24.97816],[121.60046,24.97671],[121.60207,24.97595],[121.60281,24.97592],[121.60378,24.97551],[121.60456,24.97502],[121.60518,24.97436],[121.60822,24.9745],[121.60865,24.9748],[121.60989,24.97456],[121.6101,24.97424],[121.61124,24.97462],[121.61214,24.97388],[121.61325,24.97344],[121.61437,24.97351],[121.61617,24.97168],[121.61774,24.97088],[121.61894,24.97072],[121.61959,24.9703],[121.62,24.96946],[121.61956,24.96866],[121.61978,24.96739],[121.61965,24.96716],[121.61816,24.96683],[121.6169,24.96753],[121.61629,24.96702],[121.61511,24.96647],[121.61497,24.96619],[121.61434,24.96646],[121.61363,24.96644],[121.61282,24.9661],[121.61205,24.96539],[121.61119,24.96533],[121.61041,24.96497],[121.60952,24.96436],[121.60828,24.96307],[121.60532,24.96303],[121.60461,24.96256],[121.60325,24.9622],[121.60213,24.96118],[121.60129,24.9609],[121.59998,24.96128],[121.59909,24.96108],[121.59843,24.96127],[121.59791,24.96077],[121.59722,24.96052],[121.5968,24.96063],[121.59626,24.96113],[121.59514,24.96137],[121.59485,24.96161],[121.59338,24.96423],[121.59194,24.96395],[121.59118,24.96452],[121.58849,24.96326],[121.58793,24.96374],[121.58648,24.96355],[121.58575,24.9632],[121.58524,24.96411],[121.58424,24.9647],[121.58216,24.96467],[121.58078,24.96518],[121.57867,24.96664],[121.57756,24.96641],[121.57456,24.96689],[121.57469,24.9661],[121.57422,24.9652],[121.57266,24.964],[121.57028,24.96446],[121.56888,24.96409],[121.56623,24.96396],[121.56574,24.96436],[121.56518,24.96401],[121.56477,24.96435],[121.56337,24.96464],[121.56246,24.96479],[121.56127,24.96467],[121.56032,24.96575],[121.56019,24.96647],[121.55948,24.96677],[121.55846,24.96838],[121.55832,24.9696],[121.55788,24.97031],[121.55763,24.97203],[121.5561,24.97336],[121.5552,24.97654],[121.55447,24.97676],[121.55395,24.97726],[121.55311,24.9801],[121.55316,24.98124],[121.55389,24.98447],[121.55381,24.98492],[121.55231,24.98688],[121.55163,24.98711],[121.55088,24.98698],[121.55102,24.98563],[121.55084,24.98532],[121.54903,24.98374],[121.54638,24.98335],[121.54537,24.98359],[121.54465,24.98424],[121.54444,24.9853],[121.5446,24.98725],[121.54413,24.98805],[121.54311,24.98819],[121.53979,24.98761],[121.53848,24.98778],[121.53704,24.98847],[121.53658,24.98973],[121.53714,24.99178],[121.53623,24.99412],[121.53524,24.99512],[121.53496,24.99503],[121.5341,24.99294],[121.5317,24.9905],[121.53174,24.99164],[121.53138,24.99256],[121.53181,24.99361],[121.53137,24.99544]]]}},{"type":"Feature","properties":{"id":"district:beitou","name":"北投區","nameEn":"Beitou","category":"district","source":"osm","tags":{"admin_level":"7"}},"geometry":{"type":"Polygon","coordinates":[[[121.46093,25.11617],[121.46322,25.11409],[121.46678,25.11175],[121.46855,25.11094],[121.47204,25.11064],[121.47347,25.11082],[121.47751,25.11226],[121.48717,25.11503],[121.48875,25.1153],[121.49121,25.11505],[121.49496,25.11282],[121.49545,25.11235],[121.49652,25.1104],[121.4971,25.10714],[121.49694,25.10026],[121.49733,25.0982],[121.49917,25.0975],[121.50071,25.09664],[121.50144,25.09647],[121.50543,25.09651],[121.50926,25.09592],[121.51054,25.09744],[121.51199,25.09803],[121.51716,25.0994],[121.5175,25.09976],[121.51769,25.10062],[121.5176,25.10133],[121.51849,25.10347],[121.5198,25.10412],[121.52129,25.10694],[121.52115,25.10882],[121.5225,25.10948],[121.52269,25.11088],[121.5252,25.11137],[121.5258,25.11263],[121.52502,25.11456],[121.52501,25.11599],[121.52372,25.11711],[121.52354,25.1175],[121.52441,25.11958],[121.5249,25.12019],[121.52572,25.12075],[121.52561,25.12179],[121.52602,25.12286],[121.52676,25.12363],[121.5284,25.12378],[121.52958,25.12422],[121.52982,25.12624],[121.53101,25.12683],[121.53133,25.12747],[121.53144,25.12877],[121.53087,25.13211],[121.53122,25.1337],[121.53118,25.1339],[121.53035,25.13442],[121.53056,25.1357],[121.53084,25.13623],[121.53149,25.13714],[121.53322,25.13755],[121.53475,25.13903],[121.5363,25.1393],[121.53824,25.1402],[121.53926,25.14069],[121.53964,25.14135],[121.54057,25.14161],[121.54155,25.14161],[121.54195,25.14221],[121.54262,25.14257],[121.54424,25.14173],[121.54567,25.14152],[121.54605,25.14184],[121.54635,25.14289],[121.54794,25.1434],[121.54841,25.14427],[121.54881,25.14596],[121.54932,25.14635],[121.54902,25.14725],[121.54947,25.14954],[121.55003,25.15017],[121.55004,25.15121],[121.55306,25.15412],[121.5533,25.15453],[121.55327,25.15529],[121.55571,25.16054],[121.55849,25.16109],[121.5612,25.16326],[121.56106,25.16458],[121.56208,25.16828],[121.56318,25.1696],[121.56309,25.17091],[121.56129,25.17327],[121.56089,25.17449],[121.56268,25.17765],[121.56497,25.17819],[121.56609,25.18035],[121.56642,25.18186],[121.56811,25.18374],[121.568,25.18634],[121.56707,25.1887],[121.56873,25.19024],[121.57155,25.19203],[121.57324,25.19355],[121.57334,25.19412],[121.5746,25.19469],[121.57566,25.19464],[121.57576,25.19518],[121.5761,25.1953],[121.57603,25.19546],[121.57554,25.19561],[121.57307,25.19497],[121.57174,25.1954],[121.57144,25.19587],[121.57075,25.19627],[121.57097,25.19728],[121.56995,25.19824],[121.56891,25.19846],[121.56793,25.1992],[121.56608,25.19972],[121.56499,25.20224],[121.56449,25.20451],[121.56363,25.20572],[121.5629,25.20736],[121.56267,25.20946],[121.56025,25.21],[121.55892,25.21],[121.55708,25.20869],[121.55493,25.2085],[121.55414,25.20597],[121.55332,25.2044],[121.55163,25.20367],[121.55153,25.20212],[121.55277,25.20074],[121.55259,25.19985],[121.55265,25.19891],[121.55206,25.19786],[121.55076,25.19713],[121.54883,25.19822],[121.54817,25.19806],[121.54747,25.19703],[121.5468,25.19723],[121.54598,25.19635],[121.54494,25.19573],[121.54334,25.19383],[121.54278,25.19115],[121.5429,25.18928],[121.54217,25.18881],[121.54067,25.18719],[121.53697,25.18699],[121.53588,25.1867],[121.53522,25.18533],[121.53326,25.18366],[121.53067,25.18355],[121.52927,25.18298],[121.52859,25.18319],[121.52619,25.18306],[121.52181,25.17916],[121.52171,25.179],[121.52233,25.17788],[121.52199,25.17665],[121.52232,25.17614],[121.52256,25.17468],[121.52235,25.1741],[121.52131,25.17263],[121.52118,25.17144],[121.51995,25.16927],[121.51357,25.171],[121.51272,25.17085],[121.51133,25.16941],[121.51043,25.16943],[121.50811,25.17042],[121.50707,25.17116],[121.50576,25.17108],[121.50532,25.17178],[121.50542,25.17256],[121.50489,25.17322],[121.50257,25.17325],[121.50273,25.17279],[121.50261,25.17245],[121.50165,25.17128],[121.50195,25.16984],[121.50175,25.16928],[121.50014,25.16832],[121.4997,25.16758],[121.49909,25.16551],[121.49863,25.16479],[121.4976,25.16383],[121.49567,25.16292],[121.49471,25.16194],[121.4924,25.16041],[121.49069,25.15732],[121.48763,25.15301],[121.48744,25.15141],[121.48657,25.15079],[121.48401,25.15084],[121.48287,25.15022],[121.48169,25.14801],[121.48085,25.14708],[121.47747,25.14426],[121.47674,25.14391],[121.47637,25.14268],[121.4756,25.14214],[121.47489,25.14117],[121.47267,25.13935],[121.47176,25.13749],[121.47081,25.13672],[121.46897,25.13564],[121.46842,25.13485],[121.46835,25.13441],[121.46665,25.13282],[121.46559,25.13154],[121.46475,25.12849],[121.46431,25.12757],[121.46473,25.12551],[121.46456,25.12472],[121.46483,25.12425],[121.46388,25.12391],[121.46174,25.12359],[121.46134,25.12299],[121.4588,25.12294],[121.45936,25.12192],[121.46093,25.11617]]]}},{"type":"Feature","properties":{"id":"district:neihu","name":"內湖區","nameEn":"Neihu District","category":"district","source":"osm","tags":{"admin_level":"7"}},"geometry":{"type":"Polygon","coordinates":[[[121.6086,25.0603],[121.60707,25.05967],[121.60307,25.05914],[121.5997,25.05901],[121.59804,25.05916],[121.59472,25.0602],[121.59373,25.06011],[121.59246,25.05961],[121.58905,25.05628],[121.58651,25.05474],[121.58293,25.05348],[121.57978,25.05298],[121.57512,25.05186],[121.57345,25.05188],[121.57219,25.05254],[121.57161,25.05412],[121.57153,25.0568],[121.57123,25.05849],[121.57023,25.0616],[121.5693,25.0638],[121.56958,25.06503],[121.57182,25.06915],[121.57194,25.07219],[121.57121,25.07401],[121.57005,25.07551],[121.56958,25.07583],[121.57018,25.07697],[121.56404,25.07882],[121.56265,25.08031],[121.56275,25.08054],[121.56095,25.08428],[121.56059,25.08459],[121.55943,25.08503],[121.55857,25.08496],[121.5577,25.08452],[121.55765,25.08526],[121.55678,25.08634],[121.55671,25.08674],[121.55678,25.0872],[121.55739,25.0878],[121.55501,25.08849],[121.55411,25.08916],[121.55393,25.08967],[121.55325,25.08996],[121.55265,25.09127],[121.55212,25.09173],[121.55206,25.09224],[121.55216,25.0924],[121.55363,25.09231],[121.55438,25.0925],[121.55456,25.09395],[121.55561,25.09421],[121.55618,25.09456],[121.55653,25.09487],[121.55701,25.09614],[121.55788,25.09615],[121.55782,25.0971],[121.5587,25.09849],[121.55914,25.09809],[121.56067,25.09815],[121.56208,25.09785],[121.56285,25.09851],[121.56442,25.09852],[121.56511,25.09899],[121.56697,25.09922],[121.56793,25.10135],[121.56879,25.10221],[121.56866,25.10294],[121.56964,25.10466],[121.57074,25.10556],[121.5729,25.10612],[121.57369,25.10674],[121.57666,25.10674],[121.57705,25.10579],[121.57759,25.1057],[121.57815,25.10517],[121.57892,25.10499],[121.58038,25.10705],[121.58248,25.10678],[121.5842,25.10826],[121.5853,25.10831],[121.58814,25.11389],[121.58941,25.11395],[121.58986,25.11423],[121.59031,25.11364],[121.59352,25.11515],[121.59409,25.1146],[121.59438,25.11454],[121.59477,25.11484],[121.59569,25.11415],[121.59549,25.11349],[121.59632,25.11239],[121.59651,25.11128],[121.59749,25.10951],[121.59838,25.10891],[121.5991,25.1089],[121.59975,25.10841],[121.60018,25.10858],[121.60236,25.10836],[121.60476,25.10735],[121.6063,25.10728],[121.60676,25.10696],[121.60799,25.10676],[121.61038,25.10516],[121.61189,25.10465],[121.61354,25.10458],[121.61546,25.10384],[121.61617,25.10309],[121.61741,25.10112],[121.61822,25.10075],[121.61865,25.10021],[121.6215,25.09831],[121.62216,25.09732],[121.62329,25.09693],[121.62537,25.09706],[121.62588,25.09663],[121.62625,25.09588],[121.62537,25.09511],[121.62506,25.09367],[121.62632,25.09147],[121.62599,25.09052],[121.62807,25.08839],[121.6283,25.08706],[121.62861,25.08647],[121.62758,25.08484],[121.62758,25.0843],[121.62802,25.08353],[121.62767,25.08256],[121.62723,25.08222],[121.62594,25.08195],[121.62422,25.08026],[121.62415,25.07998],[121.62452,25.07913],[121.6243,25.07882],[121.6239,25.07868],[121.62387,25.07839],[121.62424,25.07811],[121.62508,25.07883],[121.62481,25.07777],[121.6233,25.07718],[121.6232,25.07582],[121.62271,25.07456],[121.6216,25.07479],[121.62123,25.07389],[121.62062,25.07325],[121.62068,25.07256],[121.62127,25.07185],[121.62151,25.06957],[121.621,25.06958],[121.6208,25.06912],[121.62036,25.06876],[121.62,25.06859],[121.6196,25.06865],[121.61947,25.06828],[121.61895,25.06807],[121.6186,25.06767],[121.61763,25.0676],[121.61759,25.06715],[121.61796,25.06644],[121.61778,25.06556],[121.61789,25.06511],[121.61756,25.06518],[121.61711,25.06586],[121.61683,25.06587],[121.61614,25.06394],[121.61392,25.0646],[121.61261,25.06414],[121.61169,25.0626],[121.61015,25.06105],[121.6086,25.0603]]]}},{"type":"Feature","properties":{"id":"district:shilin","name":"士林區","nameEn":"Shilin District","category":"district","source":"osm","tags":{"admin_level":"7"}},"geometry":{"type":"Polygon","coordinates":[[[121.5761,25.1953],[121.57694,25.19534],[121.57912,25.19441],[121.58116,25.19544],[121.58323,25.195],[121.58377,25.19457],[121.58294,25.19401],[121.58266,25.19296],[121.58353,25.1924],[121.58389,25.19004],[121.58378,25.1895],[121.58401,25.18876],[121.58322,25.18876],[121.58283,25.18843],[121.5833,25.18791],[121.58185,25.18636],[121.58184,25.18587],[121.58272,25.18493],[121.58291,25.18438],[121.58288,25.18356],[121.58196,25.18341],[121.58143,25.18284],[121.58126,25.18226],[121.58091,25.18201],[121.581,25.18139],[121.58139,25.18078],[121.58136,25.18022],[121.58216,25.17971],[121.58241,25.17865],[121.58333,25.17721],[121.58269,25.17645],[121.58272,25.17535],[121.58044,25.17285],[121.57751,25.17027],[121.57698,25.16715],[121.57988,25.16556],[121.58439,25.16496],[121.58812,25.16297],[121.58991,25.16374],[121.59049,25.16112],[121.59048,25.16045],[121.5918,25.1575],[121.59154,25.15697],[121.59185,25.15589],[121.59157,25.15506],[121.59078,25.15459],[121.59039,25.1533],[121.58948,25.15268],[121.58939,25.15238],[121.59074,25.15132],[121.59294,25.15072],[121.59375,25.15006],[121.59402,25.14794],[121.59536,25.14628],[121.59599,25.14488],[121.59604,25.14411],[121.59573,25.14351],[121.59614,25.14293],[121.5971,25.1425],[121.59732,25.14198],[121.59818,25.14106],[121.59838,25.14026],[121.60049,25.13938],[121.60163,25.13792],[121.60298,25.13737],[121.60384,25.13663],[121.60407,25.13618],[121.60466,25.13644],[121.60504,25.13698],[121.60568,25.13675],[121.60535,25.13645],[121.60524,25.13554],[121.60456,25.13455],[121.60449,25.13387],[121.60484,25.13275],[121.60457,25.13171],[121.60462,25.13077],[121.60684,25.13053],[121.60783,25.1302],[121.60751,25.12916],[121.60497,25.12677],[121.60443,25.12592],[121.60346,25.1255],[121.60273,25.1262],[121.60172,25.12602],[121.60117,25.12432],[121.60118,25.12325],[121.60077,25.12185],[121.59981,25.12033],[121.59936,25.12042],[121.59887,25.12012],[121.59807,25.11781],[121.59738,25.1166],[121.5975,25.11621],[121.59599,25.11423],[121.59569,25.11415],[121.59477,25.11484],[121.59438,25.11454],[121.59409,25.1146],[121.59352,25.11515],[121.59031,25.11364],[121.58986,25.11423],[121.58941,25.11395],[121.58814,25.11389],[121.5853,25.10831],[121.5842,25.10826],[121.58248,25.10678],[121.58038,25.10705],[121.57892,25.10499],[121.57815,25.10517],[121.57759,25.1057],[121.57705,25.10579],[121.57666,25.10674],[121.57369,25.10674],[121.5729,25.10612],[121.57074,25.10556],[121.56964,25.10466],[121.56866,25.10294],[121.56879,25.10221],[121.56793,25.10135],[121.56697,25.09922],[121.56511,25.09899],[121.56442,25.09852],[121.56285,25.09851],[121.56208,25.09785],[121.56067,25.09815],[121.55914,25.09809],[121.5587,25.09849],[121.55782,25.0971],[121.55788,25.09615],[121.55701,25.09614],[121.55653,25.09487],[121.55618,25.09456],[121.55561,25.09421],[121.55456,25.09395],[121.55438,25.0925],[121.55363,25.09231],[121.55216,25.0924],[121.55199,25.092],[121.55127,25.09169],[121.55049,25.09181],[121.5495,25.09166],[121.54931,25.09126],[121.54578,25.09041],[121.54487,25.09042],[121.54454,25.09112],[121.54397,25.09173],[121.54138,25.09176],[121.53996,25.09207],[121.53935,25.09199],[121.5363,25.09049],[121.53336,25.08773],[121.53294,25.08764],[121.53255,25.08686],[121.5308,25.08519],[121.52916,25.08462],[121.52811,25.08368],[121.52693,25.08252],[121.52691,25.08202],[121.52628,25.08153],[121.5257,25.08133],[121.5251,25.08204],[121.52465,25.08142],[121.52427,25.08045],[121.52594,25.07487],[121.525,25.07416],[121.52378,25.07627],[121.52172,25.07761],[121.51811,25.07906],[121.51624,25.08023],[121.51457,25.0793],[121.51325,25.07948],[121.51139,25.07868],[121.50943,25.07819],[121.50473,25.07794],[121.50404,25.08009],[121.50252,25.08316],[121.49978,25.08721],[121.49543,25.09128],[121.49253,25.09348],[121.48901,25.09699],[121.48607,25.09879],[121.48315,25.09989],[121.48135,25.10085],[121.47848,25.10139],[121.4662,25.10169],[121.46357,25.1027],[121.46135,25.10386],[121.45843,25.10602],[121.45733,25.1071],[121.4572,25.10872],[121.45771,25.11033],[121.45832,25.11171],[121.46093,25.11617],[121.46322,25.11409],[121.46678,25.11175],[121.46855,25.11094],[121.47204,25.11064],[121.47347,25.11082],[121.47751,25.11226],[121.48717,25.11503],[121.48875,25.1153],[121.49009,25.11528],[121.49206,25.11468],[121.49496,25.11282],[121.49545,25.11235],[121.49652,25.1104],[121.4971,25.10714],[121.49694,25.10026],[121.49715,25.09859],[121.4976,25.09805],[121.50144,25.09647],[121.50543,25.09651],[121.50926,25.09592],[121.51054,25.09744],[121.51199,25.09803],[121.51716,25.0994],[121.5175,25.09976],[121.51769,25.10062],[121.5176,25.10133],[121.51849,25.10347],[121.5198,25.10412],[121.52129,25.10694],[121.52115,25.10882],[121.5225,25.10948],[121.52269,25.11088],[121.5252,25.11137],[121.5258,25.11263],[121.52502,25.11456],[121.52501,25.11599],[121.52372,25.11711],[121.52354,25.1175],[121.52441,25.11958],[121.5249,25.12019],[121.52572,25.12075],[121.52561,25.12179],[121.52602,25.12286],[121.52676,25.12363],[121.5284,25.12378],[121.52958,25.12422],[121.52982,25.12624],[121.53101,25.12683],[121.53133,25.12747],[121.53144,25.12877],[121.53087,25.13211],[121.53122,25.1337],[121.53118,25.1339],[121.53035,25.13442],[121.53056,25.1357],[121.53084,25.13623],[121.53149,25.13714],[121.53322,25.13755],[121.53475,25.13903],[121.5363,25.1393],[121.53824,25.1402],[121.53926,25.14069],[121.53964,25.14135],[121.54057,25.14161],[121.54155,25.14161],[121.54195,25.14221],[121.54262,25.14257],[121.54424,25.14173],[121.54567,25.14152],[121.54605,25.14184],[121.54635,25.14289],[121.54794,25.1434],[121.54841,25.14427],[121.54881,25.14596],[121.54932,25.14635],[121.54902,25.14725],[121.54947,25.14954],[121.55003,25.15017],[121.55004,25.15121],[121.55306,25.15412],[121.5533,25.15453],[121.55327,25.15529],[121.55571,25.16054],[121.55849,25.16109],[121.5612,25.16326],[121.56106,25.16458],[121.56208,25.16828],[121.56318,25.1696],[121.56309,25.17091],[121.56129,25.17327],[121.56089,25.17449],[121.56268,25.17765],[121.56497,25.17819],[121.56609,25.18035],[121.56642,25.18186],[121.56811,25.18374],[121.568,25.18634],[121.56707,25.1887],[121.56873,25.19024],[121.57155,25.19203],[121.57324,25.19355],[121.57334,25.19412],[121.5746,25.19469],[121.57566,25.19464],[121.57576,25.19518],[121.5761,25.1953]]]}}]}