{"type":"FeatureCollection","features":[{"type":"Feature","properties":{"id":"listing:01","name":"Sample listing 01","category":"listing","source":"sample","sample":true},"geometry":{"type":"Point","coordinates":[121.52888,25.02325]}},{"type":"Feature","properties":{"id":"listing:02","name":"Sample listing 02","category":"listing","source":"sample","sample":true},"geometry":{"type":"Point","coordinates":[121.56134,25.01789]}},{"type":"Feature","properties":{"id":"listing:03","name":"Sample listing 03","category":"listing","source":"sample","sample":true},"geometry":{"type":"Point","coordinates":[121.53407,25.05811]}},{"type":"Feature","properties":{"id":"listing:04","name":"Sample listing 04","category":"listing","source":"sample","sample":true},"geometry":{"type":"Point","coordinates":[121.53464,25.05168]}},{"type":"Feature","properties":{"id":"listing:05","name":"Sample listing 05","category":"listing","source":"sample","sample":true},"geometry":{"type":"Point","coordinates":[121.54647,25.08013]}},{"type":"Feature","properties":{"id":"listing:06","name":"Sample listing 06","category":"listing","source":"sample","sample":true},"geometry":{"type":"Point","coordinates":[121.56812,25.03208]}},{"type":"Feature","properties":{"id":"listing:07","name":"Sample listing 07","category":"listing","source":"sample","sample":true},"geometry":{"type":"Point","coordinates":[121.55297,25.03375]}},{"type":"Feature","properties":{"id":"listing:08","name":"Sample listing 08","category":"listing","source":"sample","sample":true},"geometry":{"type":"Point","coordinates":[121.54211,25.03313]}},{"type":"Feature","properties":{"id":"listing:09","name":"Sample listing 09","category":"listing","source":"sample","sample":true},"geometry":{"type":"Point","coordinates":[121.53427,25.03373]}},{"type":"Feature","properties":{"id":"listing:10","name":"Sample listing 10","category":"listing","source":"sample","sample":true},"geometry":{"type":"Point","coordinates":[121.52175,25.0584]}},{"type":"Feature","properties":{"id":"listing:11","name":"Sample listing 11","category":"listing","source":"sample","sample":true},"geometry":{"type":"Point","coordinates":[121.52018,25.06097]}},{"type":"Feature","properties":{"id":"listing:12","name":"Sample listing 12","category":"listing","source":"sample","sample":true},"geometry":{"type":"Point","coordinates":[121.55283,25.02314]}},{"type":"Feature","properties":{"id":"listing:13","name":"Sample listing 13","category":"listing","source":"sample","sample":true},"geometry":{"type":"Point","coordinates":[121.54419,25.02542]}},{"type":"Feature","properties":{"id":"listing:14","name":"Sample listing 14","category":"listing","source":"sample","sample":true},"geometry":{"type":"Point","coordinates":[121.54412,25.0437]}},{"type":"Feature","properties":{"id":"listing:15","name":"Sample listing 15","category":"listing","source":"sample","sample":true},"geometry":{"type":"Point","coordinates":[121.54633,25.05073]}},{"type":"Feature","properties":{"id":"listing:16","name":"Sample listing 16","category":"listing","source":"sample","sample":true},"geometry":{"type":"Point","coordinates":[121.54607,25.0586]}},{"type":"Feature","properties":{"id":"listing:17","name":"Sample listing 17","category":"listing","source":"sample","sample":true},"geometry":{"type":"Point","coordinates":[121.55062,25.06382]}},{"type":"Feature","properties":{"id":"listing:18","name":"Sample listing 18","category":"listing","source":"sample","sample":true},"geometry":{"type":"Point","coordinates":[121.55745,25.08463]}},{"type":"Feature","properties":{"id":"listing:19","name":"Sample listing 19","category":"listing","source":"sample","sample":true},"geometry":{"type":"Point","coordinates":[121.56416,25.03991]}},{"type":"Feature","properties":{"id":"listing:20","name":"Sample listing 20","category":"listing","source":"sample","sample":true},"geometry":{"type":"Point","coordinates":[121.53591,25.01397]}},{"type":"Feature","properties":{"id":"listing:21","name":"Sample listing 21","category":"listing","source":"sample","sample":true},"geometry":{"type":"Point","coordinates":[121.55602,25.04175]}},{"type":"Feature","properties":{"id":"listing:22","name":"Sample listing 22","category":"listing","source":"sample","sample":true},"geometry":{"type":"Point","coordinates":[121.55027,25.04056]}},{"type":"Feature","properties":{"id":"listing:23","name":"Sample listing 23","category":"listing","source":"sample","sample":true},"geometry":{"type":"Point","coordinates":[121.57708,25.04037]}},{"type":"Feature","properties":{"id":"listing:24","name":"Sample listing 24","category":"listing","source":"sample","sample":true},"geometry":{"type":"Point","coordinates":[121.5247,25.06077]}},{"type":"Feature","properties":{"id":"listing:25","name":"Sample listing 25","category":"listing","source":"sample","sample":true},"geometry":{"type":"Point","coordinates":[121.56415,25.0491]}}]}