{"type":"FeatureCollection","features":[{"type":"Feature","properties":{"id":"osm:node:253559357","name":"台電大樓","nameEn":"Taipower Building","category":"mrt_station","source":"osm","tags":{"network":"臺北捷運","operator":"臺北大眾捷運股份有限公司"}},"geometry":{"type":"Point","coordinates":[121.52821,25.02067]}},{"type":"Feature","properties":{"id":"osm:node:269820830","name":"新北投","nameEn":"Xinbeitou","category":"mrt_station","source":"osm","tags":{"network":"臺北捷運","operator":"臺北大眾捷運股份有限公司"}},"geometry":{"type":"Point","coordinates":[121.50317,25.13696]}},{"type":"Feature","properties":{"id":"osm:node:373400459","name":"西湖","nameEn":"Xihu","category":"mrt_station","source":"osm","tags":{"network":"臺北捷運","operator":"臺北大眾捷運股份有限公司"}},"geometry":{"type":"Point","coordinates":[121.56732,25.08219]}},{"type":"Feature","properties":{"id":"osm:node:689295008","name":"辛亥","nameEn":"Xinhai","category":"mrt_station","source":"osm","tags":{"network":"臺北捷運","operator":"臺北大眾捷運股份有限公司"}},"geometry":{"type":"Point","coordinates":[121.55706,25.00548]}},{"type":"Feature","properties":{"id":"osm:node:689354512","name":"萬芳醫院","nameEn":"Wanfang Hospital","category":"mrt_station","source":"osm","tags":{"network":"臺北捷運","operator":"臺北大眾捷運股份有限公司"}},"geometry":{"type":"Point","coordinates":[121.55814,24.99943]}},{"type":"Feature","properties":{"id":"osm:node:689418701","name":"萬芳社區","nameEn":"Wanfang Community","category":"mrt_station","source":"osm","tags":{"network":"臺北捷運","operator":"臺北大眾捷運股份有限公司"}},"geometry":{"type":"Point","coordinates":[121.56812,24.99861]}},{"type":"Feature","properties":{"id":"osm:node:689420115","name":"木柵","nameEn":"Muzha","category":"mrt_station","source":"osm","tags":{"network":"臺北捷運","operator":"臺北大眾捷運股份有限公司"}},"geometry":{"type":"Point","coordinates":[121.57318,24.99825]}},{"type":"Feature","properties":{"id":"osm:node:689422202","name":"動物園","nameEn":"Taipei Zoo","category":"mrt_station","source":"osm","tags":{"network":"臺北捷運","operator":"臺北大眾捷運股份有限公司"}},"geometry":{"type":"Point","coordinates":[121.57945,24.99832]}},{"type":"Feature","properties":{"id":"osm:node:689442955","name":"麟光","nameEn":"Linguang","category":"mrt_station","source":"osm","tags":{"network":"臺北捷運","operator":"臺北大眾捷運股份有限公司"}},"geometry":{"type":"Point","coordinates":[121.55891,25.01844]}},{"type":"Feature","properties":{"id":"osm:node:1493007672","name":"行天宮","nameEn":"Xingtian Temple","category":"mrt_station","source":"osm","tags":{"network":"臺北捷運","operator":"臺北大眾捷運股份有限公司"}},"geometry":{"type":"Point","coordinates":[121.53316,25.05941]}},{"type":"Feature","properties":{"id":"osm:node:1493007755","name":"松江南京","nameEn":"Songjiang Nanjing","category":"mrt_station","source":"osm","tags":{"network":"臺北捷運","operator":"臺北大眾捷運股份有限公司"}},"geometry":{"type":"Point","coordinates":[121.53304,25.05201]}},{"type":"Feature","properties":{"id":"osm:node:1681745146","name":"大直","nameEn":"Dazhi","category":"mrt_station","source":"osm","tags":{"network":"臺北捷運","operator":"臺北大眾捷運股份有限公司"}},"geometry":{"type":"Point","coordinates":[121.54744,25.07987]}},{"type":"Feature","properties":{"id":"osm:node:1940469232","name":"東門","nameEn":"Dongmen","category":"mrt_station","source":"osm","tags":{"network":"臺北捷運","operator":"臺北大眾捷運股份有限公司"}},"geometry":{"type":"Point","coordinates":[121.52926,25.03384]}},{"type":"Feature","properties":{"id":"osm:node:1945578205","name":"南港展覽館","nameEn":"Taipei Nangang Exhibition Center","category":"mrt_station","source":"osm","tags":{"network":"臺北捷運","operator":"臺北大眾捷運股份有限公司"}},"geometry":{"type":"Point","coordinates":[121.61756,25.05494]}},{"type":"Feature","properties":{"id":"osm:node:2083320436","name":"秀朗橋","nameEn":"Xiulang Bridge","category":"mrt_station","source":"osm","tags":{"network":"新北捷運","operator":"新北捷運公司"}},"geometry":{"type":"Point","coordinates":[121.5249,24.99033]}},{"type":"Feature","properties":{"id":"osm:node:2083320640","name":"中原","nameEn":"Zhongyuan","category":"mrt_station","source":"osm","tags":{"network":"新北捷運","operator":"新北捷運公司"}},"geometry":{"type":"Point","coordinates":[121.48427,25.00818]}},{"type":"Feature","properties":{"id":"osm:node:2083320835","name":"頭前庄","nameEn":"Touqianzhuang","category":"mrt_station","source":"osm","tags":{"network":"新北捷運","operator":"新北捷運公司"}},"geometry":{"type":"Point","coordinates":[121.46085,25.0397]}},{"type":"Feature","properties":{"id":"osm:node:2083320848","name":"新北產業園區","nameEn":"New Taipei Industrial Park","category":"mrt_station","source":"osm","tags":{"network":"新北捷運","operator":"新北捷運公司"}},"geometry":{"type":"Point","coordinates":[121.45938,25.06149]}},{"type":"Feature","properties":{"id":"osm:node:2410061384","name":"幸福","nameEn":"Xingfu","category":"mrt_station","source":"osm","tags":{"network":"新北捷運","operator":"新北捷運公司"}},"geometry":{"type":"Point","coordinates":[121.45997,25.04999]}},{"type":"Feature","properties":{"id":"osm:node:2866559962","name":"新埔民生","nameEn":"Xinpu Minsheng","category":"mrt_station","source":"osm","tags":{"network":"新北捷運","operator":"新北捷運公司"}},"geometry":{"type":"Point","coordinates":[121.46667,25.02613]}},{"type":"Feature","properties":{"id":"osm:node:2866570655","name":"板橋","nameEn":"Banqiao","category":"mrt_station","source":"osm","tags":{"network":"新北捷運","operator":"新北捷運公司"}},"geometry":{"type":"Point","coordinates":[121.46379,25.01484]}},{"type":"Feature","properties":{"id":"osm:node:2866571173","name":"十四張","nameEn":"Shisizhang","category":"mrt_station","source":"osm","tags":{"network":"新北捷運","operator":"新北捷運公司"}},"geometry":{"type":"Point","coordinates":[121.52759,24.98447]}},{"type":"Feature","properties":{"id":"osm:node:2866571176","name":"景平","nameEn":"Jingping","category":"mrt_station","source":"osm","tags":{"network":"新北捷運","operator":"新北捷運公司"}},"geometry":{"type":"Point","coordinates":[121.51617,24.99215]}},{"type":"Feature","properties":{"id":"osm:node:2866590585","name":"板新","nameEn":"Banxin","category":"mrt_station","source":"osm","tags":{"network":"新北捷運","operator":"新北捷運公司"}},"geometry":{"type":"Point","coordinates":[121.47242,25.01453]}},{"type":"Feature","properties":{"id":"osm:node:2971714589","name":"內湖","nameEn":"Neihu","category":"mrt_station","source":"osm","tags":{"network":"臺北捷運","operator":"臺北大眾捷運股份有限公司"}},"geometry":{"type":"Point","coordinates":[121.59419,25.0835]}},{"type":"Feature","properties":{"id":"osm:node:2973163775","name":"台大醫院","nameEn":"NTU Hospital","category":"mrt_station","source":"osm","tags":{"network":"臺北捷運","operator":"臺北大眾捷運股份有限公司"}},"geometry":{"type":"Point","coordinates":[121.51618,25.04165]}},{"type":"Feature","properties":{"id":"osm:node:3263840809","name":"北門","nameEn":"Beimen","category":"mrt_station","source":"osm","tags":{"network":"臺北捷運","operator":"臺北大眾捷運股份有限公司"}},"geometry":{"type":"Point","coordinates":[121.51033,25.0494]}},{"type":"Feature","properties":{"id":"osm:node:3494960745","name":"象山","nameEn":"Xiangshan","category":"mrt_station","source":"osm","tags":{"network":"臺北捷運","operator":"臺北大眾捷運股份有限公司"}},"geometry":{"type":"Point","coordinates":[121.56976,25.03287]}},{"type":"Feature","properties":{"id":"osm:node:3494960747","name":"信義安和","nameEn":"Xinyi Anhe","category":"mrt_station","source":"osm","tags":{"network":"臺北捷運","operator":"臺北大眾捷運股份有限公司"}},"geometry":{"type":"Point","coordinates":[121.55273,25.03313]}},{"type":"Feature","properties":{"id":"osm:node:3494960748","name":"大安","nameEn":"Daan","category":"mrt_station","source":"osm","tags":{"network":"臺北捷運","operator":"臺北大眾捷運股份有限公司"}},"geometry":{"type":"Point","coordinates":[121.54355,25.03333]}},{"type":"Feature","properties":{"id":"osm:node:3494960749","name":"大安森林公園","nameEn":"Daan Park","category":"mrt_station","source":"osm","tags":{"network":"臺北捷運","operator":"臺北大眾捷運股份有限公司"}},"geometry":{"type":"Point","coordinates":[121.53528,25.03356]}},{"type":"Feature","properties":{"id":"osm:node:3494960750","name":"中正紀念堂","nameEn":"Chiang Kai-Shek Memorial Hall","category":"mrt_station","source":"osm","tags":{"network":"臺北捷運","operator":"臺北大眾捷運股份有限公司"}},"geometry":{"type":"Point","coordinates":[121.51755,25.0337]}},{"type":"Feature","properties":{"id":"osm:node:3495094870","name":"台北車站","nameEn":"Taipei main station","category":"mrt_station","source":"osm","tags":{"network":"臺北捷運","operator":"臺北大眾捷運股份有限公司"}},"geometry":{"type":"Point","coordinates":[121.51591,25.04747]}},{"type":"Feature","properties":{"id":"osm:node:3495094871","name":"中山","nameEn":"Zhongshan","category":"mrt_station","source":"osm","tags":{"network":"臺北捷運","operator":"臺北大眾捷運股份有限公司"}},"geometry":{"type":"Point","coordinates":[121.52039,25.05263]}},{"type":"Feature","properties":{"id":"osm:node:3495094872","name":"雙連","nameEn":"Shuanglian","category":"mrt_station","source":"osm","tags":{"network":"臺北捷運","operator":"臺北大眾捷運股份有限公司"}},"geometry":{"type":"Point","coordinates":[121.5207,25.05763]}},{"type":"Feature","properties":{"id":"osm:node:3495094873","name":"民權西路","nameEn":"Minquan W. Rd.","category":"mrt_station","source":"osm","tags":{"network":"臺北捷運","operator":"臺北大眾捷運股份有限公司"}},"geometry":{"type":"Point","coordinates":[121.5194,25.06285]}},{"type":"Feature","properties":{"id":"osm:node:3495094874","name":"圓山","nameEn":"Yuanshan","category":"mrt_station","source":"osm","tags":{"network":"臺北捷運","operator":"臺北大眾捷運股份有限公司"}},"geometry":{"type":"Point","coordinates":[121.52014,25.07142]}},{"type":"Feature","properties":{"id":"osm:node:3495094875","name":"劍潭","nameEn":"Jiantan","category":"mrt_station","source":"osm","tags":{"network":"臺北捷運","operator":"臺北大眾捷運股份有限公司"}},"geometry":{"type":"Point","coordinates":[121.52498,25.08429]}},{"type":"Feature","properties":{"id":"osm:node:3495094876","name":"士林","nameEn":"Shilin","category":"mrt_station","source":"osm","tags":{"network":"臺北捷運","operator":"臺北大眾捷運股份有限公司"}},"geometry":{"type":"Point","coordinates":[121.52625,25.09349]}},{"type":"Feature","properties":{"id":"osm:node:3495094877","name":"芝山","nameEn":"Zhishan","category":"mrt_station","source":"osm","tags":{"network":"臺北捷運","operator":"臺北大眾捷運股份有限公司"}},"geometry":{"type":"Point","coordinates":[121.52252,25.103]}},{"type":"Feature","properties":{"id":"osm:node:3495094878","name":"明德","nameEn":"Mingde","category":"mrt_station","source":"osm","tags":{"network":"臺北捷運","operator":"臺北大眾捷運股份有限公司"}},"geometry":{"type":"Point","coordinates":[121.51877,25.10986]}},{"type":"Feature","properties":{"id":"osm:node:3495094879","name":"石牌","nameEn":"Shipai","category":"mrt_station","source":"osm","tags":{"network":"臺北捷運","operator":"臺北大眾捷運股份有限公司"}},"geometry":{"type":"Point","coordinates":[121.51552,25.11461]}},{"type":"Feature","properties":{"id":"osm:node:3495094880","name":"唭哩岸","nameEn":"Qilian","category":"mrt_station","source":"osm","tags":{"network":"臺北捷運","operator":"臺北大眾捷運股份有限公司"}},"geometry":{"type":"Point","coordinates":[121.50613,25.1209]}},{"type":"Feature","properties":{"id":"osm:node:3495094881","name":"奇岩","nameEn":"Qiyan","category":"mrt_station","source":"osm","tags":{"network":"臺北捷運","operator":"臺北大眾捷運股份有限公司"}},"geometry":{"type":"Point","coordinates":[121.50114,25.1256]}},{"type":"Feature","properties":{"id":"osm:node:3495094882","name":"北投","nameEn":"Beitou","category":"mrt_station","source":"osm","tags":{"network":"臺北捷運","operator":"臺北大眾捷運股份有限公司"}},"geometry":{"type":"Point","coordinates":[121.49859,25.13193]}},{"type":"Feature","properties":{"id":"osm:node:3495094883","name":"復興崗","nameEn":"Fuxinggang","category":"mrt_station","source":"osm","tags":{"network":"臺北捷運","operator":"臺北大眾捷運股份有限公司"}},"geometry":{"type":"Point","coordinates":[121.4855,25.13749]}},{"type":"Feature","properties":{"id":"osm:node:3495094884","name":"忠義","nameEn":"Zhongyi","category":"mrt_station","source":"osm","tags":{"network":"臺北捷運","operator":"臺北大眾捷運股份有限公司"}},"geometry":{"type":"Point","coordinates":[121.47337,25.13095]}},{"type":"Feature","properties":{"id":"osm:node:3495094885","name":"關渡","nameEn":"Guandu","category":"mrt_station","source":"osm","tags":{"network":"臺北捷運","operator":"臺北大眾捷運股份有限公司"}},"geometry":{"type":"Point","coordinates":[121.46714,25.1257]}},{"type":"Feature","properties":{"id":"osm:node:3495094886","name":"竹圍","nameEn":"Zhuwei","category":"mrt_station","source":"osm","tags":{"network":"臺北捷運","operator":"臺北大眾捷運股份有限公司"}},"geometry":{"type":"Point","coordinates":[121.45951,25.13697]}},{"type":"Feature","properties":{"id":"osm:node:3495094887","name":"紅樹林","nameEn":"Hongshulin","category":"mrt_station","source":"osm","tags":{"network":"臺北捷運","operator":"臺北大眾捷運股份有限公司"}},"geometry":{"type":"Point","coordinates":[121.45883,25.15441]}},{"type":"Feature","properties":{"id":"osm:node:3497302603","name":"六張犁","nameEn":"Liuzhangli","category":"mrt_station","source":"osm","tags":{"network":"臺北捷運","operator":"臺北大眾捷運股份有限公司"}},"geometry":{"type":"Point","coordinates":[121.55312,25.02382]}},{"type":"Feature","properties":{"id":"osm:node:3497302604","name":"科技大樓","nameEn":"Technology Building","category":"mrt_station","source":"osm","tags":{"network":"臺北捷運","operator":"臺北大眾捷運股份有限公司"}},"geometry":{"type":"Point","coordinates":[121.54346,25.0261]}},{"type":"Feature","properties":{"id":"osm:node:3497302605","name":"忠孝復興","nameEn":"Zhongxiao Fuxing","category":"mrt_station","source":"osm","tags":{"network":"臺北捷運","operator":"臺北大眾捷運股份有限公司"}},"geometry":{"type":"Point","coordinates":[121.54377,25.04154]}},{"type":"Feature","properties":{"id":"osm:node:3497302606","name":"南京復興","nameEn":"Nanjing Fuxing","category":"mrt_station","source":"osm","tags":{"network":"臺北捷運","operator":"臺北大眾捷運股份有限公司"}},"geometry":{"type":"Point","coordinates":[121.54397,25.05184]}},{"type":"Feature","properties":{"id":"osm:node:3497302607","name":"中山國中","nameEn":"Zhongshan Junior High School","category":"mrt_station","source":"osm","tags":{"network":"臺北捷運","operator":"臺北大眾捷運股份有限公司"}},"geometry":{"type":"Point","coordinates":[121.5442,25.06069]}},{"type":"Feature","properties":{"id":"osm:node:3497302608","name":"松山機場","nameEn":"Songshan Airport","category":"mrt_station","source":"osm","tags":{"network":"臺北捷運","operator":"臺北大眾捷運股份有限公司"}},"geometry":{"type":"Point","coordinates":[121.55161,25.06309]}},{"type":"Feature","properties":{"id":"osm:node:3497302610","name":"劍南路","nameEn":"Jiannan Road","category":"mrt_station","source":"osm","tags":{"network":"臺北捷運","operator":"臺北大眾捷運股份有限公司"}},"geometry":{"type":"Point","coordinates":[121.55565,25.08485]}},{"type":"Feature","properties":{"id":"osm:node:3501186374","name":"港墘","nameEn":"Gangqian","category":"mrt_station","source":"osm","tags":{"network":"臺北捷運","operator":"臺北大眾捷運股份有限公司"}},"geometry":{"type":"Point","coordinates":[121.5752,25.08007]}},{"type":"Feature","properties":{"id":"osm:node:3501186375","name":"文德","nameEn":"Wende","category":"mrt_station","source":"osm","tags":{"network":"臺北捷運","operator":"臺北大眾捷運股份有限公司"}},"geometry":{"type":"Point","coordinates":[121.58494,25.07856]}},{"type":"Feature","properties":{"id":"osm:node:3501186376","name":"大湖公園","nameEn":"Dahu Park","category":"mrt_station","source":"osm","tags":{"network":"臺北捷運","operator":"臺北大眾捷運股份有限公司"}},"geometry":{"type":"Point","coordinates":[121.60234,25.08376]}},{"type":"Feature","properties":{"id":"osm:node:3501186377","name":"葫洲","nameEn":"Huzhou","category":"mrt_station","source":"osm","tags":{"network":"臺北捷運","operator":"臺北大眾捷運股份有限公司"}},"geometry":{"type":"Point","coordinates":[121.60736,25.07264]}},{"type":"Feature","properties":{"id":"osm:node:3501186378","name":"東湖","nameEn":"Donghu","category":"mrt_station","source":"osm","tags":{"network":"臺北捷運","operator":"臺北大眾捷運股份有限公司"}},"geometry":{"type":"Point","coordinates":[121.61161,25.06742]}},{"type":"Feature","properties":{"id":"osm:node:3501186379","name":"南港軟體園區","nameEn":"Nangang Software Park","category":"mrt_station","source":"osm","tags":{"network":"臺北捷運","operator":"臺北大眾捷運股份有限公司"}},"geometry":{"type":"Point","coordinates":[121.6159,25.05995]}},{"type":"Feature","properties":{"id":"osm:node:3502209233","name":"新店區公所","nameEn":"Xindian District Office","category":"mrt_station","source":"osm","tags":{"network":"臺北捷運","operator":"臺北大眾捷運股份有限公司"}},"geometry":{"type":"Point","coordinates":[121.54135,24.96739]}},{"type":"Feature","properties":{"id":"osm:node:3502209234","name":"七張","nameEn":"Qizhang","category":"mrt_station","source":"osm","tags":{"network":"臺北捷運","operator":"臺北大眾捷運股份有限公司"}},"geometry":{"type":"Point","coordinates":[121.54292,24.97502]}},{"type":"Feature","properties":{"id":"osm:node:3502209235","name":"大坪林","nameEn":"Dapinglin","category":"mrt_station","source":"osm","tags":{"network":"臺北捷運","operator":"臺北大眾捷運股份有限公司"}},"geometry":{"type":"Point","coordinates":[121.54149,24.98287]}},{"type":"Feature","properties":{"id":"osm:node:3512275767","name":"市政府","nameEn":"Taipei City Hall","category":"mrt_station","source":"osm","tags":{"network":"臺北捷運","operator":"臺北大眾捷運股份有限公司"}},"geometry":{"type":"Point","coordinates":[121.5661,25.04113]}},{"type":"Feature","properties":{"id":"osm:node:3530915061","name":"景美","nameEn":"Jingmei","category":"mrt_station","source":"osm","tags":{"network":"臺北捷運","operator":"臺北大眾捷運股份有限公司"}},"geometry":{"type":"Point","coordinates":[121.54071,24.99271]}},{"type":"Feature","properties":{"id":"osm:node:3530915062","name":"萬隆","nameEn":"Wanlong","category":"mrt_station","source":"osm","tags":{"network":"臺北捷運","operator":"臺北大眾捷運股份有限公司"}},"geometry":{"type":"Point","coordinates":[121.53902,25.0019]}},{"type":"Feature","properties":{"id":"osm:node:3530915063","name":"公館","nameEn":"Gongguan","category":"mrt_station","source":"osm","tags":{"network":"臺北捷運","operator":"臺北大眾捷運股份有限公司"}},"geometry":{"type":"Point","coordinates":[121.53426,25.01492]}},{"type":"Feature","properties":{"id":"osm:node:3578751641","name":"善導寺","nameEn":"Shandao Temple","category":"mrt_station","source":"osm","tags":{"network":"臺北捷運","operator":"臺北大眾捷運股份有限公司"}},"geometry":{"type":"Point","coordinates":[121.52342,25.04476]}},{"type":"Feature","properties":{"id":"osm:node:3639530940","name":"亞東醫院","nameEn":"Far Eastern Hospital","category":"mrt_station","source":"osm","tags":{"network":"臺北捷運","operator":"臺北大眾捷運股份有限公司"}},"geometry":{"type":"Point","coordinates":[121.45236,24.99752]}},{"type":"Feature","properties":{"id":"osm:node:3639530941","name":"南港","nameEn":"Nangang","category":"mrt_station","source":"osm","tags":{"network":"臺北捷運","operator":"臺北大眾捷運股份有限公司"}},"geometry":{"type":"Point","coordinates":[121.60719,25.05209]}},{"type":"Feature","properties":{"id":"osm:node:3639530942","name":"國父紀念館","nameEn":"Sun Yat-Sen Memorial Hall","category":"mrt_station","source":"osm","tags":{"network":"臺北捷運","operator":"臺北大眾捷運股份有限公司"}},"geometry":{"type":"Point","coordinates":[121.55739,25.04134]}},{"type":"Feature","properties":{"id":"osm:node:3639530943","name":"府中","nameEn":"Fuzhong","category":"mrt_station","source":"osm","tags":{"network":"臺北捷運","operator":"臺北大眾捷運股份有限公司"}},"geometry":{"type":"Point","coordinates":[121.45928,25.00877]}},{"type":"Feature","properties":{"id":"osm:node:3639530944","name":"後山埤","nameEn":"Houshanpi","category":"mrt_station","source":"osm","tags":{"network":"臺北捷運","operator":"臺北大眾捷運股份有限公司"}},"geometry":{"type":"Point","coordinates":[121.58232,25.04474]}},{"type":"Feature","properties":{"id":"osm:node:3639530945","name":"忠孝敦化","nameEn":"Zhongxiao Dunhua","category":"mrt_station","source":"osm","tags":{"network":"臺北捷運","operator":"臺北大眾捷運股份有限公司"}},"geometry":{"type":"Point","coordinates":[121.54948,25.04151]}},{"type":"Feature","properties":{"id":"osm:node:3639530946","name":"新埔","nameEn":"Xinpu","category":"mrt_station","source":"osm","tags":{"network":"臺北捷運","operator":"臺北大眾捷運股份有限公司"}},"geometry":{"type":"Point","coordinates":[121.46831,25.02346]}},{"type":"Feature","properties":{"id":"osm:node:3639530947","name":"昆陽","nameEn":"Kunyang","category":"mrt_station","source":"osm","tags":{"network":"臺北捷運","operator":"臺北大眾捷運股份有限公司"}},"geometry":{"type":"Point","coordinates":[121.59332,25.05049]}},{"type":"Feature","properties":{"id":"osm:node:3639530949","name":"永春","nameEn":"Yongchun","category":"mrt_station","source":"osm","tags":{"network":"臺北捷運","operator":"臺北大眾捷運股份有限公司"}},"geometry":{"type":"Point","coordinates":[121.5757,25.04088]}},{"type":"Feature","properties":{"id":"osm:node:3639530950","name":"江子翠","nameEn":"Jiangzicui","category":"mrt_station","source":"osm","tags":{"network":"臺北捷運","operator":"臺北大眾捷運股份有限公司"}},"geometry":{"type":"Point","coordinates":[121.47278,25.03042]}},{"type":"Feature","properties":{"id":"osm:node:3639530979","name":"西門","nameEn":"Ximen","category":"mrt_station","source":"osm","tags":{"network":"臺北捷運","operator":"臺北大眾捷運股份有限公司"}},"geometry":{"type":"Point","coordinates":[121.50861,25.04271]}},{"type":"Feature","properties":{"id":"osm:node:3639530981","name":"龍山寺","nameEn":"Longshan Temple","category":"mrt_station","source":"osm","tags":{"network":"臺北捷運","operator":"臺北大眾捷運股份有限公司"}},"geometry":{"type":"Point","coordinates":[121.49958,25.03528]}},{"type":"Feature","properties":{"id":"osm:node:3779252951","name":"台北橋","nameEn":"Taipei Bridge","category":"mrt_station","source":"osm","tags":{"network":"臺北捷運","operator":"臺北大眾捷運股份有限公司"}},"geometry":{"type":"Point","coordinates":[121.50055,25.06318]}},{"type":"Feature","properties":{"id":"osm:node:3800658231","name":"小碧潭","nameEn":"Xiaobitan","category":"mrt_station","source":"osm","tags":{"network":"臺北捷運","operator":"臺北大眾捷運股份有限公司"}},"geometry":{"type":"Point","coordinates":[121.5306,24.97177]}},{"type":"Feature","properties":{"id":"osm:node:3800717745","name":"永安市場","nameEn":"Yongan Market","category":"mrt_station","source":"osm","tags":{"network":"臺北捷運","operator":"臺北大眾捷運股份有限公司"}},"geometry":{"type":"Point","coordinates":[121.5109,25.00241]}},{"type":"Feature","properties":{"id":"osm:node:3812564387","name":"三和國中","nameEn":"Sanhe Junior High School","category":"mrt_station","source":"osm","tags":{"network":"臺北捷運","operator":"臺北大眾捷運股份有限公司"}},"geometry":{"type":"Point","coordinates":[121.48638,25.07681]}},{"type":"Feature","properties":{"id":"osm:node:3812564388","name":"三民高中","nameEn":"Sanmin Senior High School","category":"mrt_station","source":"osm","tags":{"network":"臺北捷運","operator":"臺北大眾捷運股份有限公司"}},"geometry":{"type":"Point","coordinates":[121.4733,25.0855]}},{"type":"Feature","properties":{"id":"osm:node:3812564389","name":"三重","nameEn":"Sanchong","category":"mrt_station","source":"osm","tags":{"network":"臺北捷運","operator":"臺北大眾捷運股份有限公司"}},"geometry":{"type":"Point","coordinates":[121.48409,25.05532]}},{"type":"Feature","properties":{"id":"osm:node:3812564390","name":"三重國小","nameEn":"Sanchong Elementary School","category":"mrt_station","source":"osm","tags":{"network":"臺北捷運","operator":"臺北大眾捷運股份有限公司"}},"geometry":{"type":"Point","coordinates":[121.4973,25.07]}},{"type":"Feature","properties":{"id":"osm:node:3812564391","name":"中山國小","nameEn":"Zhongshan Elementary School","category":"mrt_station","source":"osm","tags":{"network":"臺北捷運","operator":"臺北大眾捷運股份有限公司"}},"geometry":{"type":"Point","coordinates":[121.5266,25.06267]}},{"type":"Feature","properties":{"id":"osm:node:3812564393","name":"先嗇宮","nameEn":"Xianse Temple","category":"mrt_station","source":"osm","tags":{"network":"臺北捷運","operator":"臺北大眾捷運股份有限公司"}},"geometry":{"type":"Point","coordinates":[121.47168,25.04643]}},{"type":"Feature","properties":{"id":"osm:node:3812564394","name":"南京三民","nameEn":"Nanjing Sanmin","category":"mrt_station","source":"osm","tags":{"network":"臺北捷運","operator":"臺北大眾捷運股份有限公司"}},"geometry":{"type":"Point","coordinates":[121.56431,25.05143]}},{"type":"Feature","properties":{"id":"osm:node:3812564395","name":"南勢角","nameEn":"Nanshijiao","category":"mrt_station","source":"osm","tags":{"network":"臺北捷運","operator":"臺北大眾捷運股份有限公司"}},"geometry":{"type":"Point","coordinates":[121.50885,24.99003]}},{"type":"Feature","properties":{"id":"osm:node:3812564396","name":"古亭","nameEn":"Guting","category":"mrt_station","source":"osm","tags":{"network":"臺北捷運","operator":"臺北大眾捷運股份有限公司"}},"geometry":{"type":"Point","coordinates":[121.52272,25.02672]}},{"type":"Feature","properties":{"id":"osm:node:3812564397","name":"台北小巨蛋","nameEn":"Taipei Arena","category":"mrt_station","source":"osm","tags":{"network":"臺北捷運","operator":"臺北大眾捷運股份有限公司"}},"geometry":{"type":"Point","coordinates":[121.5515,25.05169]}},{"type":"Feature","properties":{"id":"osm:node:3812564398","name":"大橋頭","nameEn":"Daqiaotou","category":"mrt_station","source":"osm","tags":{"network":"臺北捷運","operator":"臺北大眾捷運股份有限公司"}},"geometry":{"type":"Point","coordinates":[121.51269,25.0632]}},{"type":"Feature","properties":{"id":"osm:node:3812564399","name":"小南門","nameEn":"Xiaonanmen","category":"mrt_station","source":"osm","tags":{"network":"臺北捷運","operator":"臺北大眾捷運股份有限公司"}},"geometry":{"type":"Point","coordinates":[121.51081,25.0359]}},{"type":"Feature","properties":{"id":"osm:node:3812564400","name":"徐匯中學","nameEn":"St. Ignatius High School","category":"mrt_station","source":"osm","tags":{"network":"臺北捷運","operator":"臺北大眾捷運股份有限公司"}},"geometry":{"type":"Point","coordinates":[121.48023,25.08034]}},{"type":"Feature","properties":{"id":"osm:node:3812564401","name":"忠孝新生","nameEn":"Zhongxiao Xinsheng","category":"mrt_station","source":"osm","tags":{"network":"臺北捷運","operator":"臺北大眾捷運股份有限公司"}},"geometry":{"type":"Point","coordinates":[121.53284,25.04229]}},{"type":"Feature","properties":{"id":"osm:node:3812564402","name":"新莊","nameEn":"Xinzhuang","category":"mrt_station","source":"osm","tags":{"network":"臺北捷運","operator":"臺北大眾捷運股份有限公司"}},"geometry":{"type":"Point","coordinates":[121.45336,25.03633]}},{"type":"Feature","properties":{"id":"osm:node:3812564403","name":"景安","nameEn":"Jingan","category":"mrt_station","source":"osm","tags":{"network":"臺北捷運","operator":"臺北大眾捷運股份有限公司"}},"geometry":{"type":"Point","coordinates":[121.50538,24.99359]}},{"type":"Feature","properties":{"id":"osm:node:3812564404","name":"松山","nameEn":"Songshan","category":"mrt_station","source":"osm","tags":{"network":"臺北捷運","operator":"臺北大眾捷運股份有限公司"}},"geometry":{"type":"Point","coordinates":[121.57747,25.05007]}},{"type":"Feature","properties":{"id":"osm:node:3812564422","name":"菜寮","nameEn":"Cailiao","category":"mrt_station","source":"osm","tags":{"network":"臺北捷運","operator":"臺北大眾捷運股份有限公司"}},"geometry":{"type":"Point","coordinates":[121.49211,25.06027]}},{"type":"Feature","properties":{"id":"osm:node:3812564423","name":"蘆洲","nameEn":"Luzhou","category":"mrt_station","source":"osm","tags":{"network":"臺北捷運","operator":"臺北大眾捷運股份有限公司"}},"geometry":{"type":"Point","coordinates":[121.4651,25.09128]}},{"type":"Feature","properties":{"id":"osm:node:3812564426","name":"頂溪","nameEn":"Dingxi","category":"mrt_station","source":"osm","tags":{"network":"臺北捷運","operator":"臺北大眾捷運股份有限公司"}},"geometry":{"type":"Point","coordinates":[121.51547,25.0136]}},{"type":"Feature","properties":{"id":"osm:node:5444300911","name":"橋和","nameEn":"Qiaohe","category":"mrt_station","source":"osm","tags":{"network":"新北捷運","operator":"新北捷運公司"}},"geometry":{"type":"Point","coordinates":[121.49025,25.0046]}},{"type":"Feature","properties":{"id":"osm:node:5444300912","name":"中和","nameEn":"Zhonghe","category":"mrt_station","source":"osm","tags":{"network":"新北捷運","operator":"新北捷運公司"}},"geometry":{"type":"Point","coordinates":[121.49585,25.00232]}},{"type":"Feature","properties":{"id":"osm:node:9974435156","name":"台北101/世貿","nameEn":"Taipei 101/World Trade Center","category":"mrt_station","source":"osm","tags":{"network":"臺北捷運","operator":"臺北大眾捷運股份有限公司"}},"geometry":{"type":"Point","coordinates":[121.56245,25.03298]}}]}