{"type":"FeatureCollection","features":[{"type":"Feature","properties":{"id":"osm:node:2597965513","name":"衛理神學研究院","category":"school","source":"osm"},"geometry":{"type":"Point","coordinates":[121.55,24.99838]}},{"type":"Feature","properties":{"id":"osm:node:4524863636","name":"華北神學院","category":"school","source":"osm"},"geometry":{"type":"Point","coordinates":[121.55106,25.02427]}},{"type":"Feature","properties":{"id":"osm:node:12822571716","name":"臺北市數位實驗高級中學","nameEn":"T-School","category":"school","source":"osm"},"geometry":{"type":"Point","coordinates":[121.52994,25.05376]}},{"type":"Feature","properties":{"id":"osm:node:13728753415","name":"新埔國小","category":"school","source":"osm","tags":{"level":"elementary"}},"geometry":{"type":"Point","coordinates":[121.46266,25.02652]}},{"type":"Feature","properties":{"id":"osm:way:60730699","name":"延平國小","category":"school","source":"osm","tags":{"operator":"臺北市政府教育局","level":"elementary"}},"geometry":{"type":"Point","coordinates":[121.51237,25.06659]}},{"type":"Feature","properties":{"id":"osm:way:80219144","name":"北峰國小","nameEn":"BeiFeng Elementary School","category":"school","source":"osm","tags":{"level":"elementary"}},"geometry":{"type":"Point","coordinates":[121.63231,25.06321]}},{"type":"Feature","properties":{"id":"osm:way:141984902","name":"中正國中","category":"school","source":"osm"},"geometry":{"type":"Point","coordinates":[121.45654,24.98385]}},{"type":"Feature","properties":{"id":"osm:way:200124523","name":"崁腳國小","category":"school","source":"osm","tags":{"level":"elementary"}},"geometry":{"type":"Point","coordinates":[121.64972,25.16063]}},{"type":"Feature","properties":{"id":"osm:way:201716758","name":"大坪國小","category":"school","source":"osm","tags":{"level":"elementary"}},"geometry":{"type":"Point","coordinates":[121.63848,25.16759]}},{"type":"Feature","properties":{"id":"osm:way:215457114","name":"鷺江國小","category":"school","source":"osm","tags":{"operator":"新北市政府教育局","level":"elementary"}},"geometry":{"type":"Point","coordinates":[121.4762,25.08491]}},{"type":"Feature","properties":{"id":"osm:way:215457117","name":"鷺江國中","nameEn":"Luh-jiang Junior High School","category":"school","source":"osm"},"geometry":{"type":"Point","coordinates":[121.46143,25.09097]}},{"type":"Feature","properties":{"id":"osm:way:215457132","name":"徐匯中學","nameEn":"Saint Ignatius High School","category":"school","source":"osm"},"geometry":{"type":"Point","coordinates":[121.4791,25.07943]}},{"type":"Feature","properties":{"id":"osm:way:215552079","name":"三重商工","category":"school","source":"osm"},"geometry":{"type":"Point","coordinates":[121.48121,25.06943]}},{"type":"Feature","properties":{"id":"osm:way:215552080","name":"穀保家商","category":"school","source":"osm"},"geometry":{"type":"Point","coordinates":[121.47159,25.0692]}},{"type":"Feature","properties":{"id":"osm:way:215552081","name":"更寮國小","category":"school","source":"osm","tags":{"level":"elementary"}},"geometry":{"type":"Point","coordinates":[121.46798,25.07011]}},{"type":"Feature","properties":{"id":"osm:way:215557456","name":"格致高中","nameEn":"Ger-Jyh Senior High School","category":"school","source":"osm"},"geometry":{"type":"Point","coordinates":[121.48808,25.07356]}},{"type":"Feature","properties":{"id":"osm:way:225901782","name":"思賢國小","category":"school","source":"osm","tags":{"level":"elementary"}},"geometry":{"type":"Point","coordinates":[121.45682,25.0462]}},{"type":"Feature","properties":{"id":"osm:way:225901783","name":"昌平國小","nameEn":"Chang Ping Elementary School","category":"school","source":"osm","tags":{"level":"elementary"}},"geometry":{"type":"Point","coordinates":[121.45576,25.05649]}},{"type":"Feature","properties":{"id":"osm:way:225901784","name":"昌隆國小","category":"school","source":"osm","tags":{"level":"elementary"}},"geometry":{"type":"Point","coordinates":[121.45579,25.05156]}},{"type":"Feature","properties":{"id":"osm:way:230983732","name":"新莊國小","category":"school","source":"osm","tags":{"level":"elementary"}},"geometry":{"type":"Point","coordinates":[121.45611,25.03756]}},{"type":"Feature","properties":{"id":"osm:way:231702851","name":"金陵女中","nameEn":"Ginling Girl's High School","category":"school","source":"osm","tags":{"operator":"金陵學校財團法人"}},"geometry":{"type":"Point","coordinates":[121.46794,25.0424]}},{"type":"Feature","properties":{"id":"osm:way:232226577","name":"興化國小","category":"school","source":"osm","tags":{"level":"elementary"}},"geometry":{"type":"Point","coordinates":[121.46188,25.06584]}},{"type":"Feature","properties":{"id":"osm:way:233716886","name":"崇義高中","category":"school","source":"osm"},"geometry":{"type":"Point","coordinates":[121.66919,25.07702]}},{"type":"Feature","properties":{"id":"osm:way:239147761","name":"森林小學","category":"school","source":"osm"},"geometry":{"type":"Point","coordinates":[121.64179,25.03751]}},{"type":"Feature","properties":{"id":"osm:way:255890709","name":"私立育才國小","category":"school","source":"osm","tags":{"level":"elementary"}},"geometry":{"type":"Point","coordinates":[121.52167,25.00684]}},{"type":"Feature","properties":{"id":"osm:way:256196118","name":"竹圍高中","nameEn":"Zhuwei High School","category":"school","source":"osm"},"geometry":{"type":"Point","coordinates":[121.46269,25.14572]}},{"type":"Feature","properties":{"id":"osm:way:256196119","name":"竹圍國小","category":"school","source":"osm","tags":{"level":"elementary"}},"geometry":{"type":"Point","coordinates":[121.46066,25.1474]}},{"type":"Feature","properties":{"id":"osm:way:256202781","name":"竹圍國小自強分校","category":"school","source":"osm","tags":{"level":"elementary"}},"geometry":{"type":"Point","coordinates":[121.4638,25.12572]}},{"type":"Feature","properties":{"id":"osm:way:258874999","name":"汐止國小","category":"school","source":"osm","tags":{"level":"elementary"}},"geometry":{"type":"Point","coordinates":[121.65452,25.06693]}},{"type":"Feature","properties":{"id":"osm:way:260761366","name":"木柵國中","nameEn":"Mutsa Junior High School","category":"school","source":"osm"},"geometry":{"type":"Point","coordinates":[121.5671,24.98746]}},{"type":"Feature","properties":{"id":"osm:way:269128332","name":"青山國中小","category":"school","source":"osm"},"geometry":{"type":"Point","coordinates":[121.65621,25.06066]}},{"type":"Feature","properties":{"id":"osm:way:269128334","name":"秀峰高中","nameEn":"New Taipei Municipal Xiufeng High School","category":"school","source":"osm"},"geometry":{"type":"Point","coordinates":[121.6607,25.06638]}},{"type":"Feature","properties":{"id":"osm:way:269128335","name":"崇德國小","category":"school","source":"osm","tags":{"level":"elementary"}},"geometry":{"type":"Point","coordinates":[121.66906,25.06899]}},{"type":"Feature","properties":{"id":"osm:way:271051115","name":"南華高中進修學校","category":"school","source":"osm"},"geometry":{"type":"Point","coordinates":[121.53102,25.01564]}},{"type":"Feature","properties":{"id":"osm:way:279809839","name":"金龍國小","nameEn":"Jinlong Elementary School","category":"school","source":"osm","tags":{"level":"elementary"}},"geometry":{"type":"Point","coordinates":[121.62787,25.06882]}},{"type":"Feature","properties":{"id":"osm:way:285900243","name":"石碇國小","category":"school","source":"osm","tags":{"level":"elementary"}},"geometry":{"type":"Point","coordinates":[121.6589,24.9904]}},{"type":"Feature","properties":{"id":"osm:way:294900349","name":"坪頂國小","nameEn":"Pingding Elementary School","category":"school","source":"osm","tags":{"level":"elementary"}},"geometry":{"type":"Point","coordinates":[121.48381,25.15814]}},{"type":"Feature","properties":{"id":"osm:way:296144523","name":"忠山實小","category":"school","source":"osm"},"geometry":{"type":"Point","coordinates":[121.47968,25.20042]}},{"type":"Feature","properties":{"id":"osm:way:330471103","name":"大佳國小","category":"school","source":"osm","tags":{"level":"elementary"}},"geometry":{"type":"Point","coordinates":[121.53663,25.07364]}},{"type":"Feature","properties":{"id":"osm:way:330603003","name":"江翠國中","category":"school","source":"osm"},"geometry":{"type":"Point","coordinates":[121.46703,25.02788]}},{"type":"Feature","properties":{"id":"osm:way:360055530","name":"私立竹林國小","category":"school","source":"osm","tags":{"level":"elementary"}},"geometry":{"type":"Point","coordinates":[121.51714,25.0144]}},{"type":"Feature","properties":{"id":"osm:way:363124297","name":"格致國中","nameEn":"Ge-zhi Junior High School","category":"school","source":"osm"},"geometry":{"type":"Point","coordinates":[121.54577,25.13121]}},{"type":"Feature","properties":{"id":"osm:way:371497315","name":"北港國小","category":"school","source":"osm","tags":{"level":"elementary"}},"geometry":{"type":"Point","coordinates":[121.64514,25.08923]}},{"type":"Feature","properties":{"id":"osm:way:377714292","name":"關渡國中","category":"school","source":"osm"},"geometry":{"type":"Point","coordinates":[121.46777,25.11986]}},{"type":"Feature","properties":{"id":"osm:way:379810695","name":"湖山國小","category":"school","source":"osm","tags":{"level":"elementary"}},"geometry":{"type":"Point","coordinates":[121.53579,25.15009]}},{"type":"Feature","properties":{"id":"osm:way:381447696","name":"華岡藝校","nameEn":"Hwa Kang Arts School","category":"school","source":"osm"},"geometry":{"type":"Point","coordinates":[121.54914,25.13741]}},{"type":"Feature","properties":{"id":"osm:way:397085497","name":"大誠高中","nameEn":"Dacheng High School","category":"school","source":"osm"},"geometry":{"type":"Point","coordinates":[121.57854,24.99083]}},{"type":"Feature","properties":{"id":"osm:way:397087657","name":"政大實小","nameEn":"The Affiliated Experimental Elementary School of National Chengchi University","category":"school","source":"osm"},"geometry":{"type":"Point","coordinates":[121.5796,24.98471]}},{"type":"Feature","properties":{"id":"osm:way:447867793","name":"志仁高中","nameEn":"Zhi-Ren School of General Education","category":"school","source":"osm"},"geometry":{"type":"Point","coordinates":[121.51881,25.05219]}},{"type":"Feature","properties":{"id":"osm:way:452227692","name":"秀峰國小","category":"school","source":"osm","tags":{"level":"elementary"}},"geometry":{"type":"Point","coordinates":[121.66197,25.06266]}},{"type":"Feature","properties":{"id":"osm:way:455322123","name":"汐止國中","nameEn":"New Taipei Municipal Xizhi Junior High School","category":"school","source":"osm"},"geometry":{"type":"Point","coordinates":[121.65806,25.06646]}},{"type":"Feature","properties":{"id":"osm:way:456206408","name":"基督教台灣浸會神學院","nameEn":"Taiwan Baptist Christian Seminary","category":"school","source":"osm","tags":{"operator":"中華浸信會學校財團法人"}},"geometry":{"type":"Point","coordinates":[121.56664,25.02385]}},{"type":"Feature","properties":{"id":"osm:way:484122531","name":"文昌國小","nameEn":"Wenchang Elementary School","category":"school","source":"osm","tags":{"operator":"臺北市政府教育局","level":"elementary"}},"geometry":{"type":"Point","coordinates":[121.52129,25.09968]}},{"type":"Feature","properties":{"id":"osm:way:498077540","name":"泉源實小","category":"school","source":"osm"},"geometry":{"type":"Point","coordinates":[121.5242,25.14933]}},{"type":"Feature","properties":{"id":"osm:way:498077541","name":"平等國小","category":"school","source":"osm","tags":{"level":"elementary"}},"geometry":{"type":"Point","coordinates":[121.57659,25.12885]}},{"type":"Feature","properties":{"id":"osm:way:549713798","name":"私立立人高中","category":"school","source":"osm"},"geometry":{"type":"Point","coordinates":[121.49668,25.03885]}},{"type":"Feature","properties":{"id":"osm:way:639080921","name":"碧華國中","nameEn":"Bi-Hua Junior High School","category":"school","source":"osm"},"geometry":{"type":"Point","coordinates":[121.4884,25.08769]}},{"type":"Feature","properties":{"id":"osm:way:1138581392","name":"復興國小","category":"school","source":"osm","tags":{"level":"elementary"}},"geometry":{"type":"Point","coordinates":[121.66532,25.10726]}},{"type":"Feature","properties":{"id":"osm:way:1303386714","name":"私立大同高中","category":"school","source":"osm"},"geometry":{"type":"Point","coordinates":[121.52123,25.06659]}},{"type":"Feature","properties":{"id":"osm:way:1339763564","name":"興穀國小","category":"school","source":"osm","tags":{"operator":"新北市政府教育局","level":"elementary"}},"geometry":{"type":"Point","coordinates":[121.47496,25.05006]}},{"type":"Feature","properties":{"id":"osm:way:1458295457","name":"頂溪國小","nameEn":"Dingxi Elementary School","category":"school","source":"osm","tags":{"level":"elementary"}},"geometry":{"type":"Point","coordinates":[121.51126,25.01511]}},{"type":"Feature","properties":{"id":"osm:way:1499961242","name":"華玟實驗教育機構關汳校區","category":"school","source":"osm"},"geometry":{"type":"Point","coordinates":[121.46724,25.12876]}},{"type":"Feature","properties":{"id":"osm:relation:33574","name":"西門國小","nameEn":"Ximen Elementary School","category":"school","source":"osm","tags":{"operator":"臺北市政府教育局","level":"elementary"}},"geometry":{"type":"Point","coordinates":[121.50336,25.04264]}},{"type":"Feature","properties":{"id":"osm:relation:206465","name":"龍山國中","nameEn":"Longshan Junior High School","category":"school","source":"osm","tags":{"operator":"臺北市政府教育局"}},"geometry":{"type":"Point","coordinates":[121.5053,25.03545]}},{"type":"Feature","properties":{"id":"osm:relation:206467","name":"老松國小","nameEn":"Laosong Elementary School","category":"school","source":"osm","tags":{"operator":"臺北市政府教育局","level":"elementary"}},"geometry":{"type":"Point","coordinates":[121.50269,25.0375]}},{"type":"Feature","properties":{"id":"osm:relation:211531","name":"雙園國小","nameEn":"Shuang Yuan Primary School","category":"school","source":"osm","tags":{"operator":"臺北市政府教育局","level":"elementary"}},"geometry":{"type":"Point","coordinates":[121.49824,25.03023]}},{"type":"Feature","properties":{"id":"osm:relation:214374","name":"福星國小","nameEn":"Fuxing Elementary School","category":"school","source":"osm","tags":{"operator":"臺北市政府教育局","level":"elementary"}},"geometry":{"type":"Point","coordinates":[121.50817,25.04681]}},{"type":"Feature","properties":{"id":"osm:relation:214375","name":"忠孝國中","nameEn":"Zhongxiao Junior High School","category":"school","source":"osm","tags":{"operator":"臺北市政府教育局"}},"geometry":{"type":"Point","coordinates":[121.50776,25.05151]}},{"type":"Feature","properties":{"id":"osm:relation:3300691","name":"萬福國小","nameEn":"Wanfu Elementary School","category":"school","source":"osm","tags":{"operator":"臺北市政府教育局","level":"elementary"}},"geometry":{"type":"Point","coordinates":[121.53681,25.00556]}},{"type":"Feature","properties":{"id":"osm:relation:3300696","name":"螢橋國中","nameEn":"Yingqiao Junior High School","category":"school","source":"osm","tags":{"operator":"臺北市政府教育局"}},"geometry":{"type":"Point","coordinates":[121.52569,25.01866]}},{"type":"Feature","properties":{"id":"osm:relation:3392608","name":"建國中學","nameEn":"Jianguo High School","category":"school","source":"osm","tags":{"operator":"臺北市政府教育局"}},"geometry":{"type":"Point","coordinates":[121.51257,25.03036]}},{"type":"Feature","properties":{"id":"osm:relation:3920667","name":"三民國中","category":"school","source":"osm"},"geometry":{"type":"Point","coordinates":[121.58579,25.07]}},{"type":"Feature","properties":{"id":"osm:relation:4054407","name":"實踐國中","nameEn":"Taipei Municipal Shijian Junior High School","category":"school","source":"osm","tags":{"operator":"臺北市政府教育局"}},"geometry":{"type":"Point","coordinates":[121.55538,24.9834]}},{"type":"Feature","properties":{"id":"osm:relation:4270075","name":"板橋國小","category":"school","source":"osm","tags":{"level":"elementary"}},"geometry":{"type":"Point","coordinates":[121.45744,25.01161]}},{"type":"Feature","properties":{"id":"osm:relation:4505579","name":"公館國小","nameEn":"Gonggoan Elementary School","category":"school","source":"osm","tags":{"level":"elementary"}},"geometry":{"type":"Point","coordinates":[121.54318,25.01192]}},{"type":"Feature","properties":{"id":"osm:relation:4505585","name":"銘傳國小","nameEn":"Mingchuan Elementary School","category":"school","source":"osm","tags":{"operator":"臺北市政府教育局","level":"elementary"}},"geometry":{"type":"Point","coordinates":[121.53599,25.01416]}},{"type":"Feature","properties":{"id":"osm:relation:4536732","name":"景美國小","nameEn":"Jingmei Elementary School","category":"school","source":"osm","tags":{"operator":"臺北市政府教育局","level":"elementary"}},"geometry":{"type":"Point","coordinates":[121.54027,24.98914]}},{"type":"Feature","properties":{"id":"osm:relation:4536944","name":"私立中山小學","category":"school","source":"osm"},"geometry":{"type":"Point","coordinates":[121.55643,24.98807]}},{"type":"Feature","properties":{"id":"osm:relation:4544691","name":"溪口國小","category":"school","source":"osm","tags":{"operator":"臺北市政府教育局","level":"elementary"}},"geometry":{"type":"Point","coordinates":[121.53913,24.99435]}},{"type":"Feature","properties":{"id":"osm:relation:4544692","name":"志清國小","nameEn":"Tsiching Elementary School","category":"school","source":"osm","tags":{"operator":"臺北市政府教育局","level":"elementary"}},"geometry":{"type":"Point","coordinates":[121.53905,24.99834]}},{"type":"Feature","properties":{"id":"osm:relation:4544720","name":"景美國中","nameEn":"Jingmei Junior High School","category":"school","source":"osm","tags":{"operator":"臺北市政府教育局"}},"geometry":{"type":"Point","coordinates":[121.54306,24.9937]}},{"type":"Feature","properties":{"id":"osm:relation:4544721","name":"景興國中","nameEn":"Jingxing Junior High School","category":"school","source":"osm","tags":{"operator":"臺北市政府教育局"}},"geometry":{"type":"Point","coordinates":[121.54371,24.99652]}},{"type":"Feature","properties":{"id":"osm:relation:4544722","name":"景興國小","nameEn":"Jingxing Elementary Schoo","category":"school","source":"osm","tags":{"level":"elementary"}},"geometry":{"type":"Point","coordinates":[121.54877,24.99619]}},{"type":"Feature","properties":{"id":"osm:relation:4544723","name":"私立靜心中小學","category":"school","source":"osm"},"geometry":{"type":"Point","coordinates":[121.54686,24.99847]}},{"type":"Feature","properties":{"id":"osm:relation:4546339","name":"市立大同高中","nameEn":"Taipei Municipal Datong High School","category":"school","source":"osm"},"geometry":{"type":"Point","coordinates":[121.53504,25.05617]}},{"type":"Feature","properties":{"id":"osm:relation:4546340","name":"長春國小","nameEn":"Changchun Elementary School","category":"school","source":"osm","tags":{"level":"elementary"}},"geometry":{"type":"Point","coordinates":[121.53428,25.05568]}},{"type":"Feature","properties":{"id":"osm:relation:4547785","name":"武功國小","nameEn":"Wugong Elementary School","category":"school","source":"osm","tags":{"operator":"臺北市政府教育局","level":"elementary"}},"geometry":{"type":"Point","coordinates":[121.53973,25.00354]}},{"type":"Feature","properties":{"id":"osm:relation:4562152","name":"南山高中","nameEn":"Nanshan High School","category":"school","source":"osm"},"geometry":{"type":"Point","coordinates":[121.50441,25.00148]}},{"type":"Feature","properties":{"id":"osm:relation:4562153","name":"漳和國中","nameEn":"Jhanghe Junior High School","category":"school","source":"osm","tags":{"operator":"新北市政府教育局"}},"geometry":{"type":"Point","coordinates":[121.50502,25.00178]}},{"type":"Feature","properties":{"id":"osm:relation:4601739","name":"南門國中","nameEn":"Nanmen Junior High School","category":"school","source":"osm","tags":{"operator":"臺北市政府教育局"}},"geometry":{"type":"Point","coordinates":[121.50905,25.0342]}},{"type":"Feature","properties":{"id":"osm:relation:4601740","name":"南門國小","nameEn":"Nanmen Elementary School","category":"school","source":"osm","tags":{"operator":"臺北市政府教育局","level":"elementary"}},"geometry":{"type":"Point","coordinates":[121.50889,25.03506]}},{"type":"Feature","properties":{"id":"osm:relation:4601742","name":"國語實驗小學","nameEn":"Taipei Mandarin Experimental Elementary School","category":"school","source":"osm","tags":{"operator":"臺北市政府教育局"}},"geometry":{"type":"Point","coordinates":[121.51063,25.0304]}},{"type":"Feature","properties":{"id":"osm:relation:4601891","name":"北市大附小","nameEn":"Affiliated Experimental Elementary School of University of Taipei","category":"school","source":"osm","tags":{"operator":"臺北市政府教育局"}},"geometry":{"type":"Point","coordinates":[121.51595,25.03601]}},{"type":"Feature","properties":{"id":"osm:relation:4601894","name":"弘道國中","nameEn":"Hongdao Junior High School","category":"school","source":"osm","tags":{"operator":"臺北市政府教育局"}},"geometry":{"type":"Point","coordinates":[121.51582,25.03745]}},{"type":"Feature","properties":{"id":"osm:relation:4602293","name":"私立再興學校","nameEn":"Taipei Private Tsai Hsing School","category":"school","source":"osm"},"geometry":{"type":"Point","coordinates":[121.55746,24.99004]}},{"type":"Feature","properties":{"id":"osm:relation:4602294","name":"力行國小","category":"school","source":"osm","tags":{"level":"elementary"}},"geometry":{"type":"Point","coordinates":[121.56066,24.98066]}},{"type":"Feature","properties":{"id":"osm:relation:4602295","name":"實踐國小","category":"school","source":"osm","tags":{"operator":"臺北市政府教育局","level":"elementary"}},"geometry":{"type":"Point","coordinates":[121.55737,24.98316]}},{"type":"Feature","properties":{"id":"osm:relation:4602296","name":"景美女中","nameEn":"Taipei Jingmei Girls' High School","category":"school","source":"osm","tags":{"operator":"臺北市政府教育局"}},"geometry":{"type":"Point","coordinates":[121.55566,24.98189]}},{"type":"Feature","properties":{"id":"osm:relation:4602299","name":"永建國小","category":"school","source":"osm","tags":{"level":"elementary"}},"geometry":{"type":"Point","coordinates":[121.55556,24.98931]}},{"type":"Feature","properties":{"id":"osm:relation:4602301","name":"興華國小","nameEn":"Xinghua Elementary School","category":"school","source":"osm","tags":{"operator":"臺北市政府教育局","level":"elementary"}},"geometry":{"type":"Point","coordinates":[121.55918,24.99947]}},{"type":"Feature","properties":{"id":"osm:relation:4602302","name":"萬芳高中","nameEn":"Taipei Municipal Wan Fang Senior High School","category":"school","source":"osm","tags":{"operator":"臺北市政府教育局"}},"geometry":{"type":"Point","coordinates":[121.55912,25.00152]}},{"type":"Feature","properties":{"id":"osm:relation:4603826","name":"滬江中學","nameEn":"Hujiang High School","category":"school","source":"osm"},"geometry":{"type":"Point","coordinates":[121.53832,24.98931]}},{"type":"Feature","properties":{"id":"osm:relation:4603833","name":"古亭國中","nameEn":"Guting Junior High School","category":"school","source":"osm"},"geometry":{"type":"Point","coordinates":[121.51057,25.02439]}},{"type":"Feature","properties":{"id":"osm:relation:4605395","name":"安坑國小","nameEn":"Ankeng Elementary School","category":"school","source":"osm","tags":{"level":"elementary"}},"geometry":{"type":"Point","coordinates":[121.5136,24.96092]}},{"type":"Feature","properties":{"id":"osm:relation:4605397","name":"安康高中","category":"school","source":"osm"},"geometry":{"type":"Point","coordinates":[121.51453,24.96952]}},{"type":"Feature","properties":{"id":"osm:relation:4605399","name":"新北市私立中信高級中學","nameEn":"Chi Jen Senior High School","category":"school","source":"osm"},"geometry":{"type":"Point","coordinates":[121.51417,24.96712]}},{"type":"Feature","properties":{"id":"osm:relation:4612314","name":"義方國小","nameEn":"Yi-Fang Elementary School","category":"school","source":"osm","tags":{"level":"elementary"}},"geometry":{"type":"Point","coordinates":[121.50928,25.14249]}},{"type":"Feature","properties":{"id":"osm:relation:4612520","name":"文化國小","nameEn":"Wenhua Elementary School","category":"school","source":"osm","tags":{"level":"elementary"}},"geometry":{"type":"Point","coordinates":[121.4962,25.13721]}},{"type":"Feature","properties":{"id":"osm:relation:4612547","name":"景文中學","category":"school","source":"osm"},"geometry":{"type":"Point","coordinates":[121.56814,24.98526]}},{"type":"Feature","properties":{"id":"osm:relation:4612878","name":"復興高中","nameEn":"Fuxing High School","category":"school","source":"osm","tags":{"operator":"臺北市政府教育局"}},"geometry":{"type":"Point","coordinates":[121.50209,25.14317]}},{"type":"Feature","properties":{"id":"osm:relation:4615350","name":"大豐國小","nameEn":"Da-Feng Elementary School","category":"school","source":"osm","tags":{"operator":"新北市政府教育局","level":"elementary"}},"geometry":{"type":"Point","coordinates":[121.53782,24.97813]}},{"type":"Feature","properties":{"id":"osm:relation:4615351","name":"新店高中","nameEn":"Hsin Tien Senior High School","category":"school","source":"osm","tags":{"operator":"新北市政府教育局"}},"geometry":{"type":"Point","coordinates":[121.53292,24.97494]}},{"type":"Feature","properties":{"id":"osm:relation:4615373","name":"中正國小","nameEn":"Zhongzheng Elementary School","category":"school","source":"osm","tags":{"operator":"新北市政府教育局","level":"elementary"}},"geometry":{"type":"Point","coordinates":[121.53716,24.97222]}},{"type":"Feature","properties":{"id":"osm:relation:4623521","name":"明德國中","category":"school","source":"osm"},"geometry":{"type":"Point","coordinates":[121.51895,25.10795]}},{"type":"Feature","properties":{"id":"osm:relation:4623523","name":"福林國小","nameEn":"Fuling Elementary School","category":"school","source":"osm","tags":{"level":"elementary"}},"geometry":{"type":"Point","coordinates":[121.52994,25.09813]}},{"type":"Feature","properties":{"id":"osm:relation:4623528","name":"雨農國小","nameEn":"Yu Nong Elementary School","category":"school","source":"osm","tags":{"level":"elementary"}},"geometry":{"type":"Point","coordinates":[121.53014,25.10499]}},{"type":"Feature","properties":{"id":"osm:relation:4627590","name":"國北教大實小","nameEn":"National Taipei University of Education Experimental Elementary School","category":"school","source":"osm","tags":{"operator":"國立臺北教育大學"}},"geometry":{"type":"Point","coordinates":[121.54048,25.02435]}},{"type":"Feature","properties":{"id":"osm:relation:4627591","name":"新生國小","nameEn":"Xinsheng Elementary School","category":"school","source":"osm","tags":{"level":"elementary"}},"geometry":{"type":"Point","coordinates":[121.53276,25.02978]}},{"type":"Feature","properties":{"id":"osm:relation:4627593","name":"金華國中","nameEn":"Jinhua Junior High School","category":"school","source":"osm"},"geometry":{"type":"Point","coordinates":[121.53227,25.03094]}},{"type":"Feature","properties":{"id":"osm:relation:4627594","name":"龍安國小","nameEn":"Longan Elementary School","category":"school","source":"osm","tags":{"operator":"臺北市政府教育局","level":"elementary"}},"geometry":{"type":"Point","coordinates":[121.53528,25.02363]}},{"type":"Feature","properties":{"id":"osm:relation:4627595","name":"龍門國中","nameEn":"Longmen Junior High School","category":"school","source":"osm"},"geometry":{"type":"Point","coordinates":[121.53879,25.02382]}},{"type":"Feature","properties":{"id":"osm:relation:4628906","name":"北安國中","nameEn":"Bei An Junior High School","category":"school","source":"osm","tags":{"operator":"臺北市政府教育局"}},"geometry":{"type":"Point","coordinates":[121.54183,25.07831]}},{"type":"Feature","properties":{"id":"osm:relation:4628907","name":"士林國中","nameEn":"Shilin Junior High School","category":"school","source":"osm"},"geometry":{"type":"Point","coordinates":[121.52283,25.09352]}},{"type":"Feature","properties":{"id":"osm:relation:4628908","name":"士林國小","nameEn":"Shilin Elementary School","category":"school","source":"osm","tags":{"level":"elementary"}},"geometry":{"type":"Point","coordinates":[121.52436,25.09318]}},{"type":"Feature","properties":{"id":"osm:relation:4628909","name":"士林高商","category":"school","source":"osm","tags":{"operator":"臺北市政府教育局"}},"geometry":{"type":"Point","coordinates":[121.5159,25.09473]}},{"type":"Feature","properties":{"id":"osm:relation:4628910","name":"大直國小","nameEn":"Dazhi Elementary School","category":"school","source":"osm","tags":{"operator":"臺北市政府教育局","level":"elementary"}},"geometry":{"type":"Point","coordinates":[121.54577,25.08037]}},{"type":"Feature","properties":{"id":"osm:relation:4628911","name":"大直高中","nameEn":"Dazhi High School","category":"school","source":"osm","tags":{"operator":"臺北市政府教育局"}},"geometry":{"type":"Point","coordinates":[121.54338,25.07858]}},{"type":"Feature","properties":{"id":"osm:relation:4628915","name":"百齡高中","nameEn":"Taipei Municipal Bailing High School","category":"school","source":"osm","tags":{"operator":"臺北市政府教育局"}},"geometry":{"type":"Point","coordinates":[121.52373,25.08682]}},{"type":"Feature","properties":{"id":"osm:relation:4628916","name":"道明外僑學校","nameEn":"Dominican International School","category":"school","source":"osm"},"geometry":{"type":"Point","coordinates":[121.54731,25.08508]}},{"type":"Feature","properties":{"id":"osm:relation:4628918","name":"陽明高中","category":"school","source":"osm","tags":{"operator":"臺北市政府教育局"}},"geometry":{"type":"Point","coordinates":[121.51695,25.09271]}},{"type":"Feature","properties":{"id":"osm:relation:4630267","name":"石牌國小","category":"school","source":"osm","tags":{"level":"elementary"}},"geometry":{"type":"Point","coordinates":[121.51247,25.11541]}},{"type":"Feature","properties":{"id":"osm:relation:4630268","name":"石牌國中","nameEn":"Shi Pai Junior High School","category":"school","source":"osm","tags":{"operator":"臺北市教育局"}},"geometry":{"type":"Point","coordinates":[121.51363,25.1159]}},{"type":"Feature","properties":{"id":"osm:relation:4634657","name":"新埔國小","nameEn":"Sinpu Elementary School","category":"school","source":"osm","tags":{"operator":"新北市政府教育局","level":"elementary"}},"geometry":{"type":"Point","coordinates":[121.46266,25.02653]}},{"type":"Feature","properties":{"id":"osm:relation:4636225","name":"中山國中","nameEn":"Zhong-Shan Junior High School","category":"school","source":"osm","tags":{"operator":"新北市政府"}},"geometry":{"type":"Point","coordinates":[121.46786,25.01751]}},{"type":"Feature","properties":{"id":"osm:relation:4636228","name":"信義國小","category":"school","source":"osm","tags":{"level":"elementary"}},"geometry":{"type":"Point","coordinates":[121.45219,24.99124]}},{"type":"Feature","properties":{"id":"osm:relation:4636229","name":"光復國小","category":"school","source":"osm","tags":{"level":"elementary"}},"geometry":{"type":"Point","coordinates":[121.4834,25.01515]}},{"type":"Feature","properties":{"id":"osm:relation:4636230","name":"國光國小","category":"school","source":"osm","tags":{"level":"elementary"}},"geometry":{"type":"Point","coordinates":[121.45255,25.0191]}},{"type":"Feature","properties":{"id":"osm:relation:4636232","name":"埔墘國小","nameEn":"PuQian Elementary School","category":"school","source":"osm","tags":{"operator":"新北市政府教育局","level":"elementary"}},"geometry":{"type":"Point","coordinates":[121.47442,25.01868]}},{"type":"Feature","properties":{"id":"osm:relation:4636235","name":"天主教光仁中學","nameEn":"Kuang Jen Catholic High School","category":"school","source":"osm"},"geometry":{"type":"Point","coordinates":[121.47583,25.01826]}},{"type":"Feature","properties":{"id":"osm:relation:4636236","name":"安和國小","category":"school","source":"osm","tags":{"level":"elementary"}},"geometry":{"type":"Point","coordinates":[121.46461,24.98901]}},{"type":"Feature","properties":{"id":"osm:relation:4636237","name":"實踐國小","nameEn":"Shijian Elementary School","category":"school","source":"osm","tags":{"level":"elementary"}},"geometry":{"type":"Point","coordinates":[121.4666,25.0055]}},{"type":"Feature","properties":{"id":"osm:relation:4636238","name":"後埔國小","nameEn":"Houpu Elementary School","category":"school","source":"osm","tags":{"level":"elementary"}},"geometry":{"type":"Point","coordinates":[121.46338,25.00358]}},{"type":"Feature","properties":{"id":"osm:relation:4636239","name":"忠孝國中","nameEn":"New Taipei Municipal Zhong Xiao Junior High School","category":"school","source":"osm","tags":{"operator":"新北市政府教育局"}},"geometry":{"type":"Point","coordinates":[121.46162,25.00409]}},{"type":"Feature","properties":{"id":"osm:relation:4636240","name":"文德國小","nameEn":"Wen De Elementary School","category":"school","source":"osm","tags":{"operator":"新北市政府教育局","level":"elementary"}},"geometry":{"type":"Point","coordinates":[121.45914,25.02257]}},{"type":"Feature","properties":{"id":"osm:relation:4636241","name":"文聖國小","nameEn":"Wensheng Elementary School","category":"school","source":"osm","tags":{"level":"elementary"}},"geometry":{"type":"Point","coordinates":[121.47722,25.02896]}},{"type":"Feature","properties":{"id":"osm:relation:4636242","name":"光復高中","category":"school","source":"osm"},"geometry":{"type":"Point","coordinates":[121.48305,25.0167]}},{"type":"Feature","properties":{"id":"osm:relation:4636243","name":"新埔國中","nameEn":"Hsin-Pu Junior High School","category":"school","source":"osm","tags":{"operator":"新北市政府教育局"}},"geometry":{"type":"Point","coordinates":[121.45881,25.02483]}},{"type":"Feature","properties":{"id":"osm:relation:4636244","name":"板橋國中","category":"school","source":"osm"},"geometry":{"type":"Point","coordinates":[121.45291,25.02485]}},{"type":"Feature","properties":{"id":"osm:relation:4636245","name":"板橋高中","nameEn":"Banqiao Senior High School","category":"school","source":"osm"},"geometry":{"type":"Point","coordinates":[121.45856,25.01229]}},{"type":"Feature","properties":{"id":"osm:relation:4636246","name":"江翠國中","nameEn":"Jiangcui Junior High School","category":"school","source":"osm","tags":{"operator":"新北市政府教育局"}},"geometry":{"type":"Point","coordinates":[121.46742,25.02865]}},{"type":"Feature","properties":{"id":"osm:relation:4636247","name":"江翠國小","nameEn":"Jiangcui Elementary School","category":"school","source":"osm","tags":{"level":"elementary"}},"geometry":{"type":"Point","coordinates":[121.47345,25.03242]}},{"type":"Feature","properties":{"id":"osm:relation:4636249","name":"海山國小","nameEn":"Haishan Elementary School","category":"school","source":"osm","tags":{"operator":"新北市政府教育局","level":"elementary"}},"geometry":{"type":"Point","coordinates":[121.47039,25.00924]}},{"type":"Feature","properties":{"id":"osm:relation:4636250","name":"海山高中","nameEn":"Haishan Senior High School","category":"school","source":"osm","tags":{"operator":"新北市政府教育局"}},"geometry":{"type":"Point","coordinates":[121.47148,25.01055]}},{"type":"Feature","properties":{"id":"osm:relation:4636253","name":"莒光國小","category":"school","source":"osm","tags":{"level":"elementary"}},"geometry":{"type":"Point","coordinates":[121.47367,25.02549]}},{"type":"Feature","properties":{"id":"osm:relation:4636255","name":"重慶國中","nameEn":"Chongqing Junior School","category":"school","source":"osm"},"geometry":{"type":"Point","coordinates":[121.46252,24.99797]}},{"type":"Feature","properties":{"id":"osm:relation:4636256","name":"重慶國小","nameEn":"Chongqing Elementary School","category":"school","source":"osm","tags":{"level":"elementary"}},"geometry":{"type":"Point","coordinates":[121.46318,24.99458]}},{"type":"Feature","properties":{"id":"osm:relation:4637782","name":"開南中學","nameEn":"Taipei Kai-Nan High School","category":"school","source":"osm"},"geometry":{"type":"Point","coordinates":[121.5216,25.04189]}},{"type":"Feature","properties":{"id":"osm:relation:4637786","name":"湖田實小","category":"school","source":"osm"},"geometry":{"type":"Point","coordinates":[121.53912,25.16921]}},{"type":"Feature","properties":{"id":"osm:relation:4638739","name":"成功高中","nameEn":"Taipei Municipal Chenggong High School","category":"school","source":"osm","tags":{"operator":"臺北市政府教育局"}},"geometry":{"type":"Point","coordinates":[121.52373,25.04282]}},{"type":"Feature","properties":{"id":"osm:relation:4638981","name":"東門國小","nameEn":"Dongmen Elementary School","category":"school","source":"osm","tags":{"operator":"臺北市政府教育局","level":"elementary"}},"geometry":{"type":"Point","coordinates":[121.52045,25.03807]}},{"type":"Feature","properties":{"id":"osm:relation:4640320","name":"新和國小","category":"school","source":"osm","tags":{"operator":"臺北市政府教育局","level":"elementary"}},"geometry":{"type":"Point","coordinates":[121.50287,25.02671]}},{"type":"Feature","properties":{"id":"osm:relation:4640321","name":"東園國小","nameEn":"Dong Yuan Elementary School","category":"school","source":"osm","tags":{"level":"elementary"}},"geometry":{"type":"Point","coordinates":[121.49848,25.02317]}},{"type":"Feature","properties":{"id":"osm:relation:4640322","name":"華江高中","category":"school","source":"osm","tags":{"operator":"臺北市政府教育局"}},"geometry":{"type":"Point","coordinates":[121.49706,25.02816]}},{"type":"Feature","properties":{"id":"osm:relation:4640323","name":"萬大國小","nameEn":"Wanda Elementary School","category":"school","source":"osm","tags":{"level":"elementary"}},"geometry":{"type":"Point","coordinates":[121.49921,25.02349]}},{"type":"Feature","properties":{"id":"osm:relation:4640324","name":"萬華國中","nameEn":"Taipei Municipal Wan Hua Junior High School","category":"school","source":"osm","tags":{"operator":"臺北市政府教育局"}},"geometry":{"type":"Point","coordinates":[121.49882,25.02823]}},{"type":"Feature","properties":{"id":"osm:relation:4640325","name":"西園國小","nameEn":"XiYuan Elementary School","category":"school","source":"osm","tags":{"operator":"臺北市政府教育局","level":"elementary"}},"geometry":{"type":"Point","coordinates":[121.49879,25.02697]}},{"type":"Feature","properties":{"id":"osm:relation:4648682","name":"及人國小","nameEn":"Chi Jen Elementary School","category":"school","source":"osm","tags":{"level":"elementary"}},"geometry":{"type":"Point","coordinates":[121.51198,25.01603]}},{"type":"Feature","properties":{"id":"osm:relation:4648684","name":"復興商工","category":"school","source":"osm"},"geometry":{"type":"Point","coordinates":[121.51867,25.00384]}},{"type":"Feature","properties":{"id":"osm:relation:4648685","name":"景新國小","nameEn":"Jingxin Elementary School","category":"school","source":"osm","tags":{"level":"elementary"}},"geometry":{"type":"Point","coordinates":[121.51567,24.98946]}},{"type":"Feature","properties":{"id":"osm:relation:4648687","name":"永和國小","category":"school","source":"osm","tags":{"level":"elementary"}},"geometry":{"type":"Point","coordinates":[121.51647,25.00266]}},{"type":"Feature","properties":{"id":"osm:relation:4648688","name":"永平國小","category":"school","source":"osm","tags":{"level":"elementary"}},"geometry":{"type":"Point","coordinates":[121.50511,25.00765]}},{"type":"Feature","properties":{"id":"osm:relation:4648689","name":"永平高中","category":"school","source":"osm"},"geometry":{"type":"Point","coordinates":[121.50809,25.01013]}},{"type":"Feature","properties":{"id":"osm:relation:4648691","name":"福和國中","nameEn":"Fuhe Junior High School","category":"school","source":"osm"},"geometry":{"type":"Point","coordinates":[121.52148,25.00487]}},{"type":"Feature","properties":{"id":"osm:relation:4648692","name":"秀山國小","category":"school","source":"osm","tags":{"level":"elementary"}},"geometry":{"type":"Point","coordinates":[121.52111,24.99518]}},{"type":"Feature","properties":{"id":"osm:relation:4648693","name":"秀朗國小","category":"school","source":"osm","tags":{"level":"elementary"}},"geometry":{"type":"Point","coordinates":[121.52153,24.999]}},{"type":"Feature","properties":{"id":"osm:relation:4648694","name":"網溪國小","nameEn":"Wang Xi Elementary School","category":"school","source":"osm","tags":{"level":"elementary"}},"geometry":{"type":"Point","coordinates":[121.52012,25.01337]}},{"type":"Feature","properties":{"id":"osm:relation:4648695","name":"莊敬高職永和校區","category":"school","source":"osm"},"geometry":{"type":"Point","coordinates":[121.51944,25.01546]}},{"type":"Feature","properties":{"id":"osm:relation:4655425","name":"北政國中","nameEn":"Peicheng Junior High School","category":"school","source":"osm"},"geometry":{"type":"Point","coordinates":[121.57763,24.98458]}},{"type":"Feature","properties":{"id":"osm:relation:4655428","name":"政大附中","nameEn":"The Affiliated High School of National Chengchi University","category":"school","source":"osm"},"geometry":{"type":"Point","coordinates":[121.58515,24.98766]}},{"type":"Feature","properties":{"id":"osm:relation:4655538","name":"古亭國小","nameEn":"Guting Elementary School","category":"school","source":"osm","tags":{"operator":"臺北市政府教育局","level":"elementary"}},"geometry":{"type":"Point","coordinates":[121.52938,25.02104]}},{"type":"Feature","properties":{"id":"osm:relation:4655539","name":"私立新民小學","category":"school","source":"osm"},"geometry":{"type":"Point","coordinates":[121.5317,25.02247]}},{"type":"Feature","properties":{"id":"osm:relation:4656480","name":"明道國小","category":"school","source":"osm","tags":{"operator":"臺北市政府教育局","level":"elementary"}},"geometry":{"type":"Point","coordinates":[121.56348,24.98744]}},{"type":"Feature","properties":{"id":"osm:relation:4656482","name":"木柵國小","nameEn":"Muzha Elementary School","category":"school","source":"osm","tags":{"level":"elementary"}},"geometry":{"type":"Point","coordinates":[121.56969,24.9908]}},{"type":"Feature","properties":{"id":"osm:relation:4656484","name":"萬興國小","nameEn":"Wanxing Elementary School","category":"school","source":"osm","tags":{"operator":"臺北市政府教育局","level":"elementary"}},"geometry":{"type":"Point","coordinates":[121.57617,24.98988]}},{"type":"Feature","properties":{"id":"osm:relation:4657783","name":"台北日僑學校","nameEn":"Taipei Japanese School","category":"school","source":"osm"},"geometry":{"type":"Point","coordinates":[121.52858,25.11711]}},{"type":"Feature","properties":{"id":"osm:relation:4657785","name":"台北美國學校","nameEn":"Taipei American School","category":"school","source":"osm"},"geometry":{"type":"Point","coordinates":[121.53003,25.11625]}},{"type":"Feature","properties":{"id":"osm:relation:4657787","name":"天母國小","category":"school","source":"osm","tags":{"level":"elementary"}},"geometry":{"type":"Point","coordinates":[121.52807,25.11997]}},{"type":"Feature","properties":{"id":"osm:relation:4670118","name":"大理國小","nameEn":"Da Li Elementary School","category":"school","source":"osm","tags":{"operator":"臺北市政府教育局","level":"elementary"}},"geometry":{"type":"Point","coordinates":[121.4932,25.03152]}},{"type":"Feature","properties":{"id":"osm:relation:4670119","name":"市立北市大附中","nameEn":"The Affiliated Dali High School","category":"school","source":"osm","tags":{"operator":"臺北市政府教育局"}},"geometry":{"type":"Point","coordinates":[121.49134,25.03026]}},{"type":"Feature","properties":{"id":"osm:relation:4670120","name":"華江國小","nameEn":"Huajiang Elementary School","category":"school","source":"osm","tags":{"operator":"臺北市政府教育局","level":"elementary"}},"geometry":{"type":"Point","coordinates":[121.49165,25.0339]}},{"type":"Feature","properties":{"id":"osm:relation:4670169","name":"忠義國小","nameEn":"Zhongyi Elementary School","category":"school","source":"osm","tags":{"level":"elementary"}},"geometry":{"type":"Point","coordinates":[121.50581,25.02977]}},{"type":"Feature","properties":{"id":"osm:relation:4670172","name":"雙園國中","nameEn":"Shuang Yuan Junior High School","category":"school","source":"osm","tags":{"operator":"臺北市政府教育局"}},"geometry":{"type":"Point","coordinates":[121.49194,25.02756]}},{"type":"Feature","properties":{"id":"osm:relation:4670174","name":"臺北韓國學校","category":"school","source":"osm"},"geometry":{"type":"Point","coordinates":[121.50254,25.02384]}},{"type":"Feature","properties":{"id":"osm:relation:4670175","name":"龍山國小","nameEn":"Longshang Elementary School","category":"school","source":"osm","tags":{"level":"elementary"}},"geometry":{"type":"Point","coordinates":[121.49584,25.03614]}},{"type":"Feature","properties":{"id":"osm:relation:4676978","name":"仁愛國中","nameEn":"Renai Junior High School","category":"school","source":"osm"},"geometry":{"type":"Point","coordinates":[121.55122,25.03685]}},{"type":"Feature","properties":{"id":"osm:relation:4676979","name":"仁愛國小","nameEn":"Ren-Ai Elementary School","category":"school","source":"osm","tags":{"level":"elementary"}},"geometry":{"type":"Point","coordinates":[121.55135,25.0359]}},{"type":"Feature","properties":{"id":"osm:relation:4680121","name":"天主教光仁小學","nameEn":"Guangren Catholic Elementary School","category":"school","source":"osm"},"geometry":{"type":"Point","coordinates":[121.4995,25.02179]}},{"type":"Feature","properties":{"id":"osm:relation:4680314","name":"北投國小","nameEn":"Beitou Elementary School","category":"school","source":"osm","tags":{"operator":"臺北市政府教育局","level":"elementary"}},"geometry":{"type":"Point","coordinates":[121.49982,25.13389]}},{"type":"Feature","properties":{"id":"osm:relation:4680315","name":"關渡國小","nameEn":"Guandu Elementary School","category":"school","source":"osm","tags":{"level":"elementary"}},"geometry":{"type":"Point","coordinates":[121.46654,25.12634]}},{"type":"Feature","properties":{"id":"osm:relation:4727716","name":"Guangfu Elementary School","nameEn":"Guangfu Elementary School","category":"school","source":"osm"},"geometry":{"type":"Point","coordinates":[121.55843,25.04037]}},{"type":"Feature","properties":{"id":"osm:relation:4730350","name":"師大附中","nameEn":"Affiliated Senior High School of National Taiwan Normal University","category":"school","source":"osm"},"geometry":{"type":"Point","coordinates":[121.54072,25.03539]}},{"type":"Feature","properties":{"id":"osm:relation:4730758","name":"永安國小","category":"school","source":"osm","tags":{"level":"elementary"}},"geometry":{"type":"Point","coordinates":[121.54952,25.07937]}},{"type":"Feature","properties":{"id":"osm:relation:4730985","name":"文湖國小","nameEn":"Wenhu Elementary School","category":"school","source":"osm","tags":{"level":"elementary"}},"geometry":{"type":"Point","coordinates":[121.55992,25.08628]}},{"type":"Feature","properties":{"id":"osm:relation:4730986","name":"濱江國小","category":"school","source":"osm","tags":{"level":"elementary"}},"geometry":{"type":"Point","coordinates":[121.56095,25.07754]}},{"type":"Feature","properties":{"id":"osm:relation:4730987","name":"濱江實驗國中","category":"school","source":"osm"},"geometry":{"type":"Point","coordinates":[121.56099,25.0791]}},{"type":"Feature","properties":{"id":"osm:relation:4730988","name":"西湖實驗國中","category":"school","source":"osm"},"geometry":{"type":"Point","coordinates":[121.56622,25.08546]}},{"type":"Feature","properties":{"id":"osm:relation:4730989","name":"西湖國小","category":"school","source":"osm","tags":{"level":"elementary"}},"geometry":{"type":"Point","coordinates":[121.56625,25.08378]}},{"type":"Feature","properties":{"id":"osm:relation:4745345","name":"葫蘆國小","nameEn":"Hulu Elementary School","category":"school","source":"osm","tags":{"level":"elementary"}},"geometry":{"type":"Point","coordinates":[121.50761,25.08358]}},{"type":"Feature","properties":{"id":"osm:relation:4759548","name":"大鵬國小","nameEn":"Dapeng Elementary School","category":"school","source":"osm","tags":{"level":"elementary"}},"geometry":{"type":"Point","coordinates":[121.65127,25.20822]}},{"type":"Feature","properties":{"id":"osm:relation:4774878","name":"大安高工","nameEn":"Taipei Municipal Daan Vocational High School","category":"school","source":"osm"},"geometry":{"type":"Point","coordinates":[121.54211,25.03193]}},{"type":"Feature","properties":{"id":"osm:relation:4790857","name":"三興國小","nameEn":"Sanxing Elementary School","category":"school","source":"osm","tags":{"level":"elementary"}},"geometry":{"type":"Point","coordinates":[121.55871,25.02918]}},{"type":"Feature","properties":{"id":"osm:relation:4790858","name":"中山國小","nameEn":"Zhongshan Elementary School","category":"school","source":"osm","tags":{"operator":"台北市政府教育局","level":"elementary"}},"geometry":{"type":"Point","coordinates":[121.52643,25.06362]}},{"type":"Feature","properties":{"id":"osm:relation:4790859","name":"中山女高","nameEn":"Zhongshan Girls High School","category":"school","source":"osm","tags":{"operator":"臺北市政府教育局"}},"geometry":{"type":"Point","coordinates":[121.53806,25.04922]}},{"type":"Feature","properties":{"id":"osm:relation:4790860","name":"中正國小","nameEn":"Zhong Zheng Elementary School","category":"school","source":"osm","tags":{"operator":"臺北市政府教育局","level":"elementary"}},"geometry":{"type":"Point","coordinates":[121.5394,25.05067]}},{"type":"Feature","properties":{"id":"osm:relation:4790862","name":"五常國中","category":"school","source":"osm"},"geometry":{"type":"Point","coordinates":[121.54313,25.06425]}},{"type":"Feature","properties":{"id":"osm:relation:4790863","name":"五常國小","category":"school","source":"osm","tags":{"level":"elementary"}},"geometry":{"type":"Point","coordinates":[121.54175,25.06381]}},{"type":"Feature","properties":{"id":"osm:relation:4790864","name":"介壽國中","category":"school","source":"osm"},"geometry":{"type":"Point","coordinates":[121.55634,25.05683]}},{"type":"Feature","properties":{"id":"osm:relation:4790865","name":"信義國中","category":"school","source":"osm"},"geometry":{"type":"Point","coordinates":[121.56729,25.02948]}},{"type":"Feature","properties":{"id":"osm:relation:4790866","name":"信義國小","category":"school","source":"osm","tags":{"level":"elementary"}},"geometry":{"type":"Point","coordinates":[121.56291,25.03111]}},{"type":"Feature","properties":{"id":"osm:relation:4790867","name":"健康國小","category":"school","source":"osm","tags":{"level":"elementary"}},"geometry":{"type":"Point","coordinates":[121.56278,25.05644]}},{"type":"Feature","properties":{"id":"osm:relation:4790868","name":"內湖國中","nameEn":"Nei-Hu Junior High School","category":"school","source":"osm"},"geometry":{"type":"Point","coordinates":[121.58895,25.07638]}},{"type":"Feature","properties":{"id":"osm:relation:4790869","name":"內湖國小","nameEn":"Nei-hu Elementary School","category":"school","source":"osm","tags":{"level":"elementary"}},"geometry":{"type":"Point","coordinates":[121.58063,25.07974]}},{"type":"Feature","properties":{"id":"osm:relation:4790870","name":"內湖高中","nameEn":"Neihu Senior High School","category":"school","source":"osm"},"geometry":{"type":"Point","coordinates":[121.58658,25.07781]}},{"type":"Feature","properties":{"id":"osm:relation:4790871","name":"內湖高工","nameEn":"Neihu Vocational High School","category":"school","source":"osm"},"geometry":{"type":"Point","coordinates":[121.57503,25.07925]}},{"type":"Feature","properties":{"id":"osm:relation:4790872","name":"南港國小","nameEn":"NanGang Elementary School","category":"school","source":"osm","tags":{"level":"elementary"}},"geometry":{"type":"Point","coordinates":[121.61067,25.05756]}},{"type":"Feature","properties":{"id":"osm:relation:4790873","name":"南湖國小","category":"school","source":"osm","tags":{"level":"elementary"}},"geometry":{"type":"Point","coordinates":[121.611,25.06791]}},{"type":"Feature","properties":{"id":"osm:relation:4790875","name":"博愛國小","nameEn":"Taipei Boai Elementary School","category":"school","source":"osm","tags":{"level":"elementary"}},"geometry":{"type":"Point","coordinates":[121.57095,25.03567]}},{"type":"Feature","properties":{"id":"osm:relation:4790877","name":"吉林國小","category":"school","source":"osm","tags":{"level":"elementary"}},"geometry":{"type":"Point","coordinates":[121.52929,25.05408]}},{"type":"Feature","properties":{"id":"osm:relation:4790878","name":"吳興國小","nameEn":"Wuxing Primary","category":"school","source":"osm","tags":{"level":"elementary"}},"geometry":{"type":"Point","coordinates":[121.56789,25.02558]}},{"type":"Feature","properties":{"id":"osm:relation:4790880","name":"喬治商職","nameEn":"George Vocational High School of Taipei","category":"school","source":"osm"},"geometry":{"type":"Point","coordinates":[121.55488,25.02605]}},{"type":"Feature","properties":{"id":"osm:relation:4790882","name":"士東國小","nameEn":"Shidong Elementary School","category":"school","source":"osm","tags":{"level":"elementary"}},"geometry":{"type":"Point","coordinates":[121.52749,25.11278]}},{"type":"Feature","properties":{"id":"osm:relation:4790885","name":"大安國中","nameEn":"Daan Junior High School","category":"school","source":"osm"},"geometry":{"type":"Point","coordinates":[121.54702,25.0304]}},{"type":"Feature","properties":{"id":"osm:relation:4790886","name":"大橋國小","category":"school","source":"osm","tags":{"level":"elementary"}},"geometry":{"type":"Point","coordinates":[121.5128,25.06391]}},{"type":"Feature","properties":{"id":"osm:relation:4790888","name":"大湖國小","category":"school","source":"osm","tags":{"level":"elementary"}},"geometry":{"type":"Point","coordinates":[121.60038,25.08753]}},{"type":"Feature","properties":{"id":"osm:relation:4790889","name":"天主教文德女中","nameEn":"St.Bonaventure Girls' Senior High School","category":"school","source":"osm"},"geometry":{"type":"Point","coordinates":[121.58908,25.07764]}},{"type":"Feature","properties":{"id":"osm:relation:4790890","name":"天主教方濟中學","nameEn":"Saint Francis High School","category":"school","source":"osm"},"geometry":{"type":"Point","coordinates":[121.59112,25.07688]}},{"type":"Feature","properties":{"id":"osm:relation:4790891","name":"臺北市私立達人高級中學","category":"school","source":"osm"},"geometry":{"type":"Point","coordinates":[121.58791,25.08059]}},{"type":"Feature","properties":{"id":"osm:relation:4790892","name":"太平國小","category":"school","source":"osm","tags":{"level":"elementary"}},"geometry":{"type":"Point","coordinates":[121.51235,25.06143]}},{"type":"Feature","properties":{"id":"osm:relation:4790895","name":"富安國小","category":"school","source":"osm","tags":{"level":"elementary"}},"geometry":{"type":"Point","coordinates":[121.48243,25.10552]}},{"type":"Feature","properties":{"id":"osm:relation:4790896","name":"康寧國小","category":"school","source":"osm","tags":{"level":"elementary"}},"geometry":{"type":"Point","coordinates":[121.59438,25.08051]}},{"type":"Feature","properties":{"id":"osm:relation:4790897","name":"私立延平中學","nameEn":"Yanping High School","category":"school","source":"osm"},"geometry":{"type":"Point","coordinates":[121.53918,25.03662]}},{"type":"Feature","properties":{"id":"osm:relation:4790899","name":"建安國小","nameEn":"JianAn Elementary School","category":"school","source":"osm","tags":{"level":"elementary"}},"geometry":{"type":"Point","coordinates":[121.547,25.02937]}},{"type":"Feature","properties":{"id":"osm:relation:4790900","name":"新民高中","nameEn":"Xinmin Private Senior High School","category":"school","source":"osm"},"geometry":{"type":"Point","coordinates":[121.52031,25.02528]}},{"type":"Feature","properties":{"id":"osm:relation:4790901","name":"忠孝國小","nameEn":"Zhongxiao Elementary School","category":"school","source":"osm","tags":{"level":"elementary"}},"geometry":{"type":"Point","coordinates":[121.53168,25.04301]}},{"type":"Feature","properties":{"id":"osm:relation:4790902","name":"惇敘工商","nameEn":"Tun Hsu Vocational High School","category":"school","source":"osm"},"geometry":{"type":"Point","coordinates":[121.52633,25.14523]}},{"type":"Feature","properties":{"id":"osm:relation:4790903","name":"懷生國中","nameEn":"Huai Sheng Junior High School","category":"school","source":"osm"},"geometry":{"type":"Point","coordinates":[121.54112,25.0401]}},{"type":"Feature","properties":{"id":"osm:relation:4790904","name":"懷生國小","category":"school","source":"osm","tags":{"level":"elementary"}},"geometry":{"type":"Point","coordinates":[121.5415,25.04505]}},{"type":"Feature","properties":{"id":"osm:relation:4790905","name":"指南實小","nameEn":"Zhinan Experimental Elementary School","category":"school","source":"osm"},"geometry":{"type":"Point","coordinates":[121.58414,24.97626]}},{"type":"Feature","properties":{"id":"osm:relation:4790907","name":"敦化國中","nameEn":"Dun-Hua Junior High School","category":"school","source":"osm"},"geometry":{"type":"Point","coordinates":[121.5466,25.05091]}},{"type":"Feature","properties":{"id":"osm:relation:4790908","name":"敦化國小","category":"school","source":"osm","tags":{"level":"elementary"}},"geometry":{"type":"Point","coordinates":[121.54803,25.04922]}},{"type":"Feature","properties":{"id":"osm:relation:4790909","name":"新民國中","nameEn":"Xinmin Junior High School","category":"school","source":"osm","tags":{"operator":"臺北市政府教育局"}},"geometry":{"type":"Point","coordinates":[121.50772,25.13826]}},{"type":"Feature","properties":{"id":"osm:relation:4790910","name":"新湖國小","category":"school","source":"osm","tags":{"level":"elementary"}},"geometry":{"type":"Point","coordinates":[121.58847,25.06829]}},{"type":"Feature","properties":{"id":"osm:relation:4790911","name":"新興國中","nameEn":"Xinxing Junior High School","category":"school","source":"osm"},"geometry":{"type":"Point","coordinates":[121.52652,25.06194]}},{"type":"Feature","properties":{"id":"osm:relation:4790912","name":"明德國小","category":"school","source":"osm","tags":{"level":"elementary"}},"geometry":{"type":"Point","coordinates":[121.52237,25.11208]}},{"type":"Feature","properties":{"id":"osm:relation:4790913","name":"明湖國中","nameEn":"Minghu Junior High School","category":"school","source":"osm"},"geometry":{"type":"Point","coordinates":[121.61031,25.07011]}},{"type":"Feature","properties":{"id":"osm:relation:4790914","name":"明湖國小","category":"school","source":"osm","tags":{"level":"elementary"}},"geometry":{"type":"Point","coordinates":[121.6112,25.07135]}},{"type":"Feature","properties":{"id":"osm:relation:4790915","name":"東山高中","nameEn":"Dongshan High School","category":"school","source":"osm"},"geometry":{"type":"Point","coordinates":[121.56102,24.97261]}},{"type":"Feature","properties":{"id":"osm:relation:4790916","name":"東新國小","nameEn":"Dongxin Elementary School","category":"school","source":"osm","tags":{"level":"elementary"}},"geometry":{"type":"Point","coordinates":[121.60278,25.0558]}},{"type":"Feature","properties":{"id":"osm:relation:4790917","name":"東方工商","nameEn":"Dongfang High School of Industry and Commerce","category":"school","source":"osm"},"geometry":{"type":"Point","coordinates":[121.55151,25.0321]}},{"type":"Feature","properties":{"id":"osm:relation:4790918","name":"東湖國中","nameEn":"Tonghu Junior High School","category":"school","source":"osm"},"geometry":{"type":"Point","coordinates":[121.62021,25.07257]}},{"type":"Feature","properties":{"id":"osm:relation:4790919","name":"東湖國小","nameEn":"Donghu Elementary School","category":"school","source":"osm","tags":{"level":"elementary"}},"geometry":{"type":"Point","coordinates":[121.61612,25.06924]}},{"type":"Feature","properties":{"id":"osm:relation:4790920","name":"松山國小","nameEn":"Songshan Elementary School","category":"school","source":"osm","tags":{"operator":"臺北市政府教育局","level":"elementary"}},"geometry":{"type":"Point","coordinates":[121.57884,25.0508]}},{"type":"Feature","properties":{"id":"osm:relation:4790921","name":"松山家商","nameEn":"Song Shan High School of Commerce and Home Economics","category":"school","source":"osm"},"geometry":{"type":"Point","coordinates":[121.58019,25.03534]}},{"type":"Feature","properties":{"id":"osm:relation:4790922","name":"松山工農","nameEn":"Taipei Songshan High School of Agriculture and Industry","category":"school","source":"osm"},"geometry":{"type":"Point","coordinates":[121.57298,25.03968]}},{"type":"Feature","properties":{"id":"osm:relation:4790923","name":"松山高中","nameEn":"Song Shan Senior High School","category":"school","source":"osm","tags":{"operator":"臺北市政府教育局"}},"geometry":{"type":"Point","coordinates":[121.56486,25.04403]}},{"type":"Feature","properties":{"id":"osm:relation:4790924","name":"民族國小","category":"school","source":"osm","tags":{"level":"elementary"}},"geometry":{"type":"Point","coordinates":[121.55129,25.05951]}},{"type":"Feature","properties":{"id":"osm:relation:4790925","name":"民權國中","nameEn":"Min-Quan Junior High School","category":"school","source":"osm"},"geometry":{"type":"Point","coordinates":[121.51442,25.06364]}},{"type":"Feature","properties":{"id":"osm:relation:4790926","name":"民權國小","nameEn":"Minquan Elementary School","category":"school","source":"osm","tags":{"operator":"臺北市政府教育局","level":"elementary"}},"geometry":{"type":"Point","coordinates":[121.56165,25.06206]}},{"type":"Feature","properties":{"id":"osm:relation:4790927","name":"民生國中","category":"school","source":"osm"},"geometry":{"type":"Point","coordinates":[121.56666,25.06031]}},{"type":"Feature","properties":{"id":"osm:relation:4790928","name":"民生國小","category":"school","source":"osm","tags":{"level":"elementary"}},"geometry":{"type":"Point","coordinates":[121.55208,25.05603]}},{"type":"Feature","properties":{"id":"osm:relation:4790929","name":"同心華德福學校","category":"school","source":"osm"},"geometry":{"type":"Point","coordinates":[121.55035,24.98792]}},{"type":"Feature","properties":{"id":"osm:relation:4790930","name":"永春高中","category":"school","source":"osm"},"geometry":{"type":"Point","coordinates":[121.57868,25.03331]}},{"type":"Feature","properties":{"id":"osm:relation:4790931","name":"永樂國小","category":"school","source":"osm","tags":{"level":"elementary"}},"geometry":{"type":"Point","coordinates":[121.5105,25.06125]}},{"type":"Feature","properties":{"id":"osm:relation:4790933","name":"玉成國小","nameEn":"YuCheng Elementary School","category":"school","source":"osm","tags":{"level":"elementary"}},"geometry":{"type":"Point","coordinates":[121.59377,25.05373]}},{"type":"Feature","properties":{"id":"osm:relation:4790934","name":"百齡國小","nameEn":"Bailing Elementary School","category":"school","source":"osm","tags":{"level":"elementary"}},"geometry":{"type":"Point","coordinates":[121.51855,25.08609]}},{"type":"Feature","properties":{"id":"osm:relation:4790935","name":"碧湖國小","category":"school","source":"osm","tags":{"level":"elementary"}},"geometry":{"type":"Point","coordinates":[121.59094,25.08428]}},{"type":"Feature","properties":{"id":"osm:relation:4790936","name":"社子國小","nameEn":"Shezi Elementary School","category":"school","source":"osm","tags":{"level":"elementary"}},"geometry":{"type":"Point","coordinates":[121.5026,25.09069]}},{"type":"Feature","properties":{"id":"osm:relation:4790937","name":"福安國中","category":"school","source":"osm"},"geometry":{"type":"Point","coordinates":[121.48841,25.10308]}},{"type":"Feature","properties":{"id":"osm:relation:4790938","name":"私立幼華高中","nameEn":"Taipei Shixin High School","category":"school","source":"osm"},"geometry":{"type":"Point","coordinates":[121.49669,25.13325]}},{"type":"Feature","properties":{"id":"osm:relation:4790939","name":"復興實驗高級中學","nameEn":"Taipei Fuhsing Private School","category":"school","source":"osm"},"geometry":{"type":"Point","coordinates":[121.54784,25.03936]}},{"type":"Feature","properties":{"id":"osm:relation:4790940","name":"薇閣高中","nameEn":"Taipei Wego Private Bilingual High School","category":"school","source":"osm"},"geometry":{"type":"Point","coordinates":[121.50417,25.13914]}},{"type":"Feature","properties":{"id":"osm:relation:4790942","name":"立人國際國中小","nameEn":"Lih Jen International Private School","category":"school","source":"osm"},"geometry":{"type":"Point","coordinates":[121.55188,25.02951]}},{"type":"Feature","properties":{"id":"osm:relation:4790943","name":"立農國小","nameEn":"Li Nong Elementary School","category":"school","source":"osm","tags":{"level":"elementary"}},"geometry":{"type":"Point","coordinates":[121.50472,25.11904]}},{"type":"Feature","properties":{"id":"osm:relation:4790944","name":"胡適國小","nameEn":"Hu Shih Elementary School","category":"school","source":"osm","tags":{"level":"elementary"}},"geometry":{"type":"Point","coordinates":[121.61786,25.04265]}},{"type":"Feature","properties":{"id":"osm:relation:4790945","name":"至善國中","nameEn":"Zhishan Junior High School","category":"school","source":"osm"},"geometry":{"type":"Point","coordinates":[121.55596,25.10375]}},{"type":"Feature","properties":{"id":"osm:relation:4790946","name":"興福國中","nameEn":"Xing Fu Junior High School","category":"school","source":"osm"},"geometry":{"type":"Point","coordinates":[121.5503,25.00499]}},{"type":"Feature","properties":{"id":"osm:relation:4790947","name":"興雅國中","nameEn":"Xingya Junior High School","category":"school","source":"osm"},"geometry":{"type":"Point","coordinates":[121.57224,25.03564]}},{"type":"Feature","properties":{"id":"osm:relation:4790948","name":"興雅國小","nameEn":"Xingya Elementary School","category":"school","source":"osm","tags":{"level":"elementary"}},"geometry":{"type":"Point","coordinates":[121.56966,25.04736]}},{"type":"Feature","properties":{"id":"osm:relation:4790949","name":"舊莊國小","nameEn":"Jiuzhuang Elementary School","category":"school","source":"osm","tags":{"level":"elementary"}},"geometry":{"type":"Point","coordinates":[121.61941,25.03952]}},{"type":"Feature","properties":{"id":"osm:relation:4790950","name":"芝山國小","category":"school","source":"osm","tags":{"level":"elementary"}},"geometry":{"type":"Point","coordinates":[121.53674,25.11071]}},{"type":"Feature","properties":{"id":"osm:relation:4790951","name":"萬芳國小","nameEn":"WanFang Elementary School","category":"school","source":"osm","tags":{"level":"elementary"}},"geometry":{"type":"Point","coordinates":[121.56756,25.00049]}},{"type":"Feature","properties":{"id":"osm:relation:4790952","name":"蘭雅國中","nameEn":"Lan-Ya Junior High School","category":"school","source":"osm"},"geometry":{"type":"Point","coordinates":[121.53179,25.11054]}},{"type":"Feature","properties":{"id":"osm:relation:4790953","name":"蘭雅國小","nameEn":"Lanya Elementary School","category":"school","source":"osm","tags":{"level":"elementary"}},"geometry":{"type":"Point","coordinates":[121.52266,25.10829]}},{"type":"Feature","properties":{"id":"osm:relation:4790954","name":"螢橋國小","nameEn":"Ying Qiao Elementary School","category":"school","source":"osm","tags":{"level":"elementary"}},"geometry":{"type":"Point","coordinates":[121.51455,25.02547]}},{"type":"Feature","properties":{"id":"osm:relation:4790955","name":"西松高中","category":"school","source":"osm"},"geometry":{"type":"Point","coordinates":[121.56634,25.05538]}},{"type":"Feature","properties":{"id":"osm:relation:4790956","name":"逸仙國小","nameEn":"Yixian Elementary School","category":"school","source":"osm","tags":{"operator":"臺北市政府教育局","level":"elementary"}},"geometry":{"type":"Point","coordinates":[121.50546,25.13799]}},{"type":"Feature","properties":{"id":"osm:relation:4790957","name":"重慶國中","category":"school","source":"osm"},"geometry":{"type":"Point","coordinates":[121.51818,25.07643]}},{"type":"Feature","properties":{"id":"osm:relation:4790958","name":"金華國小","category":"school","source":"osm","tags":{"level":"elementary"}},"geometry":{"type":"Point","coordinates":[121.52829,25.03236]}},{"type":"Feature","properties":{"id":"osm:relation:4790959","name":"長安國小","nameEn":"Chang'an Elementary School","category":"school","source":"osm","tags":{"level":"elementary"}},"geometry":{"type":"Point","coordinates":[121.53107,25.04973]}},{"type":"Feature","properties":{"id":"osm:relation:4790960","name":"陽明山國小","nameEn":"Yangminshan Elementary School","category":"school","source":"osm","tags":{"level":"elementary"}},"geometry":{"type":"Point","coordinates":[121.55248,25.11957]}},{"type":"Feature","properties":{"id":"osm:relation:4790961","name":"雨聲國小","category":"school","source":"osm","tags":{"level":"elementary"}},"geometry":{"type":"Point","coordinates":[121.53521,25.10312]}},{"type":"Feature","properties":{"id":"osm:relation:4790962","name":"麗山國中","category":"school","source":"osm"},"geometry":{"type":"Point","coordinates":[121.57558,25.08212]}},{"type":"Feature","properties":{"id":"osm:relation:4790963","name":"麗山國小","category":"school","source":"osm","tags":{"level":"elementary"}},"geometry":{"type":"Point","coordinates":[121.5723,25.08307]}},{"type":"Feature","properties":{"id":"osm:relation:4790964","name":"麗山高中","nameEn":"LiShan High School","category":"school","source":"osm"},"geometry":{"type":"Point","coordinates":[121.57776,25.08524]}},{"type":"Feature","properties":{"id":"osm:relation:4791304","name":"長安國中","nameEn":"Chang'an Elementary School","category":"school","source":"osm"},"geometry":{"type":"Point","coordinates":[121.53125,25.04982]}},{"type":"Feature","properties":{"id":"osm:relation:4791502","name":"三玉國小","category":"school","source":"osm","tags":{"level":"elementary"}},"geometry":{"type":"Point","coordinates":[121.53715,25.11727]}},{"type":"Feature","properties":{"id":"osm:relation:4791503","name":"台北市職能發展學院","category":"school","source":"osm"},"geometry":{"type":"Point","coordinates":[121.53832,25.11504]}},{"type":"Feature","properties":{"id":"osm:relation:4791504","name":"台北啟明學校","category":"school","source":"osm"},"geometry":{"type":"Point","coordinates":[121.53507,25.11715]}},{"type":"Feature","properties":{"id":"osm:relation:4791505","name":"臺北特教學校","category":"school","source":"osm"},"geometry":{"type":"Point","coordinates":[121.53619,25.11713]}},{"type":"Feature","properties":{"id":"osm:relation:4791506","name":"天母國中","category":"school","source":"osm"},"geometry":{"type":"Point","coordinates":[121.53823,25.11727]}},{"type":"Feature","properties":{"id":"osm:relation:4791507","name":"溪山實小","nameEn":"Xishan Elementary School","category":"school","source":"osm"},"geometry":{"type":"Point","coordinates":[121.5796,25.11992]}},{"type":"Feature","properties":{"id":"osm:relation:4793803","name":"三民國小","nameEn":"San Min Elementary School","category":"school","source":"osm","tags":{"level":"elementary"}},"geometry":{"type":"Point","coordinates":[121.56413,25.06376]}},{"type":"Feature","properties":{"id":"osm:relation:4793804","name":"中山國中","nameEn":"Taipei Municipal Zhongshan Junior High School","category":"school","source":"osm","tags":{"operator":"臺北市政府教育局"}},"geometry":{"type":"Point","coordinates":[121.54576,25.06097]}},{"type":"Feature","properties":{"id":"osm:relation:4793805","name":"中崙高中","category":"school","source":"osm"},"geometry":{"type":"Point","coordinates":[121.56169,25.04949]}},{"type":"Feature","properties":{"id":"osm:relation:4793806","name":"中正國中","nameEn":"Zhongzheng Junior High School","category":"school","source":"osm","tags":{"operator":"臺北市政府教育局"}},"geometry":{"type":"Point","coordinates":[121.5217,25.03182]}},{"type":"Feature","properties":{"id":"osm:relation:4793807","name":"中正高中","nameEn":"Zhongzheng Senior High School","category":"school","source":"osm","tags":{"operator":"臺北市政府教育局"}},"geometry":{"type":"Point","coordinates":[121.51577,25.10351]}},{"type":"Feature","properties":{"id":"osm:relation:4793808","name":"劍潭國小","category":"school","source":"osm","tags":{"operator":"臺北市政府教育局","level":"elementary"}},"geometry":{"type":"Point","coordinates":[121.52267,25.0795]}},{"type":"Feature","properties":{"id":"osm:relation:4793810","name":"北投國中","nameEn":"Beitou Junior High School","category":"school","source":"osm","tags":{"operator":"臺北市政府教育局"}},"geometry":{"type":"Point","coordinates":[121.50413,25.13479]}},{"type":"Feature","properties":{"id":"osm:relation:4793811","name":"南港高中","nameEn":"Nan Gang High School","category":"school","source":"osm","tags":{"operator":"臺北市政府教育局"}},"geometry":{"type":"Point","coordinates":[121.59407,25.05235]}},{"type":"Feature","properties":{"id":"osm:relation:4793812","name":"南港高工","nameEn":"Nangang Vocational High School","category":"school","source":"osm"},"geometry":{"type":"Point","coordinates":[121.60855,25.05659]}},{"type":"Feature","properties":{"id":"osm:relation:4793813","name":"南湖高中","nameEn":"Nanhu Senior High School","category":"school","source":"osm"},"geometry":{"type":"Point","coordinates":[121.60985,25.06622]}},{"type":"Feature","properties":{"id":"osm:relation:4793814","name":"和平高中","nameEn":"Taipei Municipal Heping High School","category":"school","source":"osm","tags":{"operator":"臺北市政府教育局"}},"geometry":{"type":"Point","coordinates":[121.54847,25.01908]}},{"type":"Feature","properties":{"id":"osm:relation:4793815","name":"大同國小","nameEn":"Datong Elementary School","category":"school","source":"osm","tags":{"operator":"臺北市政府教育局","level":"elementary"}},"geometry":{"type":"Point","coordinates":[121.5169,25.06495]}},{"type":"Feature","properties":{"id":"osm:relation:4793816","name":"大安國小","nameEn":"Da'an Elementary School","category":"school","source":"osm","tags":{"operator":"臺北市政府教育局","level":"elementary"}},"geometry":{"type":"Point","coordinates":[121.54998,25.01996]}},{"type":"Feature","properties":{"id":"osm:relation:4793817","name":"大龍國小","nameEn":"Taipei Municipal Dalong Elementary School","category":"school","source":"osm","tags":{"operator":"臺北市政府教育局","level":"elementary"}},"geometry":{"type":"Point","coordinates":[121.51659,25.07394]}},{"type":"Feature","properties":{"id":"osm:relation:4793818","name":"靜修中學","nameEn":"Blessed Imelda's School","category":"school","source":"osm"},"geometry":{"type":"Point","coordinates":[121.51536,25.05777]}},{"type":"Feature","properties":{"id":"osm:relation:4793819","name":"幸安國小","nameEn":"Xing'an Elementary School","category":"school","source":"osm","tags":{"level":"elementary"}},"geometry":{"type":"Point","coordinates":[121.53491,25.03698]}},{"type":"Feature","properties":{"id":"osm:relation:4793821","name":"建成國中","nameEn":"Jiancheng Junior High School","category":"school","source":"osm","tags":{"operator":"臺北市政府教育局"}},"geometry":{"type":"Point","coordinates":[121.5192,25.0514]}},{"type":"Feature","properties":{"id":"osm:relation:4793822","name":"成淵高中","nameEn":"Chengyuan Senior High School","category":"school","source":"osm","tags":{"operator":"臺北市政府教育局"}},"geometry":{"type":"Point","coordinates":[121.51929,25.06126]}},{"type":"Feature","properties":{"id":"osm:relation:4793826","name":"文林國小","category":"school","source":"osm","tags":{"operator":"臺北市政府教育局","level":"elementary"}},"geometry":{"type":"Point","coordinates":[121.51445,25.10579]}},{"type":"Feature","properties":{"id":"osm:relation:4793827","name":"日新國小","nameEn":"Ri-Xin Elementary School","category":"school","source":"osm","tags":{"operator":"臺北市政府教育局","level":"elementary"}},"geometry":{"type":"Point","coordinates":[121.51708,25.05423]}},{"type":"Feature","properties":{"id":"osm:relation:4793828","name":"明倫高中","nameEn":"Taipei Municipal Minglun High School","category":"school","source":"osm","tags":{"operator":"臺北市政府教育局"}},"geometry":{"type":"Point","coordinates":[121.51936,25.07612]}},{"type":"Feature","properties":{"id":"osm:relation:4793829","name":"桃源國中","nameEn":"Taoyuan Junior High School","category":"school","source":"osm"},"geometry":{"type":"Point","coordinates":[121.47657,25.13559]}},{"type":"Feature","properties":{"id":"osm:relation:4793830","name":"民族實驗國中","nameEn":"Minzu Experimental Junior High School","category":"school","source":"osm","tags":{"operator":"臺北市政府教育局"}},"geometry":{"type":"Point","coordinates":[121.53887,25.01047]}},{"type":"Feature","properties":{"id":"osm:relation:4793831","name":"永吉國中","nameEn":"Youngji Junior High School","category":"school","source":"osm"},"geometry":{"type":"Point","coordinates":[121.57381,25.04828]}},{"type":"Feature","properties":{"id":"osm:relation:4793833","name":"河堤國小","nameEn":"Heti Elementary School","category":"school","source":"osm","tags":{"operator":"臺北市政府教育局","level":"elementary"}},"geometry":{"type":"Point","coordinates":[121.52222,25.02294]}},{"type":"Feature","properties":{"id":"osm:relation:4793834","name":"泰北高中","nameEn":"Taibei Senior High School","category":"school","source":"osm"},"geometry":{"type":"Point","coordinates":[121.53456,25.09705]}},{"type":"Feature","properties":{"id":"osm:relation:4793835","name":"清江國小","nameEn":"Qing-Jiang Elementery School","category":"school","source":"osm","tags":{"level":"elementary"}},"geometry":{"type":"Point","coordinates":[121.50674,25.12647]}},{"type":"Feature","properties":{"id":"osm:relation:4793836","name":"瑠公國中","nameEn":"Liugong Junior High School","category":"school","source":"osm","tags":{"operator":"臺北市政府教育局"}},"geometry":{"type":"Point","coordinates":[121.58604,25.03701]}},{"type":"Feature","properties":{"id":"osm:relation:4793837","name":"協和祐德高中","category":"school","source":"osm"},"geometry":{"type":"Point","coordinates":[121.58366,25.04193]}},{"type":"Feature","properties":{"id":"osm:relation:4793838","name":"福德國小","category":"school","source":"osm","tags":{"operator":"臺北市政府教育局","level":"elementary"}},"geometry":{"type":"Point","coordinates":[121.58701,25.03861]}},{"type":"Feature","properties":{"id":"osm:relation:4793839","name":"育成高中","nameEn":"Yucheng Senior High School","category":"school","source":"osm"},"geometry":{"type":"Point","coordinates":[121.60914,25.05818]}},{"type":"Feature","properties":{"id":"osm:relation:4793840","name":"育達高職","nameEn":"Yu Da High School of Commerce and Home Economics","category":"school","source":"osm"},"geometry":{"type":"Point","coordinates":[121.55416,25.04997]}},{"type":"Feature","properties":{"id":"osm:relation:4793841","name":"臺北啟聰學校","nameEn":"Taipei School for the Hearing Impaired","category":"school","source":"osm"},"geometry":{"type":"Point","coordinates":[121.51265,25.07474]}},{"type":"Feature","properties":{"id":"osm:relation:4793843","name":"臺北歐洲學校小學部","nameEn":"Taipei European School","category":"school","source":"osm"},"geometry":{"type":"Point","coordinates":[121.51994,25.10086]}},{"type":"Feature","properties":{"id":"osm:relation:4793844","name":"興德國小","category":"school","source":"osm","tags":{"operator":"臺北市政府教育局","level":"elementary"}},"geometry":{"type":"Point","coordinates":[121.55088,25.00186]}},{"type":"Feature","properties":{"id":"osm:relation:4793845","name":"興隆國小","category":"school","source":"osm","tags":{"operator":"臺北市政府教育局","level":"elementary"}},"geometry":{"type":"Point","coordinates":[121.55217,25.00249]}},{"type":"Feature","properties":{"id":"osm:relation:4793846","name":"芳和實中","nameEn":"FangHe Experimantal High School","category":"school","source":"osm","tags":{"operator":"臺北市政府教育局"}},"geometry":{"type":"Point","coordinates":[121.54972,25.01825]}},{"type":"Feature","properties":{"id":"osm:relation:4793848","name":"蓬萊國小","nameEn":"Peng-Lai Elementary School","category":"school","source":"osm","tags":{"operator":"臺北市政府教育局","level":"elementary"}},"geometry":{"type":"Point","coordinates":[121.51606,25.05616]}},{"type":"Feature","properties":{"id":"osm:relation:4793849","name":"蘭州國中","nameEn":"Taipei Municipal Lan-Zhou Junior high School","category":"school","source":"osm","tags":{"operator":"臺北市政府教育局"}},"geometry":{"type":"Point","coordinates":[121.51686,25.06981]}},{"type":"Feature","properties":{"id":"osm:relation:4793850","name":"私立衛理女子高級中學","nameEn":"Wesley Girls High School","category":"school","source":"osm"},"geometry":{"type":"Point","coordinates":[121.55207,25.10232]}},{"type":"Feature","properties":{"id":"osm:relation:4793852","name":"誠正國中","nameEn":"Cheng Zheng Junior High School","category":"school","source":"osm","tags":{"operator":"臺北市政府教育局"}},"geometry":{"type":"Point","coordinates":[121.61923,25.05345]}},{"type":"Feature","properties":{"id":"osm:relation:4793853","name":"辛亥國小","nameEn":"Taipei Municipal Xinhai Elementary School","category":"school","source":"osm","tags":{"operator":"臺北市政府教育局","level":"elementary"}},"geometry":{"type":"Point","coordinates":[121.55923,25.00617]}},{"type":"Feature","properties":{"id":"osm:relation:4793854","name":"金甌女中","category":"school","source":"osm"},"geometry":{"type":"Point","coordinates":[121.52446,25.03478]}},{"type":"Feature","properties":{"id":"osm:relation:4793855","name":"雙溪國小","category":"school","source":"osm","tags":{"operator":"臺北市政府教育局","level":"elementary"}},"geometry":{"type":"Point","coordinates":[121.56494,25.10661]}},{"type":"Feature","properties":{"id":"osm:relation:4793856","name":"雙蓮國小","nameEn":"Taipei Municipal Shuanglian Elementary School","category":"school","source":"osm","tags":{"operator":"臺北市政府教育局","level":"elementary"}},"geometry":{"type":"Point","coordinates":[121.51682,25.06075]}},{"type":"Feature","properties":{"id":"osm:relation:4817442","name":"清水國小","nameEn":"Qing Shui Elementary School","category":"school","source":"osm","tags":{"level":"elementary"}},"geometry":{"type":"Point","coordinates":[121.46164,24.98417]}},{"type":"Feature","properties":{"id":"osm:relation:4817443","name":"清水高中","nameEn":"Qing Shui High School","category":"school","source":"osm"},"geometry":{"type":"Point","coordinates":[121.46417,24.98164]}},{"type":"Feature","properties":{"id":"osm:relation:5117657","name":"成德國小","nameEn":"Sêng-tek Kok-sió","category":"school","source":"osm","tags":{"level":"elementary"}},"geometry":{"type":"Point","coordinates":[121.58719,25.04741]}},{"type":"Feature","properties":{"id":"osm:relation:5117860","name":"修德國小","category":"school","source":"osm","tags":{"level":"elementary"}},"geometry":{"type":"Point","coordinates":[121.58943,25.04496]}},{"type":"Feature","properties":{"id":"osm:relation:5117869","name":"成德國中","category":"school","source":"osm"},"geometry":{"type":"Point","coordinates":[121.58784,25.04488]}},{"type":"Feature","properties":{"id":"osm:relation:5138435","name":"水源國小","category":"school","source":"osm","tags":{"level":"elementary"}},"geometry":{"type":"Point","coordinates":[121.47644,25.186]}},{"type":"Feature","properties":{"id":"osm:relation:5257274","name":"莊敬高職","nameEn":"Juang Jing Vocational High School","category":"school","source":"osm"},"geometry":{"type":"Point","coordinates":[121.53255,24.98543]}},{"type":"Feature","properties":{"id":"osm:relation:5272024","name":"天主教崇光高中","nameEn":"Our Lady Of Providence Girls' High School","category":"school","source":"osm"},"geometry":{"type":"Point","coordinates":[121.539,24.97152]}},{"type":"Feature","properties":{"id":"osm:relation:5345067","name":"新北高工","category":"school","source":"osm"},"geometry":{"type":"Point","coordinates":[121.45079,24.98325]}},{"type":"Feature","properties":{"id":"osm:relation:5365489","name":"智光商工","category":"school","source":"osm"},"geometry":{"type":"Point","coordinates":[121.51452,24.99462]}},{"type":"Feature","properties":{"id":"osm:relation:5365492","name":"中和國小","nameEn":"Zhonghe Elementary School","category":"school","source":"osm","tags":{"level":"elementary"}},"geometry":{"type":"Point","coordinates":[121.50131,24.99945]}},{"type":"Feature","properties":{"id":"osm:relation:5365494","name":"竹林中學","category":"school","source":"osm"},"geometry":{"type":"Point","coordinates":[121.5057,24.98011]}},{"type":"Feature","properties":{"id":"osm:relation:5365495","name":"復興國小","category":"school","source":"osm","tags":{"level":"elementary"}},"geometry":{"type":"Point","coordinates":[121.50222,24.98875]}},{"type":"Feature","properties":{"id":"osm:relation:5365496","name":"錦和國小","category":"school","source":"osm","tags":{"level":"elementary"}},"geometry":{"type":"Point","coordinates":[121.48938,24.9904]}},{"type":"Feature","properties":{"id":"osm:relation:5365497","name":"錦和高中","category":"school","source":"osm"},"geometry":{"type":"Point","coordinates":[121.4916,24.99256]}},{"type":"Feature","properties":{"id":"osm:relation:5365498","name":"積穗國小","category":"school","source":"osm","tags":{"level":"elementary"}},"geometry":{"type":"Point","coordinates":[121.48212,24.99908]}},{"type":"Feature","properties":{"id":"osm:relation:5365499","name":"積穗國中","category":"school","source":"osm"},"geometry":{"type":"Point","coordinates":[121.47874,25.00058]}},{"type":"Feature","properties":{"id":"osm:relation:5365500","name":"自強國中","category":"school","source":"osm"},"geometry":{"type":"Point","coordinates":[121.47304,24.99804]}},{"type":"Feature","properties":{"id":"osm:relation:5365501","name":"自強國小","nameEn":"Ziqiang Elementary School","category":"school","source":"osm","tags":{"level":"elementary"}},"geometry":{"type":"Point","coordinates":[121.47089,24.99869]}},{"type":"Feature","properties":{"id":"osm:relation:5365502","name":"中和高中","nameEn":"Zhong He Senior High School","category":"school","source":"osm"},"geometry":{"type":"Point","coordinates":[121.47751,24.99472]}},{"type":"Feature","properties":{"id":"osm:relation:5365503","name":"中和國中","nameEn":"Zhonghe Junior High School","category":"school","source":"osm","tags":{"operator":"新北市教育局"}},"geometry":{"type":"Point","coordinates":[121.50876,24.98509]}},{"type":"Feature","properties":{"id":"osm:relation:5368584","name":"桃源國小","nameEn":"Taoyuan Elementary School","category":"school","source":"osm","tags":{"level":"elementary"}},"geometry":{"type":"Point","coordinates":[121.48353,25.13994]}},{"type":"Feature","properties":{"id":"osm:relation:5383240","name":"北新國小","nameEn":"BeiXin Elementary School","category":"school","source":"osm","tags":{"operator":"新北市政府教育局","level":"elementary"}},"geometry":{"type":"Point","coordinates":[121.54474,24.9738]}},{"type":"Feature","properties":{"id":"osm:relation:5392701","name":"博嘉實小","nameEn":"Taipei Municipal Bojia Primary School","category":"school","source":"osm"},"geometry":{"type":"Point","coordinates":[121.5755,25.00189]}},{"type":"Feature","properties":{"id":"osm:relation:5392703","name":"木柵高工","nameEn":"Muzha Vocational High School","category":"school","source":"osm","tags":{"operator":"臺北市教育局"}},"geometry":{"type":"Point","coordinates":[121.57209,24.99666]}},{"type":"Feature","properties":{"id":"osm:relation:5401863","name":"華興中學","nameEn":"Huaxing High School","category":"school","source":"osm"},"geometry":{"type":"Point","coordinates":[121.53919,25.10532]}},{"type":"Feature","properties":{"id":"osm:relation:5421952","name":"文山特殊教育學校","nameEn":"Taipei Municipal Wenshan School of Special Education","category":"school","source":"osm"},"geometry":{"type":"Point","coordinates":[121.56745,24.99173]}},{"type":"Feature","properties":{"id":"osm:relation:5481624","name":"麗湖國小","category":"school","source":"osm","tags":{"level":"elementary"}},"geometry":{"type":"Point","coordinates":[121.60098,25.07219]}},{"type":"Feature","properties":{"id":"osm:relation:5671455","name":"國立臺灣師範大學和平校區","nameEn":"National Taiwan Normal University Heping Campus","category":"school","source":"osm","tags":{"operator":"中華民國教育部"}},"geometry":{"type":"Point","coordinates":[121.52852,25.02617]}},{"type":"Feature","properties":{"id":"osm:relation:5695439","name":"大屯國小","nameEn":"Datun Elementary School","category":"school","source":"osm","tags":{"level":"elementary"}},"geometry":{"type":"Point","coordinates":[121.50413,25.1552]}},{"type":"Feature","properties":{"id":"osm:relation:5759180","name":"五峰國中","nameEn":"Wufeng Junior High School","category":"school","source":"osm"},"geometry":{"type":"Point","coordinates":[121.54369,24.9667]}},{"type":"Feature","properties":{"id":"osm:relation:6084328","name":"新和國小","nameEn":"Xinhe Elementary School","category":"school","source":"osm","tags":{"operator":"新北市教育局","level":"elementary"}},"geometry":{"type":"Point","coordinates":[121.51814,24.98503]}},{"type":"Feature","properties":{"id":"osm:relation:6089826","name":"光華商職","category":"school","source":"osm"},"geometry":{"type":"Point","coordinates":[121.45481,25.0031]}},{"type":"Feature","properties":{"id":"osm:relation:6613337","name":"莊敬演藝學園","category":"school","source":"osm"},"geometry":{"type":"Point","coordinates":[121.53165,24.98651]}},{"type":"Feature","properties":{"id":"osm:relation:6832108","name":"稻江高級商業職業學校","category":"school","source":"osm"},"geometry":{"type":"Point","coordinates":[121.51195,25.06432]}},{"type":"Feature","properties":{"id":"osm:relation:6889830","name":"開平餐飲學校","nameEn":"Kai Ping Culinary School","category":"school","source":"osm"},"geometry":{"type":"Point","coordinates":[121.54222,25.02863]}},{"type":"Feature","properties":{"id":"osm:relation:6990188","name":"私立薇閣小學","nameEn":"Wego Elementary School","category":"school","source":"osm","tags":{"operator":"財團法人臺北市私立薇閣國民小學"}},"geometry":{"type":"Point","coordinates":[121.50117,25.13565]}},{"type":"Feature","properties":{"id":"osm:relation:7186031","name":"厚德國小","category":"school","source":"osm","tags":{"level":"elementary"}},"geometry":{"type":"Point","coordinates":[121.48885,25.07122]}},{"type":"Feature","properties":{"id":"osm:relation:7340863","name":"永和國中","nameEn":"Yonghe Junior High School","category":"school","source":"osm"},"geometry":{"type":"Point","coordinates":[121.52275,25.00589]}},{"type":"Feature","properties":{"id":"osm:relation:7343067","name":"東海高中","category":"school","source":"osm"},"geometry":{"type":"Point","coordinates":[121.47871,25.06447]}},{"type":"Feature","properties":{"id":"osm:relation:7343069","name":"二重國小","category":"school","source":"osm","tags":{"level":"elementary"}},"geometry":{"type":"Point","coordinates":[121.47849,25.06566]}},{"type":"Feature","properties":{"id":"osm:relation:7343070","name":"二重國中","category":"school","source":"osm"},"geometry":{"type":"Point","coordinates":[121.47977,25.06549]}},{"type":"Feature","properties":{"id":"osm:relation:7516198","name":"奎山實驗中學","category":"school","source":"osm"},"geometry":{"type":"Point","coordinates":[121.52263,25.11271]}},{"type":"Feature","properties":{"id":"osm:relation:7571280","name":"台北歐洲學校中學部","nameEn":"Taipei European School","category":"school","source":"osm"},"geometry":{"type":"Point","coordinates":[121.54944,25.13647]}},{"type":"Feature","properties":{"id":"osm:relation:7835490","name":"仁愛國小","nameEn":"Jen Ai Elementary School","category":"school","source":"osm","tags":{"level":"elementary"}},"geometry":{"type":"Point","coordinates":[121.47039,25.09184]}},{"type":"Feature","properties":{"id":"osm:relation:8417405","name":"興南國小","category":"school","source":"osm","tags":{"level":"elementary"}},"geometry":{"type":"Point","coordinates":[121.50971,24.98642]}},{"type":"Feature","properties":{"id":"osm:relation:8537701","name":"恩慈美國學校","nameEn":"Grace Christian Academy","category":"school","source":"osm"},"geometry":{"type":"Point","coordinates":[121.58795,25.04674]}},{"type":"Feature","properties":{"id":"osm:relation:8547925","name":"集美國小","category":"school","source":"osm","tags":{"level":"elementary"}},"geometry":{"type":"Point","coordinates":[121.48905,25.05688]}},{"type":"Feature","properties":{"id":"osm:relation:8547926","name":"新北市立三重高中","category":"school","source":"osm"},"geometry":{"type":"Point","coordinates":[121.49073,25.05584]}},{"type":"Feature","properties":{"id":"osm:relation:8547965","name":"碧華國小","category":"school","source":"osm","tags":{"operator":"新北市政府教育局","level":"elementary"}},"geometry":{"type":"Point","coordinates":[121.4896,25.08469]}},{"type":"Feature","properties":{"id":"osm:relation:8725051","name":"興華國小","nameEn":"Xinghua Elementary School","category":"school","source":"osm","tags":{"level":"elementary"}},"geometry":{"type":"Point","coordinates":[121.50133,25.20399]}},{"type":"Feature","properties":{"id":"osm:relation:8866723","name":"頭前國小","nameEn":"Touqian Elementary School","category":"school","source":"osm","tags":{"level":"elementary"}},"geometry":{"type":"Point","coordinates":[121.46536,25.05307]}},{"type":"Feature","properties":{"id":"osm:relation:8973995","name":"深坑國中","nameEn":"Shenkeng junior high school","category":"school","source":"osm"},"geometry":{"type":"Point","coordinates":[121.61836,25.00093]}},{"type":"Feature","properties":{"id":"osm:relation:8973996","name":"深坑國小","nameEn":"Shenkeng Elementary School","category":"school","source":"osm","tags":{"level":"elementary"}},"geometry":{"type":"Point","coordinates":[121.61711,25.00099]}},{"type":"Feature","properties":{"id":"osm:relation:9481799","name":"廣福國小","category":"school","source":"osm","tags":{"level":"elementary"}},"geometry":{"type":"Point","coordinates":[121.45509,24.98612]}},{"type":"Feature","properties":{"id":"osm:relation:9483850","name":"豫章工商","nameEn":"Yu Chang Technical & Commercial Vocational Senior High School","category":"school","source":"osm"},"geometry":{"type":"Point","coordinates":[121.45887,24.99715]}},{"type":"Feature","properties":{"id":"osm:relation:9490051","name":"白雲國小","category":"school","source":"osm","tags":{"level":"elementary"}},"geometry":{"type":"Point","coordinates":[121.61825,25.04779]}},{"type":"Feature","properties":{"id":"osm:relation:9643418","name":"新莊國中","nameEn":"Xīnzhuāng Junior High School","category":"school","source":"osm"},"geometry":{"type":"Point","coordinates":[121.4515,25.03511]}},{"type":"Feature","properties":{"id":"osm:relation:9992984","name":"和平實驗國小","category":"school","source":"osm","tags":{"level":"elementary"}},"geometry":{"type":"Point","coordinates":[121.54661,25.02152]}},{"type":"Feature","properties":{"id":"osm:relation:10025920","name":"三和國中","nameEn":"Sanhe Junior High School","category":"school","source":"osm"},"geometry":{"type":"Point","coordinates":[121.48671,25.0757]}},{"type":"Feature","properties":{"id":"osm:relation:10089833","name":"蘆洲國小","category":"school","source":"osm","tags":{"level":"elementary"}},"geometry":{"type":"Point","coordinates":[121.47053,25.08506]}},{"type":"Feature","properties":{"id":"osm:relation:10218115","name":"潭美國小","nameEn":"Tanmei Elementary School","category":"school","source":"osm","tags":{"level":"elementary"}},"geometry":{"type":"Point","coordinates":[121.58157,25.05855]}},{"type":"Feature","properties":{"id":"osm:relation:10408504","name":"樟樹國小","category":"school","source":"osm","tags":{"level":"elementary"}},"geometry":{"type":"Point","coordinates":[121.64146,25.06714]}},{"type":"Feature","properties":{"id":"osm:relation:10408506","name":"樟樹實中","category":"school","source":"osm"},"geometry":{"type":"Point","coordinates":[121.63921,25.06563]}},{"type":"Feature","properties":{"id":"osm:relation:10621722","name":"新北高中","nameEn":"New Taipei Municipal New Taipei Senior High School","category":"school","source":"osm","tags":{"operator":"新北市政府教育局"}},"geometry":{"type":"Point","coordinates":[121.49092,25.08662]}},{"type":"Feature","properties":{"id":"osm:relation:10622422","name":"五華國小","category":"school","source":"osm","tags":{"operator":"新北市政府教育局","level":"elementary"}},"geometry":{"type":"Point","coordinates":[121.49221,25.08742]}},{"type":"Feature","properties":{"id":"osm:relation:10716717","name":"和平國小","nameEn":"Hoping Elementary School","category":"school","source":"osm","tags":{"level":"elementary"}},"geometry":{"type":"Point","coordinates":[121.64151,25.01161]}},{"type":"Feature","properties":{"id":"osm:relation:12390495","name":"恆毅中學","nameEn":"Heng Yee Catholic High School","category":"school","source":"osm","tags":{"operator":"剛恆毅學校財團法人"}},"geometry":{"type":"Point","coordinates":[121.4541,25.03806]}},{"type":"Feature","properties":{"id":"osm:relation:12390498","name":"永福國小","category":"school","source":"osm","tags":{"level":"elementary"}},"geometry":{"type":"Point","coordinates":[121.47997,25.07702]}},{"type":"Feature","properties":{"id":"osm:relation:12390499","name":"重陽國小","category":"school","source":"osm","tags":{"level":"elementary"}},"geometry":{"type":"Point","coordinates":[121.48448,25.0669]}},{"type":"Feature","properties":{"id":"osm:relation:12390500","name":"修德國小","category":"school","source":"osm","tags":{"level":"elementary"}},"geometry":{"type":"Point","coordinates":[121.48948,25.06541]}},{"type":"Feature","properties":{"id":"osm:relation:12390501","name":"明志國中","category":"school","source":"osm"},"geometry":{"type":"Point","coordinates":[121.48894,25.06426]}},{"type":"Feature","properties":{"id":"osm:relation:12390502","name":"三重國小","category":"school","source":"osm","tags":{"level":"elementary"}},"geometry":{"type":"Point","coordinates":[121.49799,25.07058]}},{"type":"Feature","properties":{"id":"osm:relation:12390503","name":"光榮國中","category":"school","source":"osm"},"geometry":{"type":"Point","coordinates":[121.49941,25.07119]}},{"type":"Feature","properties":{"id":"osm:relation:12390504","name":"光榮國小","category":"school","source":"osm","tags":{"level":"elementary"}},"geometry":{"type":"Point","coordinates":[121.50094,25.07154]}},{"type":"Feature","properties":{"id":"osm:relation:12390505","name":"正義國小","category":"school","source":"osm","tags":{"level":"elementary"}},"geometry":{"type":"Point","coordinates":[121.49585,25.06513]}},{"type":"Feature","properties":{"id":"osm:relation:12390506","name":"光興國小","category":"school","source":"osm","tags":{"operator":"新北市政府教育局","level":"elementary"}},"geometry":{"type":"Point","coordinates":[121.49951,25.05941]}},{"type":"Feature","properties":{"id":"osm:relation:12390507","name":"三光國小","category":"school","source":"osm","tags":{"level":"elementary"}},"geometry":{"type":"Point","coordinates":[121.49595,25.05591]}},{"type":"Feature","properties":{"id":"osm:relation:12453418","name":"三民高中","category":"school","source":"osm","tags":{"operator":"新北市政府教育局"}},"geometry":{"type":"Point","coordinates":[121.47369,25.08695]}},{"type":"Feature","properties":{"id":"osm:relation:12453419","name":"蘆洲國中","nameEn":"Lujhou Junior High School","category":"school","source":"osm"},"geometry":{"type":"Point","coordinates":[121.46568,25.08656]}},{"type":"Feature","properties":{"id":"osm:relation:12453420","name":"忠義國小","nameEn":"Chung-yi Elementary School","category":"school","source":"osm","tags":{"operator":"新北市政府教育局","level":"elementary"}},"geometry":{"type":"Point","coordinates":[121.4636,25.08967]}},{"type":"Feature","properties":{"id":"osm:relation:12453421","name":"成功國小","nameEn":"ChengGong Elementary School","category":"school","source":"osm","tags":{"level":"elementary"}},"geometry":{"type":"Point","coordinates":[121.4566,25.08565]}},{"type":"Feature","properties":{"id":"osm:relation:12454337","name":"石碇高中","nameEn":"ShiDing High School","category":"school","source":"osm"},"geometry":{"type":"Point","coordinates":[121.64316,25.01415]}},{"type":"Feature","properties":{"id":"osm:relation:12660052","name":"頭前國中","category":"school","source":"osm"},"geometry":{"type":"Point","coordinates":[121.45884,25.05535]}},{"type":"Feature","properties":{"id":"osm:relation:12943450","name":"清傳高商","nameEn":"Chin Chwang Commercial Vocational High School","category":"school","source":"osm"},"geometry":{"type":"Point","coordinates":[121.47702,25.05127]}},{"type":"Feature","properties":{"id":"osm:relation:14467975","name":"雙永國小","nameEn":"Shuangiong Elementary School","category":"school","source":"osm","tags":{"level":"elementary"}},"geometry":{"type":"Point","coordinates":[121.5792,25.04383]}},{"type":"Feature","properties":{"id":"osm:relation:17853618","name":"台北復臨美國學校","nameEn":"Taipei Adventist American School","category":"school","source":"osm"},"geometry":{"type":"Point","coordinates":[121.55375,25.10981]}},{"type":"Feature","properties":{"id":"osm:relation:17885278","name":"臺北市立第一女子高級中學","nameEn":"Taipei First Girls High School","category":"school","source":"osm","tags":{"operator":"臺北市政府教育局"}},"geometry":{"type":"Point","coordinates":[121.51396,25.03792]}},{"type":"Feature","properties":{"id":"osm:relation:18583132","name":"西松國小","nameEn":"Xisong Elementary School","category":"school","source":"osm","tags":{"operator":"臺北市政府教育局","level":"elementary"}},"geometry":{"type":"Point","coordinates":[121.5629,25.05279]}}]}