{"type":"FeatureCollection","features":[{"type":"Feature","properties":{"id":"osm:node:10015029013","name":"The Nine 烘焙坊","category":"bakery","name_en":"The Nine Bakery","opening_hours":"Mo-Su 08:30-20:30"},"geometry":{"type":"Point","coordinates":[121.523228,25.052465]}},{"type":"Feature","properties":{"id":"osm:node:10029223366","name":"香緣西點蛋糕","category":"bakery"},"geometry":{"type":"Point","coordinates":[121.489649,25.052852]}},{"type":"Feature","properties":{"id":"osm:node:10032297017","name":"菠利塔烘培坊","category":"bakery"},"geometry":{"type":"Point","coordinates":[121.480752,25.079842]}},{"type":"Feature","properties":{"id":"osm:node:10032343020","name":"阿嘉師烘培坊","category":"bakery"},"geometry":{"type":"Point","coordinates":[121.487101,25.072293]}},{"type":"Feature","properties":{"id":"osm:node:10032343059","name":"凡妮莎蛋糕坊","category":"bakery"},"geometry":{"type":"Point","coordinates":[121.486955,25.071904]}},{"type":"Feature","properties":{"id":"osm:node:10037388607","name":"大不同西點麵包","category":"bakery"},"geometry":{"type":"Point","coordinates":[121.491046,25.052827]}},{"type":"Feature","properties":{"id":"osm:node:10226921317","name":"世運食品","category":"bakery","name_en":"Olympia"},"geometry":{"type":"Point","coordinates":[121.511601,25.042843]}},{"type":"Feature","properties":{"id":"osm:node:10316034248","name":"Sunmerry","category":"bakery","name_en":"Sunmerry"},"geometry":{"type":"Point","coordinates":[121.544733,25.052473]}},{"type":"Feature","properties":{"id":"osm:node:10536333057","name":"順成蛋糕","category":"bakery","name_en":"Shun Chen Bakery","brand":"順成蛋糕"},"geometry":{"type":"Point","coordinates":[121.511945,25.044167]}},{"type":"Feature","properties":{"id":"osm:node:10553916353","name":"舒麥爾食品","category":"bakery"},"geometry":{"type":"Point","coordinates":[121.478786,25.01288]}},{"type":"Feature","properties":{"id":"osm:node:10652197927","name":"普諾麵包坊","category":"bakery"},"geometry":{"type":"Point","coordinates":[121.550679,25.040933]}},{"type":"Feature","properties":{"id":"osm:node:10679786805","name":"掬園烘培店","category":"bakery"},"geometry":{"type":"Point","coordinates":[121.511051,24.999502]}},{"type":"Feature","properties":{"id":"osm:node:10682946170","name":"PINEDE 彼內朵 市府店","category":"bakery","name_en":"Pinede"},"geometry":{"type":"Point","coordinates":[121.565356,25.041546]}},{"type":"Feature","properties":{"id":"osm:node:10719155918","name":"雅群蛋糕坊","category":"bakery","opening_hours":"Mo-Su 07:30-22:30"},"geometry":{"type":"Point","coordinates":[121.473024,25.009608]}},{"type":"Feature","properties":{"id":"osm:node:10740502317","name":"饅香工坊","category":"bakery"},"geometry":{"type":"Point","coordinates":[121.515812,25.029984]}},{"type":"Feature","properties":{"id":"osm:node:10765636856","name":"太和傳統餅","category":"bakery"},"geometry":{"type":"Point","coordinates":[121.501293,25.036313]}},{"type":"Feature","properties":{"id":"osm:node:11247787061","name":"楓悅烘焙坊","category":"bakery"},"geometry":{"type":"Point","coordinates":[121.508119,25.035484]}},{"type":"Feature","properties":{"id":"osm:node:11359772710","name":"Bonjour","category":"bakery","name_en":"Bonjour"},"geometry":{"type":"Point","coordinates":[121.560276,25.060548]}},{"type":"Feature","properties":{"id":"osm:node:11361163416","name":"Roi du pain","category":"bakery","name_en":"Roi du pain","opening_hours":"Th-Tu 10:00-20:00"},"geometry":{"type":"Point","coordinates":[121.532633,25.124085]}},{"type":"Feature","properties":{"id":"osm:node:11390928047","name":"菲之軒時尚烘焙坊","category":"bakery"},"geometry":{"type":"Point","coordinates":[121.494285,25.027118]}},{"type":"Feature","properties":{"id":"osm:node:11594150357","name":"香都烘焙（延和店）","category":"bakery"},"geometry":{"type":"Point","coordinates":[121.466904,24.989751]}},{"type":"Feature","properties":{"id":"osm:node:11917368997","name":"饎果","category":"bakery"},"geometry":{"type":"Point","coordinates":[121.474908,25.078647]}},{"type":"Feature","properties":{"id":"osm:node:11980542527","name":"武松殿","category":"bakery"},"geometry":{"type":"Point","coordinates":[121.505423,24.994699]}},{"type":"Feature","properties":{"id":"osm:node:11991161683","name":"BOLO PAN","category":"bakery"},"geometry":{"type":"Point","coordinates":[121.543971,25.060652]}},{"type":"Feature","properties":{"id":"osm:node:12088965192","name":"凱樂烘焙坊","category":"bakery"},"geometry":{"type":"Point","coordinates":[121.523119,25.027223]}},{"type":"Feature","properties":{"id":"osm:node:12094914672","name":"米蘿麵包坊","category":"bakery"},"geometry":{"type":"Point","coordinates":[121.642238,25.064922]}},{"type":"Feature","properties":{"id":"osm:node:12194423828","name":"米菲烘焙","category":"bakery"},"geometry":{"type":"Point","coordinates":[121.607451,25.072949]}},{"type":"Feature","properties":{"id":"osm:node:12244968179","name":"伊品園烘焙坊","category":"bakery"},"geometry":{"type":"Point","coordinates":[121.585436,25.038607]}},{"type":"Feature","properties":{"id":"osm:node:12245890118","name":"包饌麵包屋","category":"bakery"},"geometry":{"type":"Point","coordinates":[121.550545,25.00369]}},{"type":"Feature","properties":{"id":"osm:node:12466891372","name":"胖歐蕾烘培坊","category":"bakery"},"geometry":{"type":"Point","coordinates":[121.529392,25.052288]}},{"type":"Feature","properties":{"id":"osm:node:12475356605","name":"Reeds Coffee & Bakery","category":"bakery","opening_hours":"Mo-Su 08:00-20:00"},"geometry":{"type":"Point","coordinates":[121.589766,25.079873]}},{"type":"Feature","properties":{"id":"osm:node:12517900426","name":"Aposo","category":"bakery"},"geometry":{"type":"Point","coordinates":[121.556683,25.051365]}},{"type":"Feature","properties":{"id":"osm:node:12622924534","name":"Lugar Bakery","category":"bakery","name_en":"Lugar Bakery"},"geometry":{"type":"Point","coordinates":[121.560242,25.031183]}},{"type":"Feature","properties":{"id":"osm:node:12745957393","name":"明日麵包","category":"bakery"},"geometry":{"type":"Point","coordinates":[121.56098,25.02925]}},{"type":"Feature","properties":{"id":"osm:node:12747940009","name":"土司吐司烘焙","category":"bakery","opening_hours":"Mo-Su 11:30-21:30"},"geometry":{"type":"Point","coordinates":[121.521653,25.024203]}},{"type":"Feature","properties":{"id":"osm:node:12765487433","name":"沐林","category":"bakery"},"geometry":{"type":"Point","coordinates":[121.57356,24.999968]}},{"type":"Feature","properties":{"id":"osm:node:12796372443","name":"Peacepiece_bakery","category":"bakery","opening_hours":"Mo, Fr-Su 12:00-19:00"},"geometry":{"type":"Point","coordinates":[121.518947,25.022932]}},{"type":"Feature","properties":{"id":"osm:node:12803393045","name":"初 CHU Bakery","category":"bakery","name_en":"CHU Bakery","opening_hours":"Mo-Su 11:00-19:00"},"geometry":{"type":"Point","coordinates":[121.56351,25.042631]}},{"type":"Feature","properties":{"id":"osm:node:12810971995","name":"Age","category":"bakery"},"geometry":{"type":"Point","coordinates":[121.563602,25.043154]}},{"type":"Feature","properties":{"id":"osm:node:1282486462","name":"普諾麵包坊","category":"bakery","name_en":"Pozzo Bakery","opening_hours":"Mo-Fr 07:00-22:00; Sa-Su 08:00-22:00"},"geometry":{"type":"Point","coordinates":[121.550932,25.041248]}},{"type":"Feature","properties":{"id":"osm:node:12854854761","name":"樂田麵包屋","category":"bakery","name_en":"GaKuDen","opening_hours":"Mo-Fr 07:30-22:00; Sa-Su 08:00-22:00"},"geometry":{"type":"Point","coordinates":[121.467203,25.125447]}},{"type":"Feature","properties":{"id":"osm:node:12863602373","name":"Purebread Bakery","category":"bakery"},"geometry":{"type":"Point","coordinates":[121.556556,25.038818]}},{"type":"Feature","properties":{"id":"osm:node:13131122515","name":"麵包大亨烘焙","category":"bakery"},"geometry":{"type":"Point","coordinates":[121.575274,24.987807]}},{"type":"Feature","properties":{"id":"osm:node:13134450098","name":"福軒麵包店","category":"bakery"},"geometry":{"type":"Point","coordinates":[121.569465,24.987807]}},{"type":"Feature","properties":{"id":"osm:node:13136578096","name":"夯胖 Bakaroti","category":"bakery"},"geometry":{"type":"Point","coordinates":[121.564738,24.982744]}},{"type":"Feature","properties":{"id":"osm:node:13141006309","name":"阿明師傅 -匠人手作-","category":"bakery"},"geometry":{"type":"Point","coordinates":[121.568494,24.987267]}},{"type":"Feature","properties":{"id":"osm:node:13142341036","name":"阿段烘焙","category":"bakery"},"geometry":{"type":"Point","coordinates":[121.569857,24.988992]}},{"type":"Feature","properties":{"id":"osm:node:13142341065","name":"澧莎西點麵包坊","category":"bakery"},"geometry":{"type":"Point","coordinates":[121.568488,24.988652]}},{"type":"Feature","properties":{"id":"osm:node:13142341106","name":"銘軒西餅","category":"bakery"},"geometry":{"type":"Point","coordinates":[121.569838,24.986832]}},{"type":"Feature","properties":{"id":"osm:node:13188293139","name":"安達生活無糖烘焙","category":"bakery"},"geometry":{"type":"Point","coordinates":[121.547271,25.041847]}},{"type":"Feature","properties":{"id":"osm:node:13190388593","name":"巧益西點麵包","category":"bakery"},"geometry":{"type":"Point","coordinates":[121.471764,25.007677]}},{"type":"Feature","properties":{"id":"osm:node:13249435887","name":"麵都烘焙坊","category":"bakery"},"geometry":{"type":"Point","coordinates":[121.468424,24.990739]}},{"type":"Feature","properties":{"id":"osm:node:13378311991","name":"豪鄉西點蛋糕城","category":"bakery"},"geometry":{"type":"Point","coordinates":[121.454531,25.049207]}},{"type":"Feature","properties":{"id":"osm:node:13475690208","name":"執福甜吐司本舖","category":"bakery"},"geometry":{"type":"Point","coordinates":[121.5343,25.054286]}},{"type":"Feature","properties":{"id":"osm:node:13580413601","name":"一之軒 幸福烘焙","category":"bakery"},"geometry":{"type":"Point","coordinates":[121.543673,25.026287]}},{"type":"Feature","properties":{"id":"osm:node:13799310001","name":"捲髮奶奶","category":"bakery","opening_hours":"Mo-Su 11:30-23:30"},"geometry":{"type":"Point","coordinates":[121.507651,25.045308]}},{"type":"Feature","properties":{"id":"osm:node:13882963912","name":"可為烘培","category":"bakery","name_en":"Pain de KAI"},"geometry":{"type":"Point","coordinates":[121.533514,25.018913]}},{"type":"Feature","properties":{"id":"osm:node:13947578447","name":"德聚餅舖","category":"bakery","name_en":"Twogather Pastry"},"geometry":{"type":"Point","coordinates":[121.505692,25.041705]}},{"type":"Feature","properties":{"id":"osm:node:13957140566","name":"無憂窯烤麵包","category":"bakery"},"geometry":{"type":"Point","coordinates":[121.591101,25.085581]}},{"type":"Feature","properties":{"id":"osm:node:13995734465","name":"世紀糕點 毅盛店","category":"bakery"},"geometry":{"type":"Point","coordinates":[121.516408,25.116883]}},{"type":"Feature","properties":{"id":"osm:node:14027964138","name":"永祥西點麵包店","category":"bakery"},"geometry":{"type":"Point","coordinates":[121.560517,25.084858]}},{"type":"Feature","properties":{"id":"osm:node:14075950501","name":"聖瑪莉x","category":"bakery"},"geometry":{"type":"Point","coordinates":[121.54337,25.032909]}},{"type":"Feature","properties":{"id":"osm:node:14078219821","name":"TransAsia Bakery","category":"bakery"},"geometry":{"type":"Point","coordinates":[121.514998,25.048705]}},{"type":"Feature","properties":{"id":"osm:node:14108677119","name":"Semeur聖娜","category":"bakery","name_en":"Semeur","brand":"Semeur聖娜"},"geometry":{"type":"Point","coordinates":[121.589946,25.063626]}},{"type":"Feature","properties":{"id":"osm:node:1686854787","name":"福利麵包店","category":"bakery"},"geometry":{"type":"Point","coordinates":[121.621375,25.041466]}},{"type":"Feature","properties":{"id":"osm:node:1796775323","name":"TIMAMA","category":"bakery"},"geometry":{"type":"Point","coordinates":[121.577511,25.075533]}},{"type":"Feature","properties":{"id":"osm:node:1837940931","name":"美二佳蛋糕","category":"bakery","name_en":"Mei Erh Chia Cake","opening_hours":"Mo-Su 06:30-23:00"},"geometry":{"type":"Point","coordinates":[121.565617,25.082632]}},{"type":"Feature","properties":{"id":"osm:node:1946350912","name":"米塔手感烘焙","category":"bakery","name_en":"Mita"},"geometry":{"type":"Point","coordinates":[121.546218,25.082818]}},{"type":"Feature","properties":{"id":"osm:node:1947370982","name":"Tartine Bakery","category":"bakery","opening_hours":"Mo-Su 11:00-21:00"},"geometry":{"type":"Point","coordinates":[121.552246,25.038597]}},{"type":"Feature","properties":{"id":"osm:node:2069518806","name":"瑪麗亞麵包店","category":"bakery"},"geometry":{"type":"Point","coordinates":[121.52088,25.008386]}},{"type":"Feature","properties":{"id":"osm:node:2137521992","name":"布穀鳥","category":"bakery"},"geometry":{"type":"Point","coordinates":[121.576876,25.039052]}},{"type":"Feature","properties":{"id":"osm:node:2142307113","name":"郭元益喜餅","category":"bakery"},"geometry":{"type":"Point","coordinates":[121.522417,25.054262]}},{"type":"Feature","properties":{"id":"osm:node:2146221028","name":"順成蛋糕","category":"bakery","name_en":"Shun Chen Bakery","brand":"順成蛋糕"},"geometry":{"type":"Point","coordinates":[121.532967,25.05974]}},{"type":"Feature","properties":{"id":"osm:node:2150108508","name":"蓬萊摩沙烘焙坊","category":"bakery"},"geometry":{"type":"Point","coordinates":[121.532991,25.06344]}},{"type":"Feature","properties":{"id":"osm:node:2168323078","name":"丹麥之屋","category":"bakery"},"geometry":{"type":"Point","coordinates":[121.540347,25.052381]}},{"type":"Feature","properties":{"id":"osm:node:2177104714","name":"楓采烘培屋","category":"bakery"},"geometry":{"type":"Point","coordinates":[121.592305,25.082684]}},{"type":"Feature","properties":{"id":"osm:node:2188228791","name":"御提伴手禮 宴會點心","category":"bakery"},"geometry":{"type":"Point","coordinates":[121.5432,25.022871]}},{"type":"Feature","properties":{"id":"osm:node:2188405248","name":"米多力","category":"bakery"},"geometry":{"type":"Point","coordinates":[121.533396,25.060067]}},{"type":"Feature","properties":{"id":"osm:node:2199033873","name":"喬福養生老麵饅頭店","category":"bakery"},"geometry":{"type":"Point","coordinates":[121.590084,25.077821]}},{"type":"Feature","properties":{"id":"osm:node:2209949969","name":"聖娜多堡","category":"bakery"},"geometry":{"type":"Point","coordinates":[121.541234,24.96766]}},{"type":"Feature","properties":{"id":"osm:node:2278521765","name":"一之軒","category":"bakery","name_en":"Ijysheng","brand":"一之軒","opening_hours":"Mo-Su 07:00-23:00"},"geometry":{"type":"Point","coordinates":[121.52864,25.024201]}},{"type":"Feature","properties":{"id":"osm:node:2300974231","name":"香妮亞","category":"bakery"},"geometry":{"type":"Point","coordinates":[121.59321,25.079735]}},{"type":"Feature","properties":{"id":"osm:node:2300974280","name":"香麥專業烘焙店","category":"bakery"},"geometry":{"type":"Point","coordinates":[121.591866,25.080378]}},{"type":"Feature","properties":{"id":"osm:node:2307156584","name":"奇屋咖啡烘焙坊","category":"bakery"},"geometry":{"type":"Point","coordinates":[121.593305,25.083661]}},{"type":"Feature","properties":{"id":"osm:node:2311690801","name":"富川麵包坊","category":"bakery"},"geometry":{"type":"Point","coordinates":[121.540917,24.96663]}},{"type":"Feature","properties":{"id":"osm:node:2313764553","name":"中村","category":"bakery"},"geometry":{"type":"Point","coordinates":[121.591649,25.081236]}},{"type":"Feature","properties":{"id":"osm:node:2341954017","name":"樂田麵包屋","category":"bakery","name_en":"GAKUDEN","brand":"樂田麵包屋"},"geometry":{"type":"Point","coordinates":[121.52488,25.027107]}},{"type":"Feature","properties":{"id":"osm:node:2377138786","name":"善果屋","category":"bakery","name_en":"Sharing Nature","opening_hours":"Mo-Su 10:30-21:00"},"geometry":{"type":"Point","coordinates":[121.533207,25.051027]}},{"type":"Feature","properties":{"id":"osm:node:2378064674","name":"哈利波特專業烘焙坊","category":"bakery"},"geometry":{"type":"Point","coordinates":[121.53971,24.978181]}},{"type":"Feature","properties":{"id":"osm:node:2392237999","name":"揚名烘培坊","category":"bakery"},"geometry":{"type":"Point","coordinates":[121.535008,25.061289]}},{"type":"Feature","properties":{"id":"osm:node:2399354751","name":"法蘭司烘焙","category":"bakery","opening_hours":"Mo-Fr 09:00-19:00, PH,Sa-Su 10:00-19:00"},"geometry":{"type":"Point","coordinates":[121.534663,25.050904]}},{"type":"Feature","properties":{"id":"osm:node:2441153356","name":"Marco Polo","category":"bakery"},"geometry":{"type":"Point","coordinates":[121.513366,25.043986]}},{"type":"Feature","properties":{"id":"osm:node:2473232917","name":"Belém Bakery","category":"bakery"},"geometry":{"type":"Point","coordinates":[121.542953,25.023414]}},{"type":"Feature","properties":{"id":"osm:node:2494671043","name":"法蘭司蛋糕","category":"bakery"},"geometry":{"type":"Point","coordinates":[121.550031,25.054171]}},{"type":"Feature","properties":{"id":"osm:node:2514660928","name":"長盛麵包店","category":"bakery"},"geometry":{"type":"Point","coordinates":[121.507226,25.128221]}},{"type":"Feature","properties":{"id":"osm:node:2559347097","name":"焙藝遊 Bake It Yourself","category":"bakery","opening_hours":"11:00-19:30"},"geometry":{"type":"Point","coordinates":[121.520744,25.049945]}},{"type":"Feature","properties":{"id":"osm:node:2563901894","name":"伊薇特冰淇淋夢工廠","category":"bakery"},"geometry":{"type":"Point","coordinates":[121.535653,24.983017]}},{"type":"Feature","properties":{"id":"osm:node:2563915995","name":"微熱山丘","category":"bakery","name_en":"SunnyHills","opening_hours":"Mo-Su 10:00-20:00"},"geometry":{"type":"Point","coordinates":[121.557195,25.0578]}},{"type":"Feature","properties":{"id":"osm:node:2572568019","name":"馬可營養超市","category":"bakery"},"geometry":{"type":"Point","coordinates":[121.509164,25.042048]}},{"type":"Feature","properties":{"id":"osm:node:2617054273","name":"幾分甜烘焙工坊","category":"bakery"},"geometry":{"type":"Point","coordinates":[121.512241,24.96171]}},{"type":"Feature","properties":{"id":"osm:node:2618190382","name":"香都烘焙","category":"bakery"},"geometry":{"type":"Point","coordinates":[121.458958,24.980781]}},{"type":"Feature","properties":{"id":"osm:node:2618674818","name":"金順發","category":"bakery"},"geometry":{"type":"Point","coordinates":[121.46037,25.136837]}},{"type":"Feature","properties":{"id":"osm:node:2642374352","name":"哈肯鋪","category":"bakery"},"geometry":{"type":"Point","coordinates":[121.610063,25.071086]}},{"type":"Feature","properties":{"id":"osm:node:2656074194","name":"佳德糕餅","category":"bakery","name_en":"Chia Te Bakery"},"geometry":{"type":"Point","coordinates":[121.561677,25.051235]}},{"type":"Feature","properties":{"id":"osm:node:2712421777","name":"Bonjour 麵包店","category":"bakery"},"geometry":{"type":"Point","coordinates":[121.463408,25.012533]}},{"type":"Feature","properties":{"id":"osm:node:2734052532","name":"FRESH新鮮烘焙坊","category":"bakery"},"geometry":{"type":"Point","coordinates":[121.594617,25.050377]}},{"type":"Feature","properties":{"id":"osm:node:2734137791","name":"布列德(永安店)","category":"bakery","name_en":"Bread Société Yong'an"},"geometry":{"type":"Point","coordinates":[121.510883,25.002537]}},{"type":"Feature","properties":{"id":"osm:node:2756655313","name":"優仕紳烘焙館","category":"bakery"},"geometry":{"type":"Point","coordinates":[121.517011,25.045071]}},{"type":"Feature","properties":{"id":"osm:node:2784759534","name":"多畝田手工土司","category":"bakery"},"geometry":{"type":"Point","coordinates":[121.455264,25.004566]}},{"type":"Feature","properties":{"id":"osm:node:2787513537","name":"一禾堂麵包本鋪","category":"bakery"},"geometry":{"type":"Point","coordinates":[121.551202,25.040279]}},{"type":"Feature","properties":{"id":"osm:node:2820084884","name":"哈肯舖","category":"bakery","name_en":"Hogan Bakery","opening_hours":"Mo-Su 07:00-22:00"},"geometry":{"type":"Point","coordinates":[121.467607,25.024621]}},{"type":"Feature","properties":{"id":"osm:node:2831356590","name":"布列德","category":"bakery"},"geometry":{"type":"Point","coordinates":[121.590803,25.080902]}},{"type":"Feature","properties":{"id":"osm:node:283374379","name":"温德德式烘焙餐館","category":"bakery","name_en":"Wendel's bakery and bistro","cuisine":"german","opening_hours":"Tu-Su 09:00-22:00"},"geometry":{"type":"Point","coordinates":[121.524372,25.106493]}},{"type":"Feature","properties":{"id":"osm:node:2853437770","name":"香野傳奇","category":"bakery"},"geometry":{"type":"Point","coordinates":[121.533183,25.044635]}},{"type":"Feature","properties":{"id":"osm:node:2923744301","name":"Nozomi Bakery","category":"bakery"},"geometry":{"type":"Point","coordinates":[121.53279,25.052783]}},{"type":"Feature","properties":{"id":"osm:node:2924918336","name":"聖瑪莉","category":"bakery","name_en":"Sunmerry"},"geometry":{"type":"Point","coordinates":[121.505096,24.994308]}},{"type":"Feature","properties":{"id":"osm:node:2947929881","name":"蜜卡爾","category":"bakery"},"geometry":{"type":"Point","coordinates":[121.526535,25.066732]}},{"type":"Feature","properties":{"id":"osm:node:2962455373","name":"包青天蔬菜包","category":"bakery","opening_hours":"Mo-Fr 07:15-18:30;Sa 07:15-12:00"},"geometry":{"type":"Point","coordinates":[121.579238,25.078746]}},{"type":"Feature","properties":{"id":"osm:node:2974008681","name":"一之軒","category":"bakery","name_en":"Ijysheng","brand":"一之軒"},"geometry":{"type":"Point","coordinates":[121.510138,24.989161]}},{"type":"Feature","properties":{"id":"osm:node:3006036118","name":"伊利亞專業烘培","category":"bakery"},"geometry":{"type":"Point","coordinates":[121.538419,25.00356]}},{"type":"Feature","properties":{"id":"osm:node:3007195593","name":"樂田麵包屋","category":"bakery","name_en":"GAKUDEN","brand":"樂田麵包屋","opening_hours":"Mo-Su 07:00-22:00"},"geometry":{"type":"Point","coordinates":[121.509184,25.042234]}},{"type":"Feature","properties":{"id":"osm:node:3019509461","name":"Neverland LITE Bakery & Coffee","category":"bakery","name_en":"Neverland LITE Bakery & Coffee"},"geometry":{"type":"Point","coordinates":[121.608779,25.054601]}},{"type":"Feature","properties":{"id":"osm:node:3034547601","name":"爵士西點麵包","category":"bakery"},"geometry":{"type":"Point","coordinates":[121.540344,25.05142]}},{"type":"Feature","properties":{"id":"osm:node:3051932444","name":"富品軒麵包坊","category":"bakery"},"geometry":{"type":"Point","coordinates":[121.50151,25.126762]}},{"type":"Feature","properties":{"id":"osm:node:3080436553","name":"順成蛋糕","category":"bakery","name_en":"Shun Chen Bakery","brand":"順成蛋糕"},"geometry":{"type":"Point","coordinates":[121.548438,25.041251]}},{"type":"Feature","properties":{"id":"osm:node:3104849438","name":"gogopàn元氣麵包社","category":"bakery","brand":"gogopàn元氣麵包社","opening_hours":"12:00-20:30"},"geometry":{"type":"Point","coordinates":[121.565168,24.988272]}},{"type":"Feature","properties":{"id":"osm:node:3104852743","name":"阿段烘培","category":"bakery"},"geometry":{"type":"Point","coordinates":[121.564931,24.987757]}},{"type":"Feature","properties":{"id":"osm:node:3144940089","name":"馥萱芝士蛋糕","category":"bakery"},"geometry":{"type":"Point","coordinates":[121.520001,24.994722]}},{"type":"Feature","properties":{"id":"osm:node:3151333818","name":"老大房食品","category":"bakery"},"geometry":{"type":"Point","coordinates":[121.539647,24.999719]}},{"type":"Feature","properties":{"id":"osm:node:3163062116","name":"一之軒時尚烘培士林店","category":"bakery","opening_hours":"07:00-22:30"},"geometry":{"type":"Point","coordinates":[121.525474,25.095038]}},{"type":"Feature","properties":{"id":"osm:node:3172604826","name":"聯亞麵包","category":"bakery"},"geometry":{"type":"Point","coordinates":[121.502994,24.999878]}},{"type":"Feature","properties":{"id":"osm:node:3182105513","name":"麥園蛋糕","category":"bakery"},"geometry":{"type":"Point","coordinates":[121.541031,24.989394]}},{"type":"Feature","properties":{"id":"osm:node:3182379929","name":"愛維爾蛋糕","category":"bakery"},"geometry":{"type":"Point","coordinates":[121.451814,25.046148]}},{"type":"Feature","properties":{"id":"osm:node:3186194998","name":"米哥烘培坊","category":"bakery"},"geometry":{"type":"Point","coordinates":[121.56513,25.040298]}},{"type":"Feature","properties":{"id":"osm:node:3195838810","name":"順成蛋糕","category":"bakery","name_en":"Shun Chen Bakery","brand":"順成蛋糕"},"geometry":{"type":"Point","coordinates":[121.578414,25.049044]}},{"type":"Feature","properties":{"id":"osm:node:3196859831","name":"好醫師烘培","category":"bakery"},"geometry":{"type":"Point","coordinates":[121.546874,25.048039]}},{"type":"Feature","properties":{"id":"osm:node:3196909464","name":"嘉鑫時尚烘培坊","category":"bakery"},"geometry":{"type":"Point","coordinates":[121.554075,25.047987]}},{"type":"Feature","properties":{"id":"osm:node:3212444580","name":"溫哥華麵包店","category":"bakery"},"geometry":{"type":"Point","coordinates":[121.508714,24.998975]}},{"type":"Feature","properties":{"id":"osm:node:3232564861","name":"MAY LAKE BAKERY","category":"bakery","opening_hours":"Mo-Su 09:00-23:00"},"geometry":{"type":"Point","coordinates":[121.616813,25.067919]}},{"type":"Feature","properties":{"id":"osm:node:3232571362","name":"艾立","category":"bakery"},"geometry":{"type":"Point","coordinates":[121.610102,25.071427]}},{"type":"Feature","properties":{"id":"osm:node:3232596396","name":"歐香蛋糕","category":"bakery"},"geometry":{"type":"Point","coordinates":[121.613929,25.068909]}},{"type":"Feature","properties":{"id":"osm:node:3233042764","name":"樂田麵包屋","category":"bakery","name_en":"GAKUDEN","brand":"樂田麵包屋"},"geometry":{"type":"Point","coordinates":[121.530048,25.01919]}},{"type":"Feature","properties":{"id":"osm:node:3233930034","name":"D2啊魔CHOCO","category":"bakery","opening_hours":"Mo-Sn 10:00-10:00"},"geometry":{"type":"Point","coordinates":[121.468715,25.013532]}},{"type":"Feature","properties":{"id":"osm:node:3280283761","name":"萊陽桃酥","category":"bakery"},"geometry":{"type":"Point","coordinates":[121.526641,25.021782]}},{"type":"Feature","properties":{"id":"osm:node:3292775567","name":"紅葉蛋糕","category":"bakery"},"geometry":{"type":"Point","coordinates":[121.466463,25.016032]}},{"type":"Feature","properties":{"id":"osm:node:3323032707","name":"小黑果長崎蛋糕","category":"bakery"},"geometry":{"type":"Point","coordinates":[121.541776,24.993456]}},{"type":"Feature","properties":{"id":"osm:node:3415922031","name":"一品香麵包坊","category":"bakery"},"geometry":{"type":"Point","coordinates":[121.49851,24.999456]}},{"type":"Feature","properties":{"id":"osm:node:3421799594","name":"小麥家烘焙坊","category":"bakery"},"geometry":{"type":"Point","coordinates":[121.50071,24.997452]}},{"type":"Feature","properties":{"id":"osm:node:3424566651","name":"金蕎蛋糕","category":"bakery"},"geometry":{"type":"Point","coordinates":[121.491293,24.996284]}},{"type":"Feature","properties":{"id":"osm:node:3424566652","name":"錦和麵包店","category":"bakery"},"geometry":{"type":"Point","coordinates":[121.49619,24.999261]}},{"type":"Feature","properties":{"id":"osm:node:3441073823","name":"欣禾手創烘焙坊","category":"bakery"},"geometry":{"type":"Point","coordinates":[121.500972,25.000813]}},{"type":"Feature","properties":{"id":"osm:node:3444671410","name":"MICHA","category":"bakery"},"geometry":{"type":"Point","coordinates":[121.46187,25.006229]}},{"type":"Feature","properties":{"id":"osm:node:3445858803","name":"Boîte de bijou","category":"bakery","opening_hours":"Mo-Su 10:00-21:00"},"geometry":{"type":"Point","coordinates":[121.529926,25.028032]}},{"type":"Feature","properties":{"id":"osm:node:3445858889","name":"Boîte de bijou","category":"bakery","opening_hours":"Mo-Su 10:00-21:00"},"geometry":{"type":"Point","coordinates":[121.550906,25.026297]}},{"type":"Feature","properties":{"id":"osm:node:3455846916","name":"Paul","category":"bakery","cuisine":"french","brand":"Paul","opening_hours":"Mo-Fr 09:00-20:30, Sa-Su 08:30-20:30"},"geometry":{"type":"Point","coordinates":[121.549728,25.03839]}},{"type":"Feature","properties":{"id":"osm:node:3457792199","name":"美雅斯西點麵包","category":"bakery"},"geometry":{"type":"Point","coordinates":[121.468735,25.02459]}},{"type":"Feature","properties":{"id":"osm:node:3463451808","name":"家芸手工烘焙坊","category":"bakery"},"geometry":{"type":"Point","coordinates":[121.500624,24.996439]}},{"type":"Feature","properties":{"id":"osm:node:3463451811","name":"大香山西點麵包","category":"bakery"},"geometry":{"type":"Point","coordinates":[121.500993,24.995761]}},{"type":"Feature","properties":{"id":"osm:node:3464721401","name":"巧好蛋糕屋","category":"bakery"},"geometry":{"type":"Point","coordinates":[121.504016,24.996806]}},{"type":"Feature","properties":{"id":"osm:node:3474638963","name":"美雅斯西點麵包","category":"bakery"},"geometry":{"type":"Point","coordinates":[121.468623,25.024619]}},{"type":"Feature","properties":{"id":"osm:node:3497497486","name":"王師傅麵包","category":"bakery"},"geometry":{"type":"Point","coordinates":[121.506934,25.00687]}},{"type":"Feature","properties":{"id":"osm:node:3506510894","name":"聖瑪麗","category":"bakery","name_en":"Sunmerry","opening_hours":"Mo-Su 07:30-21:30"},"geometry":{"type":"Point","coordinates":[121.52982,25.033525]}},{"type":"Feature","properties":{"id":"osm:node:3519842832","name":"一之軒","category":"bakery","name_en":"Ijysheng","brand":"一之軒"},"geometry":{"type":"Point","coordinates":[121.534118,24.987754]}},{"type":"Feature","properties":{"id":"osm:node:3523782365","name":"元氣的烘焙坊","category":"bakery"},"geometry":{"type":"Point","coordinates":[121.503345,24.994033]}},{"type":"Feature","properties":{"id":"osm:node:3523782375","name":"淘喜地","category":"bakery"},"geometry":{"type":"Point","coordinates":[121.50304,24.994424]}},{"type":"Feature","properties":{"id":"osm:node:3528629822","name":"HÒU","category":"bakery","opening_hours":"08:00-22:00"},"geometry":{"type":"Point","coordinates":[121.517767,25.030653]}},{"type":"Feature","properties":{"id":"osm:node:3548958972","name":"小潘蛋糕坊","category":"bakery"},"geometry":{"type":"Point","coordinates":[121.455948,25.015505]}},{"type":"Feature","properties":{"id":"osm:node:3595587234","name":"新東王麵包坊","category":"bakery"},"geometry":{"type":"Point","coordinates":[121.517413,25.031131]}},{"type":"Feature","properties":{"id":"osm:node:3596859021","name":"Amo阿默典藏蛋糕","category":"bakery"},"geometry":{"type":"Point","coordinates":[121.515978,25.04659]}},{"type":"Feature","properties":{"id":"osm:node:3602726593","name":"元組","category":"bakery"},"geometry":{"type":"Point","coordinates":[121.532344,25.033849]}},{"type":"Feature","properties":{"id":"osm:node:3636958297","name":"一番堂烘焙屋","category":"bakery"},"geometry":{"type":"Point","coordinates":[121.539909,25.000179]}},{"type":"Feature","properties":{"id":"osm:node:3700532672","name":"米塔手感烘焙","category":"bakery"},"geometry":{"type":"Point","coordinates":[121.558829,25.032106]}},{"type":"Feature","properties":{"id":"osm:node:3700823868","name":"雅馨烘培","category":"bakery"},"geometry":{"type":"Point","coordinates":[121.482135,25.067545]}},{"type":"Feature","properties":{"id":"osm:node:3711361612","name":"巧芝別克","category":"bakery"},"geometry":{"type":"Point","coordinates":[121.559389,25.031567]}},{"type":"Feature","properties":{"id":"osm:node:3714789189","name":"紅帽子喜餅","category":"bakery"},"geometry":{"type":"Point","coordinates":[121.570806,25.040388]}},{"type":"Feature","properties":{"id":"osm:node:3727152375","name":"布列德","category":"bakery"},"geometry":{"type":"Point","coordinates":[121.553278,25.0483]}},{"type":"Feature","properties":{"id":"osm:node:3740341264","name":"御馥西點麵包","category":"bakery"},"geometry":{"type":"Point","coordinates":[121.540161,24.991801]}},{"type":"Feature","properties":{"id":"osm:node:3752248625","name":"岩島城專業烘培","category":"bakery"},"geometry":{"type":"Point","coordinates":[121.526179,25.095217]}},{"type":"Feature","properties":{"id":"osm:node:3752985286","name":"源味本鋪古早味現烤蛋糕","category":"bakery"},"geometry":{"type":"Point","coordinates":[121.524808,25.089105]}},{"type":"Feature","properties":{"id":"osm:node:3755896125","name":"剛果媽媽","category":"bakery"},"geometry":{"type":"Point","coordinates":[121.614275,25.046952]}},{"type":"Feature","properties":{"id":"osm:node:3767530258","name":"Mymore","category":"bakery"},"geometry":{"type":"Point","coordinates":[121.541001,24.989138]}},{"type":"Feature","properties":{"id":"osm:node:3778327905","name":"郭元益","category":"bakery"},"geometry":{"type":"Point","coordinates":[121.52984,25.060453]}},{"type":"Feature","properties":{"id":"osm:node:3778327920","name":"鬍子麥胖","category":"bakery"},"geometry":{"type":"Point","coordinates":[121.53237,25.060387]}},{"type":"Feature","properties":{"id":"osm:node:3811446152","name":"雙福食品","category":"bakery"},"geometry":{"type":"Point","coordinates":[121.518519,25.057239]}},{"type":"Feature","properties":{"id":"osm:node:3812405145","name":"PLACE貝莉絲用心烘培","category":"bakery"},"geometry":{"type":"Point","coordinates":[121.545543,24.995282]}},{"type":"Feature","properties":{"id":"osm:node:3826876373","name":"米哥烘培坊","category":"bakery"},"geometry":{"type":"Point","coordinates":[121.540074,24.972541]}},{"type":"Feature","properties":{"id":"osm:node:3826876817","name":"胖桑烘培坊","category":"bakery"},"geometry":{"type":"Point","coordinates":[121.539676,24.972827]}},{"type":"Feature","properties":{"id":"osm:node:3835257358","name":"李亭香餅店","category":"bakery"},"geometry":{"type":"Point","coordinates":[121.508854,25.062365]}},{"type":"Feature","properties":{"id":"osm:node:3835335057","name":"麥品屋","category":"bakery"},"geometry":{"type":"Point","coordinates":[121.554106,24.987976]}},{"type":"Feature","properties":{"id":"osm:node:3835345658","name":"海利西點麵包店","category":"bakery"},"geometry":{"type":"Point","coordinates":[121.555027,24.987811]}},{"type":"Feature","properties":{"id":"osm:node:3835349529","name":"禮莎烘焙坊","category":"bakery"},"geometry":{"type":"Point","coordinates":[121.561555,24.985094]}},{"type":"Feature","properties":{"id":"osm:node:3835834096","name":"佳棋麵包烘培坊","category":"bakery"},"geometry":{"type":"Point","coordinates":[121.51931,25.084391]}},{"type":"Feature","properties":{"id":"osm:node:3835835263","name":"一粒麥子蛋糕坊","category":"bakery"},"geometry":{"type":"Point","coordinates":[121.521284,25.081205]}},{"type":"Feature","properties":{"id":"osm:node:3837357665","name":"水采田養食工坊","category":"bakery"},"geometry":{"type":"Point","coordinates":[121.497195,24.996127]}},{"type":"Feature","properties":{"id":"osm:node:3840864010","name":"吉川烘培坊","category":"bakery"},"geometry":{"type":"Point","coordinates":[121.542568,24.971415]}},{"type":"Feature","properties":{"id":"osm:node:3846132952","name":"手感烘培","category":"bakery"},"geometry":{"type":"Point","coordinates":[121.531622,25.051093]}},{"type":"Feature","properties":{"id":"osm:node:3846213192","name":"麵包大亨","category":"bakery"},"geometry":{"type":"Point","coordinates":[121.565257,24.98263]}},{"type":"Feature","properties":{"id":"osm:node:3846215060","name":"一粒醣蛋糕坊 Low Calorie Dessert","category":"bakery"},"geometry":{"type":"Point","coordinates":[121.564313,24.98237]}},{"type":"Feature","properties":{"id":"osm:node:3851199324","name":"一之軒","category":"bakery","name_en":"Ijysheng","brand":"一之軒","opening_hours":"Mo-Su 07:00-22:30"},"geometry":{"type":"Point","coordinates":[121.562674,25.051242]}},{"type":"Feature","properties":{"id":"osm:node:3881926857","name":"Richard Blanc","category":"bakery"},"geometry":{"type":"Point","coordinates":[121.566471,25.047367]}},{"type":"Feature","properties":{"id":"osm:node:3923847441","name":"良果精緻烘培坊","category":"bakery"},"geometry":{"type":"Point","coordinates":[121.5421,25.025263]}},{"type":"Feature","properties":{"id":"osm:node:3929888360","name":"Mister Donut","category":"bakery","name_en":"Mister Donut","cuisine":"donut","brand":"Mister Donut","opening_hours":"07:00-22:00"},"geometry":{"type":"Point","coordinates":[121.542747,24.974838]}},{"type":"Feature","properties":{"id":"osm:node:3929888362","name":"Trouble Maker手工鬆餅專賣店","category":"bakery"},"geometry":{"type":"Point","coordinates":[121.540345,24.99015]}},{"type":"Feature","properties":{"id":"osm:node:3939158023","name":"草津溫度烘培","category":"bakery"},"geometry":{"type":"Point","coordinates":[121.528387,25.022047]}},{"type":"Feature","properties":{"id":"osm:node:3939158028","name":"廣聯西點烘培坊","category":"bakery"},"geometry":{"type":"Point","coordinates":[121.531167,25.026179]}},{"type":"Feature","properties":{"id":"osm:node:3951653865","name":"集味屋","category":"bakery","opening_hours":"12:30-22:00"},"geometry":{"type":"Point","coordinates":[121.497307,24.999304]}},{"type":"Feature","properties":{"id":"osm:node:4018219666","name":"金三俠牛角烘培","category":"bakery"},"geometry":{"type":"Point","coordinates":[121.534956,24.976136]}},{"type":"Feature","properties":{"id":"osm:node:4033360505","name":"馬瑞利芬蘭燕麥麵包","category":"bakery","name_en":"MARUILI BAKERY"},"geometry":{"type":"Point","coordinates":[121.54779,24.997551]}},{"type":"Feature","properties":{"id":"osm:node:4050767726","name":"伊士多","category":"bakery"},"geometry":{"type":"Point","coordinates":[121.563411,25.056958]}},{"type":"Feature","properties":{"id":"osm:node:4058519107","name":"統領烘培","category":"bakery"},"geometry":{"type":"Point","coordinates":[121.545755,24.997579]}},{"type":"Feature","properties":{"id":"osm:node:4077646034","name":"鄉村乳酪蛋糕","category":"bakery"},"geometry":{"type":"Point","coordinates":[121.532566,25.109113]}},{"type":"Feature","properties":{"id":"osm:node:4078673437","name":"臺北高仕","category":"bakery"},"geometry":{"type":"Point","coordinates":[121.556355,25.056195]}},{"type":"Feature","properties":{"id":"osm:node:4082319502","name":"阿部烘培","category":"bakery"},"geometry":{"type":"Point","coordinates":[121.530384,25.060833]}},{"type":"Feature","properties":{"id":"osm:node:4082740396","name":"味多美烘培坊","category":"bakery"},"geometry":{"type":"Point","coordinates":[121.55318,25.020056]}},{"type":"Feature","properties":{"id":"osm:node:4082740403","name":"田園烘培屋","category":"bakery"},"geometry":{"type":"Point","coordinates":[121.554687,25.020897]}},{"type":"Feature","properties":{"id":"osm:node:4085142314","name":"豐嘉","category":"bakery"},"geometry":{"type":"Point","coordinates":[121.451744,24.996337]}},{"type":"Feature","properties":{"id":"osm:node:4114511324","name":"山崎麵包","category":"bakery","name_en":"Yamazaki Baking","brand":"山崎麵包"},"geometry":{"type":"Point","coordinates":[121.607401,25.052825]}},{"type":"Feature","properties":{"id":"osm:node:4149587184","name":"奇米屋專業烘培","category":"bakery"},"geometry":{"type":"Point","coordinates":[121.523771,25.022318]}},{"type":"Feature","properties":{"id":"osm:node:4160651809","name":"馬可先生","category":"bakery","name_en":"Mr. Mark","brand":"馬可先生"},"geometry":{"type":"Point","coordinates":[121.518126,25.065771]}},{"type":"Feature","properties":{"id":"osm:node:4170162789","name":"FLORIDA BAKERY麵包店","category":"bakery"},"geometry":{"type":"Point","coordinates":[121.522574,25.064673]}},{"type":"Feature","properties":{"id":"osm:node:4200643964","name":"聖米若手作烘焙坊","category":"bakery"},"geometry":{"type":"Point","coordinates":[121.55208,25.001612]}},{"type":"Feature","properties":{"id":"osm:node:4231372847","name":"太和工坊","category":"bakery"},"geometry":{"type":"Point","coordinates":[121.56139,25.051221]}},{"type":"Feature","properties":{"id":"osm:node:4232238876","name":"REAL真烘培坊","category":"bakery"},"geometry":{"type":"Point","coordinates":[121.617336,25.056497]}},{"type":"Feature","properties":{"id":"osm:node:4236823722","name":"富源烘培坊","category":"bakery"},"geometry":{"type":"Point","coordinates":[121.50972,24.988626]}},{"type":"Feature","properties":{"id":"osm:node:4236824147","name":"Sunmerry聖瑪莉","category":"bakery","opening_hours":"07:30-22:00"},"geometry":{"type":"Point","coordinates":[121.542747,24.974792]}},{"type":"Feature","properties":{"id":"osm:node:4242503830","name":"傳統手工蛋糕","category":"bakery"},"geometry":{"type":"Point","coordinates":[121.507506,24.985869]}},{"type":"Feature","properties":{"id":"osm:node:4253208214","name":"川雨麵包香","category":"bakery"},"geometry":{"type":"Point","coordinates":[121.530898,25.016143]}},{"type":"Feature","properties":{"id":"osm:node:4258222391","name":"楓華手作烘焙","category":"bakery","opening_hours":"Mo-Su 08:00-22:30"},"geometry":{"type":"Point","coordinates":[121.590395,25.081634]}},{"type":"Feature","properties":{"id":"osm:node:4258240368","name":"米哥烘焙坊","category":"bakery","opening_hours":"Mo-Su 11:00-22:00"},"geometry":{"type":"Point","coordinates":[121.474701,25.006468]}},{"type":"Feature","properties":{"id":"osm:node:4258260220","name":"再一口芙蓉蛋塔","category":"bakery"},"geometry":{"type":"Point","coordinates":[121.459384,24.99167]}},{"type":"Feature","properties":{"id":"osm:node:4258490789","name":"果匠正庵烘焙專職店","category":"bakery","opening_hours":"Tu-Fr 11:00-20:00; Sa-Su 11:00-18:00"},"geometry":{"type":"Point","coordinates":[121.528066,25.03548]}},{"type":"Feature","properties":{"id":"osm:node:4277687735","name":"悠菓手作烘焙","category":"bakery"},"geometry":{"type":"Point","coordinates":[121.495698,24.996463]}},{"type":"Feature","properties":{"id":"osm:node:4298924691","name":"馬可先生","category":"bakery","name_en":"Mr. Mark","brand":"馬可先生"},"geometry":{"type":"Point","coordinates":[121.562111,25.029595]}},{"type":"Feature","properties":{"id":"osm:node:4307603610","name":"馬可先生","category":"bakery","name_en":"Mr. Mark","brand":"馬可先生"},"geometry":{"type":"Point","coordinates":[121.525485,25.094923]}},{"type":"Feature","properties":{"id":"osm:node:4325606044","name":"馬可先生烘焙","category":"bakery"},"geometry":{"type":"Point","coordinates":[121.494605,25.07053]}},{"type":"Feature","properties":{"id":"osm:node:4325693417","name":"世裕蛋糕","category":"bakery"},"geometry":{"type":"Point","coordinates":[121.611956,25.001019]}},{"type":"Feature","properties":{"id":"osm:node:4325694214","name":"順成蛋糕","category":"bakery","name_en":"Shun Chen Bakery","brand":"順成蛋糕"},"geometry":{"type":"Point","coordinates":[121.557856,25.029882]}},{"type":"Feature","properties":{"id":"osm:node:4328118619","name":"馬可先生","category":"bakery","name_en":"Mr. Mark","brand":"馬可先生","opening_hours":"Mo-Sa 08:00-21:00; Su 09:00-21:00"},"geometry":{"type":"Point","coordinates":[121.54161,24.98226]}},{"type":"Feature","properties":{"id":"osm:node:4329768658","name":"君城本家","category":"bakery"},"geometry":{"type":"Point","coordinates":[121.522566,25.102213]}},{"type":"Feature","properties":{"id":"osm:node:4343743389","name":"饅饅家","category":"bakery"},"geometry":{"type":"Point","coordinates":[121.578169,25.074577]}},{"type":"Feature","properties":{"id":"osm:node:4352014791","name":"小珍珠烘焙坊","category":"bakery","name_en":"La Petite Perle","opening_hours":"We-Mo 09:30-22:30"},"geometry":{"type":"Point","coordinates":[121.530285,25.031006]}},{"type":"Feature","properties":{"id":"osm:node:4355316078","name":"馬可先生麵包坊","category":"bakery"},"geometry":{"type":"Point","coordinates":[121.521342,25.057599]}},{"type":"Feature","properties":{"id":"osm:node:4360384151","name":"樂田麵包屋","category":"bakery","name_en":"GAKUDEN","brand":"樂田麵包屋"},"geometry":{"type":"Point","coordinates":[121.533065,25.052546]}},{"type":"Feature","properties":{"id":"osm:node:4360398429","name":"丹蜜爾蛋糕","category":"bakery"},"geometry":{"type":"Point","coordinates":[121.61535,25.047327]}},{"type":"Feature","properties":{"id":"osm:node:4360398435","name":"美二佳","category":"bakery"},"geometry":{"type":"Point","coordinates":[121.593593,25.050137]}},{"type":"Feature","properties":{"id":"osm:node:4384259012","name":"半融菠蘿油","category":"bakery","opening_hours":"Mo-Th 12:00-21:30; Fr-Sa 12:00-22:00; Su 12:00-21:30"},"geometry":{"type":"Point","coordinates":[121.542789,24.983047]}},{"type":"Feature","properties":{"id":"osm:node:4384259027","name":"福圓號","category":"bakery","opening_hours":"12:00-20:00"},"geometry":{"type":"Point","coordinates":[121.541839,24.982793]}},{"type":"Feature","properties":{"id":"osm:node:4406518796","name":"樂焙烘焙坊","category":"bakery"},"geometry":{"type":"Point","coordinates":[121.57674,25.08399]}},{"type":"Feature","properties":{"id":"osm:node:4417940289","name":"米塔手感烘焙","category":"bakery","opening_hours":"07:30-23:00"},"geometry":{"type":"Point","coordinates":[121.523626,25.051979]}},{"type":"Feature","properties":{"id":"osm:node:4421534141","name":"四面香麵包蛋糕一律12元","category":"bakery"},"geometry":{"type":"Point","coordinates":[121.493033,25.066905]}},{"type":"Feature","properties":{"id":"osm:node:4421788389","name":"趣玩烘培咖啡輕食","category":"bakery"},"geometry":{"type":"Point","coordinates":[121.511372,25.042857]}},{"type":"Feature","properties":{"id":"osm:node:4423091676","name":"洪瑞珍三明治","category":"bakery"},"geometry":{"type":"Point","coordinates":[121.495976,25.067897]}},{"type":"Feature","properties":{"id":"osm:node:4427396478","name":"樂烘培材料器具","category":"bakery"},"geometry":{"type":"Point","coordinates":[121.550278,25.024197]}},{"type":"Feature","properties":{"id":"osm:node:4430893490","name":"永樂車輪餅","category":"bakery"},"geometry":{"type":"Point","coordinates":[121.510604,25.054827]}},{"type":"Feature","properties":{"id":"osm:node:4430930689","name":"獅子甜點","category":"bakery"},"geometry":{"type":"Point","coordinates":[121.524119,25.061279]}},{"type":"Feature","properties":{"id":"osm:node:4430972993","name":"悄悄好食","category":"bakery","name_en":"ciaociaogoodfood"},"geometry":{"type":"Point","coordinates":[121.539181,25.03758]}},{"type":"Feature","properties":{"id":"osm:node:4442099490","name":"陳根找茶","category":"bakery","opening_hours":"Mo-Su 06:00-12:30"},"geometry":{"type":"Point","coordinates":[121.565787,25.028358]}},{"type":"Feature","properties":{"id":"osm:node:4447581391","name":"樂田麵包屋","category":"bakery","name_en":"GAKUDEN","brand":"樂田麵包屋"},"geometry":{"type":"Point","coordinates":[121.460406,25.136978]}},{"type":"Feature","properties":{"id":"osm:node:4520207455","name":"麵包店","category":"bakery"},"geometry":{"type":"Point","coordinates":[121.510242,24.960603]}},{"type":"Feature","properties":{"id":"osm:node:4520752031","name":"樂田麵包屋","category":"bakery","name_en":"GAKUDEN","brand":"樂田麵包屋"},"geometry":{"type":"Point","coordinates":[121.517468,25.032588]}},{"type":"Feature","properties":{"id":"osm:node:4520787307","name":"Feng Cheng","category":"bakery","opening_hours":"Mo-Fr 07:30-22:30; Sa, Su 08:00-22:00"},"geometry":{"type":"Point","coordinates":[121.518079,25.030164]}},{"type":"Feature","properties":{"id":"osm:node:4520811465","name":"禾旭實業","category":"bakery"},"geometry":{"type":"Point","coordinates":[121.533417,25.059797]}},{"type":"Feature","properties":{"id":"osm:node:4524318931","name":"爆漿卡通雞蛋糕","category":"bakery"},"geometry":{"type":"Point","coordinates":[121.542314,24.99039]}},{"type":"Feature","properties":{"id":"osm:node:4524318939","name":"泉利西點麵包坊","category":"bakery"},"geometry":{"type":"Point","coordinates":[121.547466,24.999148]}},{"type":"Feature","properties":{"id":"osm:node:4524344021","name":"米塔手感烘培","category":"bakery"},"geometry":{"type":"Point","coordinates":[121.540593,24.98307]}},{"type":"Feature","properties":{"id":"osm:node:4524863894","name":"聖瑪莉","category":"bakery"},"geometry":{"type":"Point","coordinates":[121.56132,25.058895]}},{"type":"Feature","properties":{"id":"osm:node:4524863915","name":"凱樂烘培","category":"bakery"},"geometry":{"type":"Point","coordinates":[121.554191,25.032138]}},{"type":"Feature","properties":{"id":"osm:node:4524864553","name":"提拉米蘇","category":"bakery"},"geometry":{"type":"Point","coordinates":[121.543251,25.027731]}},{"type":"Feature","properties":{"id":"osm:node:4538270112","name":"六國麵包坊","category":"bakery"},"geometry":{"type":"Point","coordinates":[121.538783,24.960035]}},{"type":"Feature","properties":{"id":"osm:node:4557454594","name":"吃吃喝喝","category":"bakery","name_en":"Maison Gourmande"},"geometry":{"type":"Point","coordinates":[121.566469,25.082568]}},{"type":"Feature","properties":{"id":"osm:node:4602106491","name":"蜜密牛軋餅","category":"bakery","opening_hours":"Tu-Su 09:00-13:00"},"geometry":{"type":"Point","coordinates":[121.527294,25.03319]}},{"type":"Feature","properties":{"id":"osm:node:4622661490","name":"手天品社區食坊","category":"bakery","name_en":"Shou Tian Pin","opening_hours":"Mo-Fr 09:30-20:00; Sa 09:30-18:00"},"geometry":{"type":"Point","coordinates":[121.530436,25.028259]}},{"type":"Feature","properties":{"id":"osm:node:4629718328","name":"French Twist Bakery","category":"bakery","name_en":"FamilyMart","opening_hours":"Mo-Tu 10:00-17:00; Th-Su 10:00-17:00"},"geometry":{"type":"Point","coordinates":[121.556846,25.058762]}},{"type":"Feature","properties":{"id":"osm:node:4727069878","name":"十年麵包","category":"bakery"},"geometry":{"type":"Point","coordinates":[121.609813,25.072759]}},{"type":"Feature","properties":{"id":"osm:node:4735551416","name":"金洋菓子烘焙坊","category":"bakery"},"geometry":{"type":"Point","coordinates":[121.609805,25.070969]}},{"type":"Feature","properties":{"id":"osm:node:4742365024","name":"胡椒餅","category":"bakery"},"geometry":{"type":"Point","coordinates":[121.51149,25.046131]}},{"type":"Feature","properties":{"id":"osm:node:4782160496","name":"君城本家","category":"bakery"},"geometry":{"type":"Point","coordinates":[121.509606,25.085073]}},{"type":"Feature","properties":{"id":"osm:node:4794561823","name":"時麥","category":"bakery","name_en":"Smile Bake","opening_hours":"09:00-20:30"},"geometry":{"type":"Point","coordinates":[121.511621,25.042733]}},{"type":"Feature","properties":{"id":"osm:node:4834782724","name":"布拉格烘培坊","category":"bakery"},"geometry":{"type":"Point","coordinates":[121.54074,24.965072]}},{"type":"Feature","properties":{"id":"osm:node:4834803854","name":"菠蘿麵包","category":"bakery","name_en":"Bolopan"},"geometry":{"type":"Point","coordinates":[121.534714,25.014098]}},{"type":"Feature","properties":{"id":"osm:node:4834803863","name":"饅頭專賣","category":"bakery"},"geometry":{"type":"Point","coordinates":[121.532832,25.015025]}},{"type":"Feature","properties":{"id":"osm:node:4836631373","name":"國際西點麵包廠","category":"bakery"},"geometry":{"type":"Point","coordinates":[121.518949,25.031416]}},{"type":"Feature","properties":{"id":"osm:node:4836631375","name":"一之軒","category":"bakery","name_en":"Ijysheng","brand":"一之軒"},"geometry":{"type":"Point","coordinates":[121.518637,25.03186]}},{"type":"Feature","properties":{"id":"osm:node:4836631400","name":"一之軒","category":"bakery","name_en":"Ijysheng","brand":"一之軒"},"geometry":{"type":"Point","coordinates":[121.531539,25.033399]}},{"type":"Feature","properties":{"id":"osm:node:4836653416","name":"百合麵包園","category":"bakery"},"geometry":{"type":"Point","coordinates":[121.526117,25.095537]}},{"type":"Feature","properties":{"id":"osm:node:4836653429","name":"樂田麵包屋","category":"bakery","name_en":"GAKUDEN","brand":"樂田麵包屋"},"geometry":{"type":"Point","coordinates":[121.525969,25.094655]}},{"type":"Feature","properties":{"id":"osm:node:4838086715","name":"F2法式甜點","category":"bakery"},"geometry":{"type":"Point","coordinates":[121.519886,25.062256]}},{"type":"Feature","properties":{"id":"osm:node:4838086720","name":"六國麵包坊","category":"bakery"},"geometry":{"type":"Point","coordinates":[121.518375,25.046139]}},{"type":"Feature","properties":{"id":"osm:node:4838087674","name":"阿默蛋糕","category":"bakery"},"geometry":{"type":"Point","coordinates":[121.517635,25.046545]}},{"type":"Feature","properties":{"id":"osm:node:4838087676","name":"山崎麵包","category":"bakery","name_en":"Yamazaki Baking","brand":"山崎麵包"},"geometry":{"type":"Point","coordinates":[121.517606,25.046475]}},{"type":"Feature","properties":{"id":"osm:node:4838087681","name":"樂田麵包屋","category":"bakery","name_en":"GAKUDEN","brand":"樂田麵包屋"},"geometry":{"type":"Point","coordinates":[121.517482,25.046316]}},{"type":"Feature","properties":{"id":"osm:node:4848960024","name":"Corner Bakery 63 國賓麵包房","category":"bakery","name_en":"Corner Bakery 63","opening_hours":"Mo-Su 09:00-21:00"},"geometry":{"type":"Point","coordinates":[121.52321,25.0578]}},{"type":"Feature","properties":{"id":"osm:node:4946809021","name":"Le Gout","category":"bakery","name_en":"Le Gout"},"geometry":{"type":"Point","coordinates":[121.576299,25.07361]}},{"type":"Feature","properties":{"id":"osm:node:5002723023","name":"全恩饅頭","category":"bakery"},"geometry":{"type":"Point","coordinates":[121.563722,25.06143]}},{"type":"Feature","properties":{"id":"osm:node:5088772983","name":"阿默蛋糕","category":"bakery","opening_hours":"Mo-Su 08:30-21:00"},"geometry":{"type":"Point","coordinates":[121.500302,25.03271]}},{"type":"Feature","properties":{"id":"osm:node:5102929624","name":"味覺の感動","category":"bakery"},"geometry":{"type":"Point","coordinates":[121.530005,25.031324]}},{"type":"Feature","properties":{"id":"osm:node:5108706561","name":"哈肯舖","category":"bakery","opening_hours":"09:00-22:00"},"geometry":{"type":"Point","coordinates":[121.542746,24.974066]}},{"type":"Feature","properties":{"id":"osm:node:5108709474","name":"偉多利專業烘培","category":"bakery"},"geometry":{"type":"Point","coordinates":[121.543163,24.992027]}},{"type":"Feature","properties":{"id":"osm:node:5108728531","name":"妞妞麵包","category":"bakery"},"geometry":{"type":"Point","coordinates":[121.547893,24.996899]}},{"type":"Feature","properties":{"id":"osm:node:5108743119","name":"樂田麵包屋","category":"bakery","name_en":"GAKUDEN","brand":"樂田麵包屋"},"geometry":{"type":"Point","coordinates":[121.539304,25.001326]}},{"type":"Feature","properties":{"id":"osm:node:5110269757","name":"聯物囍餅","category":"bakery"},"geometry":{"type":"Point","coordinates":[121.533951,25.048566]}},{"type":"Feature","properties":{"id":"osm:node:5110348209","name":"香華","category":"bakery"},"geometry":{"type":"Point","coordinates":[121.566416,25.0511]}},{"type":"Feature","properties":{"id":"osm:node:5110348559","name":"御珍馨","category":"bakery"},"geometry":{"type":"Point","coordinates":[121.557163,25.051351]}},{"type":"Feature","properties":{"id":"osm:node:5110348738","name":"一禾堂","category":"bakery"},"geometry":{"type":"Point","coordinates":[121.561784,25.048821]}},{"type":"Feature","properties":{"id":"osm:node:5110348762","name":"Semeur聖娜","category":"bakery","name_en":"Semeur","brand":"Semeur聖娜"},"geometry":{"type":"Point","coordinates":[121.554396,25.033355]}},{"type":"Feature","properties":{"id":"osm:node:5110488712","name":"雅式食品","category":"bakery","opening_hours":"Mo-Sa 07:30-21:30; PH,Su off"},"geometry":{"type":"Point","coordinates":[121.520788,25.060455]}},{"type":"Feature","properties":{"id":"osm:node:5110488981","name":"濃緹烘培坊","category":"bakery"},"geometry":{"type":"Point","coordinates":[121.561316,24.994742]}},{"type":"Feature","properties":{"id":"osm:node:5110490237","name":"南蠻堂加壽蛋糕","category":"bakery"},"geometry":{"type":"Point","coordinates":[121.507393,25.046408]}},{"type":"Feature","properties":{"id":"osm:node:5110490242","name":"六阿姨手工包子店","category":"bakery"},"geometry":{"type":"Point","coordinates":[121.507162,25.046461]}},{"type":"Feature","properties":{"id":"osm:node:5110491058","name":"洪瑞珍三明治","category":"bakery","opening_hours":"Mo-Su 10:00-18:00"},"geometry":{"type":"Point","coordinates":[121.520969,25.062591]}},{"type":"Feature","properties":{"id":"osm:node:5139488949","name":"徠旺吐司","category":"bakery"},"geometry":{"type":"Point","coordinates":[121.525826,25.094984]}},{"type":"Feature","properties":{"id":"osm:node:5172444921","name":"全統西點麵包","category":"bakery"},"geometry":{"type":"Point","coordinates":[121.525998,25.11871]}},{"type":"Feature","properties":{"id":"osm:node:5179670921","name":"順成蛋糕","category":"bakery","name_en":"Shun Chen Bakery","brand":"順成蛋糕"},"geometry":{"type":"Point","coordinates":[121.568275,25.08069]}},{"type":"Feature","properties":{"id":"osm:node:5201675922","name":"郭元益總店","category":"bakery"},"geometry":{"type":"Point","coordinates":[121.524147,25.097455]}},{"type":"Feature","properties":{"id":"osm:node:5201864524","name":"RIVON禮坊","category":"bakery"},"geometry":{"type":"Point","coordinates":[121.524487,25.095932]}},{"type":"Feature","properties":{"id":"osm:node:5201896821","name":"伊莎貝爾囍餅","category":"bakery"},"geometry":{"type":"Point","coordinates":[121.524483,25.095982]}},{"type":"Feature","properties":{"id":"osm:node:5203497721","name":"yang peng","category":"bakery"},"geometry":{"type":"Point","coordinates":[121.5251,25.094964]}},{"type":"Feature","properties":{"id":"osm:node:5205520723","name":"紅葉蛋糕","category":"bakery"},"geometry":{"type":"Point","coordinates":[121.525202,25.11857]}},{"type":"Feature","properties":{"id":"osm:node:5208038228","name":"順成蛋糕","category":"bakery","name_en":"Shun Chen Bakery","brand":"順成蛋糕"},"geometry":{"type":"Point","coordinates":[121.522907,25.094781]}},{"type":"Feature","properties":{"id":"osm:node:5211479527","name":"Hagar’s kitchen","category":"bakery"},"geometry":{"type":"Point","coordinates":[121.527874,25.112061]}},{"type":"Feature","properties":{"id":"osm:node:5219061022","name":"露特西亞麵包店","category":"bakery"},"geometry":{"type":"Point","coordinates":[121.527728,25.114666]}},{"type":"Feature","properties":{"id":"osm:node:5236380822","name":"上好屋烘焙","category":"bakery"},"geometry":{"type":"Point","coordinates":[121.528348,25.109249]}},{"type":"Feature","properties":{"id":"osm:node:5242186121","name":"港式菠蘿專賣店","category":"bakery"},"geometry":{"type":"Point","coordinates":[121.5256,25.091617]}},{"type":"Feature","properties":{"id":"osm:node:5242643221","name":"本色古早味手工現烤蛋糕","category":"bakery"},"geometry":{"type":"Point","coordinates":[121.528705,25.111381]}},{"type":"Feature","properties":{"id":"osm:node:5251477700","name":"留乃堂","category":"bakery","name_en":"Liou Nai Tan Bakery and Cafe","opening_hours":"Mo-Su 06:30-22:00"},"geometry":{"type":"Point","coordinates":[121.521227,25.057873]}},{"type":"Feature","properties":{"id":"osm:node:5262782526","name":"Fait a la main","category":"bakery"},"geometry":{"type":"Point","coordinates":[121.531179,24.974811]}},{"type":"Feature","properties":{"id":"osm:node:5270482479","name":"新東王烘焙坊","category":"bakery"},"geometry":{"type":"Point","coordinates":[121.542381,25.055912]}},{"type":"Feature","properties":{"id":"osm:node:5279034821","name":"樂田麵包屋","category":"bakery","name_en":"GAKUDEN","brand":"樂田麵包屋","opening_hours":"Mo-Su 07:00-17:00"},"geometry":{"type":"Point","coordinates":[121.544286,25.053546]}},{"type":"Feature","properties":{"id":"osm:node:5282966021","name":"承繼","category":"bakery","name_en":"Cheng Ji"},"geometry":{"type":"Point","coordinates":[121.546451,25.055997]}},{"type":"Feature","properties":{"id":"osm:node:5285474853","name":"米哥烘培坊","category":"bakery"},"geometry":{"type":"Point","coordinates":[121.554655,25.000696]}},{"type":"Feature","properties":{"id":"osm:node:5286843329","name":"葡萄樹","category":"bakery"},"geometry":{"type":"Point","coordinates":[121.557217,24.999293]}},{"type":"Feature","properties":{"id":"osm:node:5286850712","name":"老爺爺葡式蛋塔","category":"bakery"},"geometry":{"type":"Point","coordinates":[121.557965,24.998799]}},{"type":"Feature","properties":{"id":"osm:node:5286876071","name":"一之軒","category":"bakery","name_en":"Ijysheng","brand":"一之軒"},"geometry":{"type":"Point","coordinates":[121.555899,25.000444]}},{"type":"Feature","properties":{"id":"osm:node:5296916559","name":"Mister Donut","category":"bakery","name_en":"Mister Donut","cuisine":"donut","brand":"Mister Donut"},"geometry":{"type":"Point","coordinates":[121.565284,25.040873]}},{"type":"Feature","properties":{"id":"osm:node:5298633821","name":"凱撒麵包","category":"bakery"},"geometry":{"type":"Point","coordinates":[121.653602,25.063589]}},{"type":"Feature","properties":{"id":"osm:node:5340099218","name":"福利麵包","category":"bakery","name_en":"Florida Bakery","brand":"福利麵包"},"geometry":{"type":"Point","coordinates":[121.605896,25.072831]}},{"type":"Feature","properties":{"id":"osm:node:5495149324","name":"南法香頌","category":"bakery"},"geometry":{"type":"Point","coordinates":[121.525654,25.09083]}},{"type":"Feature","properties":{"id":"osm:node:5495173721","name":"米哥烘焙坊","category":"bakery"},"geometry":{"type":"Point","coordinates":[121.525643,25.090735]}},{"type":"Feature","properties":{"id":"osm:node:5504919534","name":"富家西點麵包坊","category":"bakery"},"geometry":{"type":"Point","coordinates":[121.53841,24.995581]}},{"type":"Feature","properties":{"id":"osm:node:5505377653","name":"亞克麵包烘培坊","category":"bakery"},"geometry":{"type":"Point","coordinates":[121.53855,24.996818]}},{"type":"Feature","properties":{"id":"osm:node:5505377679","name":"徐記老大房","category":"bakery"},"geometry":{"type":"Point","coordinates":[121.540715,24.998155]}},{"type":"Feature","properties":{"id":"osm:node:5535958345","name":"Waffle Bus","category":"bakery"},"geometry":{"type":"Point","coordinates":[121.505812,25.044642]}},{"type":"Feature","properties":{"id":"osm:node:5579538022","name":"187巷的法式","category":"bakery"},"geometry":{"type":"Point","coordinates":[121.527546,25.09632]}},{"type":"Feature","properties":{"id":"osm:node:5608373723","name":"甜食小鋪","category":"bakery"},"geometry":{"type":"Point","coordinates":[121.524178,25.09626]}},{"type":"Feature","properties":{"id":"osm:node:5608373724","name":"莎諾里烘焙坊","category":"bakery"},"geometry":{"type":"Point","coordinates":[121.524014,25.096785]}},{"type":"Feature","properties":{"id":"osm:node:5661163194","name":"聖瑪麗","category":"bakery"},"geometry":{"type":"Point","coordinates":[121.514663,25.011251]}},{"type":"Feature","properties":{"id":"osm:node:5704275586","name":"櫻桃爺爺","category":"bakery"},"geometry":{"type":"Point","coordinates":[121.533894,25.048568]}},{"type":"Feature","properties":{"id":"osm:node:5779562115","name":"小紅帽","category":"bakery"},"geometry":{"type":"Point","coordinates":[121.526033,25.094509]}},{"type":"Feature","properties":{"id":"osm:node:5817773316","name":"吉和利烘培坊","category":"bakery"},"geometry":{"type":"Point","coordinates":[121.541979,25.053451]}},{"type":"Feature","properties":{"id":"osm:node:5839973229","name":"聖瑪麗","category":"bakery"},"geometry":{"type":"Point","coordinates":[121.543656,25.025231]}},{"type":"Feature","properties":{"id":"osm:node:5863510939","name":"美好蛋糕","category":"bakery","opening_hours":"We-Su 14:00-20:00; Mo-Tu off"},"geometry":{"type":"Point","coordinates":[121.543228,24.999126]}},{"type":"Feature","properties":{"id":"osm:node:5874608085","name":"吳寶春麫包店","category":"bakery","name_en":"Wu Pao Chun","opening_hours":"Mo-Su 09:30-20:30"},"geometry":{"type":"Point","coordinates":[121.568872,25.032404]}},{"type":"Feature","properties":{"id":"osm:node:5937238263","name":"阿莫蛋糕","category":"bakery"},"geometry":{"type":"Point","coordinates":[121.543536,25.042692]}},{"type":"Feature","properties":{"id":"osm:node:5970357105","name":"永松蛋糕麵包","category":"bakery"},"geometry":{"type":"Point","coordinates":[121.54455,24.997718]}},{"type":"Feature","properties":{"id":"osm:node:6024267587","name":"諾蔓麵包","category":"bakery"},"geometry":{"type":"Point","coordinates":[121.461799,25.137828]}},{"type":"Feature","properties":{"id":"osm:node:6024282270","name":"聖瑪莉","category":"bakery","name_en":"SUNMERRY","opening_hours":"Mo-Su 08:00-21:00"},"geometry":{"type":"Point","coordinates":[121.467154,25.021835]}},{"type":"Feature","properties":{"id":"osm:node:6027180016","name":"好丘貝果","category":"bakery"},"geometry":{"type":"Point","coordinates":[121.54837,25.052109]}},{"type":"Feature","properties":{"id":"osm:node:6029650182","name":"益堂麵包店","category":"bakery"},"geometry":{"type":"Point","coordinates":[121.463875,24.998133]}},{"type":"Feature","properties":{"id":"osm:node:6059585217","name":"味覺の感動","category":"bakery","opening_hours":"Tu-Fr 10:30-19:00; Sa 10:30-18:00"},"geometry":{"type":"Point","coordinates":[121.527794,25.043494]}},{"type":"Feature","properties":{"id":"osm:node:6095989127","name":"創意烘焙麵包店","category":"bakery"},"geometry":{"type":"Point","coordinates":[121.518223,25.088635]}},{"type":"Feature","properties":{"id":"osm:node:6116346727","name":"慶祝 celebrate baking 烘焙","category":"bakery","opening_hours":"Mo-Su 10:00-19:00"},"geometry":{"type":"Point","coordinates":[121.525028,25.102149]}},{"type":"Feature","properties":{"id":"osm:node:6134997453","name":"Un jour a paris","category":"bakery"},"geometry":{"type":"Point","coordinates":[121.557011,25.042263]}},{"type":"Feature","properties":{"id":"osm:node:6135336686","name":"岩島成","category":"bakery","name_en":"Gino Pasco"},"geometry":{"type":"Point","coordinates":[121.516849,25.046256]}},{"type":"Feature","properties":{"id":"osm:node:6135336687","name":"順成蛋糕","category":"bakery","name_en":"Shun Chen Bakery","brand":"順成蛋糕"},"geometry":{"type":"Point","coordinates":[121.516886,25.046248]}},{"type":"Feature","properties":{"id":"osm:node:6140337475","name":"歐嬤德式烘焙","category":"bakery"},"geometry":{"type":"Point","coordinates":[121.530193,25.020049]}},{"type":"Feature","properties":{"id":"osm:node:6163029972","name":"二和珍","category":"bakery"},"geometry":{"type":"Point","coordinates":[121.501232,25.036026]}},{"type":"Feature","properties":{"id":"osm:node:6165766447","name":"塩°パン 手作麵包本舖","category":"bakery"},"geometry":{"type":"Point","coordinates":[121.543371,25.033056]}},{"type":"Feature","properties":{"id":"osm:node:6165772973","name":"聖保羅烘焙花園","category":"bakery"},"geometry":{"type":"Point","coordinates":[121.543369,25.03402]}},{"type":"Feature","properties":{"id":"osm:node:6176413347","name":"東味手工饅頭","category":"bakery"},"geometry":{"type":"Point","coordinates":[121.501829,24.997948]}},{"type":"Feature","properties":{"id":"osm:node:6182991550","name":"塩。パン手作麵包本舖","category":"bakery"},"geometry":{"type":"Point","coordinates":[121.450425,25.049239]}},{"type":"Feature","properties":{"id":"osm:node:6183747906","name":"山益麵包店","category":"bakery","cuisine":"麵包店"},"geometry":{"type":"Point","coordinates":[121.563934,25.026882]}},{"type":"Feature","properties":{"id":"osm:node:6188986705","name":"億親烘焙坊","category":"bakery"},"geometry":{"type":"Point","coordinates":[121.500806,25.069415]}},{"type":"Feature","properties":{"id":"osm:node:6188996223","name":"蛋營養古早味蛋糕","category":"bakery"},"geometry":{"type":"Point","coordinates":[121.502474,25.06444]}},{"type":"Feature","properties":{"id":"osm:node:6249946233","name":"佳軒烘培坊","category":"bakery"},"geometry":{"type":"Point","coordinates":[121.560628,25.028366]}},{"type":"Feature","properties":{"id":"osm:node:6310414185","name":"歐嬷德式烘焙","category":"bakery"},"geometry":{"type":"Point","coordinates":[121.568637,25.082266]}},{"type":"Feature","properties":{"id":"osm:node:6354698717","name":"凱樂烘培","category":"bakery"},"geometry":{"type":"Point","coordinates":[121.543595,25.044016]}},{"type":"Feature","properties":{"id":"osm:node:6367036687","name":"原點","category":"bakery"},"geometry":{"type":"Point","coordinates":[121.547772,25.036453]}},{"type":"Feature","properties":{"id":"osm:node:6387861299","name":"凱樂烘培坊","category":"bakery"},"geometry":{"type":"Point","coordinates":[121.536275,25.0485]}},{"type":"Feature","properties":{"id":"osm:node:6389111666","name":"歐培拉西點麵包","category":"bakery"},"geometry":{"type":"Point","coordinates":[121.508316,25.088706]}},{"type":"Feature","properties":{"id":"osm:node:6403494665","name":"Oma's German Bakery","category":"bakery","cuisine":"coffee_shop;german"},"geometry":{"type":"Point","coordinates":[121.530362,25.020161]}},{"type":"Feature","properties":{"id":"osm:node:6418121462","name":"兄弟飯店麵包坊","category":"bakery"},"geometry":{"type":"Point","coordinates":[121.544498,25.05215]}},{"type":"Feature","properties":{"id":"osm:node:6419215200","name":"馬可先生","category":"bakery","name_en":"Mr. Mark","brand":"馬可先生"},"geometry":{"type":"Point","coordinates":[121.521624,25.007743]}},{"type":"Feature","properties":{"id":"osm:node:6460118487","name":"合成燒餅店","category":"bakery","opening_hours":"Mo-Sa 07:30-16:00"},"geometry":{"type":"Point","coordinates":[121.560655,25.057592]}},{"type":"Feature","properties":{"id":"osm:node:6460141985","name":"老張炭烤燒餅","category":"bakery","opening_hours":"Mo-Su 06:30-18:30"},"geometry":{"type":"Point","coordinates":[121.552989,25.031011]}},{"type":"Feature","properties":{"id":"osm:node:6460857785","name":"港記酥皇店","category":"bakery","opening_hours":"Mo-Su 09:00-22:00"},"geometry":{"type":"Point","coordinates":[121.507785,25.045751]}},{"type":"Feature","properties":{"id":"osm:node:6463071685","name":"一郎商行年糕黑芝麻","category":"bakery"},"geometry":{"type":"Point","coordinates":[121.584233,25.047808]}},{"type":"Feature","properties":{"id":"osm:node:6551202291","name":"榮田麵包屋","category":"bakery"},"geometry":{"type":"Point","coordinates":[121.551919,25.024234]}},{"type":"Feature","properties":{"id":"osm:node:6569447323","name":"世運食品","category":"bakery"},"geometry":{"type":"Point","coordinates":[121.505027,25.042911]}},{"type":"Feature","properties":{"id":"osm:node:6585779785","name":"Moon Baking studio","category":"bakery"},"geometry":{"type":"Point","coordinates":[121.54442,25.035352]}},{"type":"Feature","properties":{"id":"osm:node:6605417565","name":"快樂城西點麵包","category":"bakery"},"geometry":{"type":"Point","coordinates":[121.653893,25.061641]}},{"type":"Feature","properties":{"id":"osm:node:6749527353","name":"米包 Bakery","category":"bakery"},"geometry":{"type":"Point","coordinates":[121.46823,25.019504]}},{"type":"Feature","properties":{"id":"osm:node:6865431290","name":"巢客精緻西點麵包","category":"bakery"},"geometry":{"type":"Point","coordinates":[121.515602,25.110773]}},{"type":"Feature","properties":{"id":"osm:node:6876041246","name":"288綿密古早味現烤蛋糕","category":"bakery"},"geometry":{"type":"Point","coordinates":[121.554877,25.001132]}},{"type":"Feature","properties":{"id":"osm:node:6928872285","name":"滿福堂餅店","category":"bakery","name_en":"Manfutang"},"geometry":{"type":"Point","coordinates":[121.527215,25.044087]}},{"type":"Feature","properties":{"id":"osm:node:6960982303","name":"非凡烘焙餐坊","category":"bakery"},"geometry":{"type":"Point","coordinates":[121.563609,25.060851]}},{"type":"Feature","properties":{"id":"osm:node:7089441303","name":"伊品園烘培坊","category":"bakery"},"geometry":{"type":"Point","coordinates":[121.534536,25.025257]}},{"type":"Feature","properties":{"id":"osm:node:7130799894","name":"犬首燒","category":"bakery"},"geometry":{"type":"Point","coordinates":[121.558116,25.052278]}},{"type":"Feature","properties":{"id":"osm:node:7151865710","name":"Mister Donut","category":"bakery","name_en":"Mister Donut","cuisine":"donut","brand":"Mister Donut"},"geometry":{"type":"Point","coordinates":[121.516768,25.047541]}},{"type":"Feature","properties":{"id":"osm:node:7175344765","name":"一之軒","category":"bakery","name_en":"Ijysheng","brand":"一之軒"},"geometry":{"type":"Point","coordinates":[121.616582,25.06827]}},{"type":"Feature","properties":{"id":"osm:node:7193346181","name":"度特手做烘焙","category":"bakery"},"geometry":{"type":"Point","coordinates":[121.475312,25.087112]}},{"type":"Feature","properties":{"id":"osm:node:7205578387","name":"Miss V Bakery","category":"bakery","name_en":"Miss V Bakery","opening_hours":"Mo-Su 12:00-19:00"},"geometry":{"type":"Point","coordinates":[121.520296,25.055622]}},{"type":"Feature","properties":{"id":"osm:node:7208404926","name":"索菲烤布蕾","category":"bakery"},"geometry":{"type":"Point","coordinates":[121.541257,24.996479]}},{"type":"Feature","properties":{"id":"osm:node:7211425545","name":"麥詩專業烘焙","category":"bakery"},"geometry":{"type":"Point","coordinates":[121.584204,25.045139]}},{"type":"Feature","properties":{"id":"osm:node:7367236615","name":"索菲烤布蕾","category":"bakery"},"geometry":{"type":"Point","coordinates":[121.535067,25.013623]}},{"type":"Feature","properties":{"id":"osm:node:7368540683","name":"驊珍食品","category":"bakery"},"geometry":{"type":"Point","coordinates":[121.499547,25.068254]}},{"type":"Feature","properties":{"id":"osm:node:7368631825","name":"Rosa羅撒蛋糕","category":"bakery"},"geometry":{"type":"Point","coordinates":[121.498356,25.062269]}},{"type":"Feature","properties":{"id":"osm:node:7368631853","name":"驊珍食品","category":"bakery"},"geometry":{"type":"Point","coordinates":[121.50076,25.063391]}},{"type":"Feature","properties":{"id":"osm:node:7368631873","name":"精緻西點歐式麵包12元起","category":"bakery"},"geometry":{"type":"Point","coordinates":[121.499577,25.063444]}},{"type":"Feature","properties":{"id":"osm:node:7368962857","name":"吉坊素食烘焙","category":"bakery"},"geometry":{"type":"Point","coordinates":[121.496498,25.064305]}},{"type":"Feature","properties":{"id":"osm:node:7440634095","name":"貝克德手感烘焙","category":"bakery"},"geometry":{"type":"Point","coordinates":[121.615751,25.069918]}},{"type":"Feature","properties":{"id":"osm:node:7689995461","name":"好好味冰火波羅油專賣店","category":"bakery","opening_hours":"11:30-21:30"},"geometry":{"type":"Point","coordinates":[121.54175,24.98048]}},{"type":"Feature","properties":{"id":"osm:node:7699679866","name":"一之軒","category":"bakery","name_en":"Ijysheng","brand":"一之軒"},"geometry":{"type":"Point","coordinates":[121.533434,25.061512]}},{"type":"Feature","properties":{"id":"osm:node:7701998926","name":"北台灣科技學院","category":"bakery"},"geometry":{"type":"Point","coordinates":[121.522509,25.043899]}},{"type":"Feature","properties":{"id":"osm:node:7716183534","name":"馬可先生麵包坊","category":"bakery","name_en":"Mr. Mark Bakery","opening_hours":"Mo-Sa 09:00-21:30; Su10:00-21:00"},"geometry":{"type":"Point","coordinates":[121.569421,25.082159]}},{"type":"Feature","properties":{"id":"osm:node:7728572912","name":"台北御珍","category":"bakery"},"geometry":{"type":"Point","coordinates":[121.538181,25.05487]}},{"type":"Feature","properties":{"id":"osm:node:7731649053","name":"英布聚英式捲餅館","category":"bakery","name_en":"ENBRANCE"},"geometry":{"type":"Point","coordinates":[121.542799,25.054427]}},{"type":"Feature","properties":{"id":"osm:node:7734563457","name":"龍泰創意烘焙坊","category":"bakery"},"geometry":{"type":"Point","coordinates":[121.524682,25.036068]}},{"type":"Feature","properties":{"id":"osm:node:7749806977","name":"麥町吐司工房","category":"bakery"},"geometry":{"type":"Point","coordinates":[121.592262,25.086217]}},{"type":"Feature","properties":{"id":"osm:node:7794387066","name":"Manabu學堂洋菓子","category":"bakery","opening_hours":"Mo-Su 12:00-20:00"},"geometry":{"type":"Point","coordinates":[121.518002,25.034147]}},{"type":"Feature","properties":{"id":"osm:node:7798131024","name":"可口坊","category":"bakery"},"geometry":{"type":"Point","coordinates":[121.520146,25.109803]}},{"type":"Feature","properties":{"id":"osm:node:7798131026","name":"手麥彷","category":"bakery"},"geometry":{"type":"Point","coordinates":[121.510903,25.114893]}},{"type":"Feature","properties":{"id":"osm:node:7815426583","name":"阿默蛋糕","category":"bakery"},"geometry":{"type":"Point","coordinates":[121.517007,25.048026]}},{"type":"Feature","properties":{"id":"osm:node:7815510888","name":"福利麵包","category":"bakery","name_en":"Florida Bakery","brand":"福利麵包"},"geometry":{"type":"Point","coordinates":[121.517371,25.04799]}},{"type":"Feature","properties":{"id":"osm:node:7815510889","name":"順成蛋糕","category":"bakery","name_en":"Shun Chen Bakery","brand":"順成蛋糕"},"geometry":{"type":"Point","coordinates":[121.517248,25.047995]}},{"type":"Feature","properties":{"id":"osm:node:7815510897","name":"查理布朗","category":"bakery"},"geometry":{"type":"Point","coordinates":[121.517084,25.048062]}},{"type":"Feature","properties":{"id":"osm:node:7820702458","name":"禾田屋","category":"bakery"},"geometry":{"type":"Point","coordinates":[121.500155,25.0616]}},{"type":"Feature","properties":{"id":"osm:node:7820702530","name":"幸福屋","category":"bakery"},"geometry":{"type":"Point","coordinates":[121.461609,25.088901]}},{"type":"Feature","properties":{"id":"osm:node:7836876536","name":"悄悄好食","category":"bakery"},"geometry":{"type":"Point","coordinates":[121.527245,25.043184]}},{"type":"Feature","properties":{"id":"osm:node:7849377518","name":"Semeur聖娜","category":"bakery","name_en":"Semeur","brand":"Semeur聖娜","opening_hours":"Mo-Su 10:00-22:00"},"geometry":{"type":"Point","coordinates":[121.606126,25.052713]}},{"type":"Feature","properties":{"id":"osm:node:7911265785","name":"合興1947","category":"bakery","name_en":"How Hsing 1947"},"geometry":{"type":"Point","coordinates":[121.509478,25.059854]}},{"type":"Feature","properties":{"id":"osm:node:8018096082","name":"驊珍食品","category":"bakery","opening_hours":"Mo-Su 09:00-22:00"},"geometry":{"type":"Point","coordinates":[121.476624,25.016921]}},{"type":"Feature","properties":{"id":"osm:node:8043890886","name":"饗巷空間","category":"bakery"},"geometry":{"type":"Point","coordinates":[121.507168,25.000093]}},{"type":"Feature","properties":{"id":"osm:node:8142144094","name":"晶晶歐式麵包","category":"bakery"},"geometry":{"type":"Point","coordinates":[121.460567,25.015478]}},{"type":"Feature","properties":{"id":"osm:node:8224151317","name":"陳耀訓麵包埠","category":"bakery"},"geometry":{"type":"Point","coordinates":[121.548783,25.059446]}},{"type":"Feature","properties":{"id":"osm:node:8327972139","name":"台北犁記倉庫","category":"bakery"},"geometry":{"type":"Point","coordinates":[121.533994,25.04856]}},{"type":"Feature","properties":{"id":"osm:node:8357411937","name":"馬可先生","category":"bakery","name_en":"Mr. Mark","brand":"馬可先生","opening_hours":"Mo-Sa 08:30-21:30; Su 10:00-21:00"},"geometry":{"type":"Point","coordinates":[121.473196,25.015273]}},{"type":"Feature","properties":{"id":"osm:node:8378684485","name":"Mum Mum Cake","category":"bakery"},"geometry":{"type":"Point","coordinates":[121.517791,25.049065]}},{"type":"Feature","properties":{"id":"osm:node:8383391848","name":"樂咖烘焙","category":"bakery"},"geometry":{"type":"Point","coordinates":[121.500105,25.128774]}},{"type":"Feature","properties":{"id":"osm:node:871331304","name":"Grain Mils","category":"bakery"},"geometry":{"type":"Point","coordinates":[121.633042,25.069637]}},{"type":"Feature","properties":{"id":"osm:node:8714245217","name":"法朋烘焙","category":"bakery"},"geometry":{"type":"Point","coordinates":[121.553829,25.036377]}},{"type":"Feature","properties":{"id":"osm:node:8767352219","name":"溫歌勒烘培工房","category":"bakery"},"geometry":{"type":"Point","coordinates":[121.473534,25.029243]}},{"type":"Feature","properties":{"id":"osm:node:8788227653","name":"新珍香餅舖","category":"bakery","opening_hours":"Mo-Su 08:00-22:00"},"geometry":{"type":"Point","coordinates":[121.477609,25.017453]}},{"type":"Feature","properties":{"id":"osm:node:8823518485","name":"柏菲菠蘿","category":"bakery"},"geometry":{"type":"Point","coordinates":[121.479042,25.018821]}},{"type":"Feature","properties":{"id":"osm:node:8823518500","name":"東北大餅","category":"bakery"},"geometry":{"type":"Point","coordinates":[121.47907,25.018411]}},{"type":"Feature","properties":{"id":"osm:node:8834894914","name":"小斯美手感烘焙","category":"bakery"},"geometry":{"type":"Point","coordinates":[121.473945,25.018018]}},{"type":"Feature","properties":{"id":"osm:node:903974909","name":"喜多麵包","category":"bakery"},"geometry":{"type":"Point","coordinates":[121.631001,25.070961]}},{"type":"Feature","properties":{"id":"osm:node:903974910","name":"Holland Bakery","category":"bakery"},"geometry":{"type":"Point","coordinates":[121.631409,25.070996]}},{"type":"Feature","properties":{"id":"osm:node:9054267432","name":"明星西點","category":"bakery","name_en":"Café Astoria","opening_hours":"Mo-Su 10:00-20:00"},"geometry":{"type":"Point","coordinates":[121.512708,25.044154]}},{"type":"Feature","properties":{"id":"osm:node:9063577978","name":"聖瑪莉","category":"bakery","name_en":"Sunmerry","brand":"聖瑪莉","opening_hours":"Mo-Su 10:00-21:30"},"geometry":{"type":"Point","coordinates":[121.607135,25.052897]}},{"type":"Feature","properties":{"id":"osm:node:9168955907","name":"一之軒","category":"bakery","name_en":"Ijysheng","brand":"一之軒","opening_hours":"Mo-Su 07:00-22:00"},"geometry":{"type":"Point","coordinates":[121.509019,25.042254]}},{"type":"Feature","properties":{"id":"osm:node:9217477513","name":"Gontran Cherrier","category":"bakery","opening_hours":"Mo-Su 08:30-19:30"},"geometry":{"type":"Point","coordinates":[121.555164,25.041584]}},{"type":"Feature","properties":{"id":"osm:node:9217479083","name":"麵包樹 復合式麵包店","category":"bakery","opening_hours":"Mo-Su 07:00-20:30"},"geometry":{"type":"Point","coordinates":[121.551859,25.039768]}},{"type":"Feature","properties":{"id":"osm:node:9217498013","name":"平嚐心","category":"bakery","name_en":"take it easy bakery","opening_hours":"Mo-Su 07:00-22:00"},"geometry":{"type":"Point","coordinates":[121.556469,25.041138]}},{"type":"Feature","properties":{"id":"osm:node:9217501545","name":"樂田麵包屋","category":"bakery","opening_hours":"Mo-Su 07:00-22:00"},"geometry":{"type":"Point","coordinates":[121.556941,25.040992]}},{"type":"Feature","properties":{"id":"osm:node:9217517723","name":"順成蛋糕","category":"bakery","name_en":"Shun Chen Bakery","brand":"順成蛋糕","opening_hours":"Mo-Su 07:30-22:00"},"geometry":{"type":"Point","coordinates":[121.557252,25.041131]}},{"type":"Feature","properties":{"id":"osm:node:9217522238","name":"頂級法式手工喜餅","category":"bakery","name_en":"OOH LA LOVE","opening_hours":"Mo-Su 13:00-20:00"},"geometry":{"type":"Point","coordinates":[121.553573,25.039299]}},{"type":"Feature","properties":{"id":"osm:node:9217530580","name":"福利麵包食品有限公司-仁愛店","category":"bakery","name_en":"I-Mei","opening_hours":"Mo-Su 06:30-22:00"},"geometry":{"type":"Point","coordinates":[121.546217,25.037612]}},{"type":"Feature","properties":{"id":"osm:node:9217536924","name":"zee bakery","category":"bakery"},"geometry":{"type":"Point","coordinates":[121.551651,25.040055]}},{"type":"Feature","properties":{"id":"osm:node:9222869786","name":"一之軒","category":"bakery","name_en":"Ijysheng","brand":"一之軒","opening_hours":"Mo-Fr 07:00-21:30; Sa-Su 08:00-21:30"},"geometry":{"type":"Point","coordinates":[121.519996,25.052893]}},{"type":"Feature","properties":{"id":"osm:node:9229363434","name":"馬可先生","category":"bakery","name_en":"Mr. Mark","brand":"馬可先生"},"geometry":{"type":"Point","coordinates":[121.464619,25.002673]}},{"type":"Feature","properties":{"id":"osm:node:9249920786","name":"禾果園食品坊","category":"bakery"},"geometry":{"type":"Point","coordinates":[121.530778,25.040577]}},{"type":"Feature","properties":{"id":"osm:node:9259374767","name":"万丹紅豆餅","category":"bakery","opening_hours":"Mo-Sa 09:00-19:00"},"geometry":{"type":"Point","coordinates":[121.519574,25.012032]}},{"type":"Feature","properties":{"id":"osm:node:9336799063","name":"葛胖手作麵包坊","category":"bakery"},"geometry":{"type":"Point","coordinates":[121.550464,24.987652]}},{"type":"Feature","properties":{"id":"osm:node:9406636754","name":"奇華餅家","category":"bakery","opening_hours":"Mo-Su 00:00-20:00"},"geometry":{"type":"Point","coordinates":[121.523168,25.061386]}},{"type":"Feature","properties":{"id":"osm:node:9413227036","name":"君城本家","category":"bakery"},"geometry":{"type":"Point","coordinates":[121.491176,25.084328]}},{"type":"Feature","properties":{"id":"osm:node:9425960740","name":"羅撒蛋糕","category":"bakery"},"geometry":{"type":"Point","coordinates":[121.490568,25.063012]}},{"type":"Feature","properties":{"id":"osm:node:9427849338","name":"樂田麵包屋","category":"bakery","name_en":"GAKUDEN","brand":"樂田麵包屋"},"geometry":{"type":"Point","coordinates":[121.519581,25.062589]}},{"type":"Feature","properties":{"id":"osm:node:9429893505","name":"金格食品","category":"bakery"},"geometry":{"type":"Point","coordinates":[121.497396,25.064343]}},{"type":"Feature","properties":{"id":"osm:node:9434112561","name":"Elitfun","category":"bakery","opening_hours":"Mo-Sa 11:00-19:30; Su off"},"geometry":{"type":"Point","coordinates":[121.521762,25.050667]}},{"type":"Feature","properties":{"id":"osm:node:9443935735","name":"路歐利","category":"bakery"},"geometry":{"type":"Point","coordinates":[121.479654,25.086569]}},{"type":"Feature","properties":{"id":"osm:node:9494493061","name":"樂派菓舖","category":"bakery"},"geometry":{"type":"Point","coordinates":[121.479309,25.084222]}},{"type":"Feature","properties":{"id":"osm:node:9522095344","name":"協珍餅店","category":"bakery"},"geometry":{"type":"Point","coordinates":[121.495115,25.061334]}},{"type":"Feature","properties":{"id":"osm:node:9522095345","name":"小鳥吃吐司","category":"bakery"},"geometry":{"type":"Point","coordinates":[121.495472,25.061692]}},{"type":"Feature","properties":{"id":"osm:node:9682743650","name":"歐米樂烘焙坊","category":"bakery"},"geometry":{"type":"Point","coordinates":[121.47956,25.087781]}},{"type":"Feature","properties":{"id":"osm:node:9702308168","name":"可亭西點麵包","category":"bakery"},"geometry":{"type":"Point","coordinates":[121.589754,25.085941]}},{"type":"Feature","properties":{"id":"osm:node:9708736630","name":"凱樂烘培","category":"bakery"},"geometry":{"type":"Point","coordinates":[121.515645,25.01206]}},{"type":"Feature","properties":{"id":"osm:node:9713635817","name":"小紅莓烘培屋","category":"bakery"},"geometry":{"type":"Point","coordinates":[121.498923,25.035412]}},{"type":"Feature","properties":{"id":"osm:node:9717863361","name":"金格食品","category":"bakery"},"geometry":{"type":"Point","coordinates":[121.506401,25.035086]}},{"type":"Feature","properties":{"id":"osm:node:9727645504","name":"泰安蛋糕","category":"bakery"},"geometry":{"type":"Point","coordinates":[121.478801,25.013007]}},{"type":"Feature","properties":{"id":"osm:node:9741462042","name":"馥漫麵包花園","category":"bakery"},"geometry":{"type":"Point","coordinates":[121.508292,24.99926]}},{"type":"Feature","properties":{"id":"osm:node:9744950790","name":"阿澎手感烘培","category":"bakery"},"geometry":{"type":"Point","coordinates":[121.477334,25.030708]}},{"type":"Feature","properties":{"id":"osm:node:9768711998","name":"新竹光復饅頭店","category":"bakery"},"geometry":{"type":"Point","coordinates":[121.563893,24.988798]}},{"type":"Feature","properties":{"id":"osm:node:9776303089","name":"風和家","category":"bakery"},"geometry":{"type":"Point","coordinates":[121.53951,24.97291]}},{"type":"Feature","properties":{"id":"osm:node:9780825184","name":"四平頂級手工饅頭","category":"bakery","name_en":"The Bread"},"geometry":{"type":"Point","coordinates":[121.522599,25.064449]}},{"type":"Feature","properties":{"id":"osm:node:9871724389","name":"舒麥爾","category":"bakery"},"geometry":{"type":"Point","coordinates":[121.453588,24.986158]}},{"type":"Feature","properties":{"id":"osm:node:9906890908","name":"安徒生精緻烘培","category":"bakery"},"geometry":{"type":"Point","coordinates":[121.510337,25.044357]}},{"type":"Feature","properties":{"id":"osm:node:9957526444","name":"越南法國麵包","category":"bakery"},"geometry":{"type":"Point","coordinates":[121.49767,25.035509]}},{"type":"Feature","properties":{"id":"osm:node:9965180049","name":"馬可先生","category":"bakery","name_en":"Mr. Mark","brand":"馬可先生"},"geometry":{"type":"Point","coordinates":[121.5208,25.029664]}},{"type":"Feature","properties":{"id":"osm:node:9975466723","name":"德多屋","category":"bakery"},"geometry":{"type":"Point","coordinates":[121.473172,25.029053]}},{"type":"Feature","properties":{"id":"osm:node:9979215687","name":"就是要玩蛋糕","category":"bakery"},"geometry":{"type":"Point","coordinates":[121.539166,25.042401]}},{"type":"Feature","properties":{"id":"osm:way:1495609846","name":"里洋烘焙坊","category":"bakery"},"geometry":{"type":"Point","coordinates":[121.540234,25.018191]}},{"type":"Feature","properties":{"id":"osm:way:1540007771","name":"哈肯舖","category":"bakery"},"geometry":{"type":"Point","coordinates":[121.528695,25.020283]}},{"type":"Feature","properties":{"id":"osm:way:1540212466","name":"Mister Donut","category":"bakery","name_en":"Mister Donut","cuisine":"donut","brand":"Mister Donut"},"geometry":{"type":"Point","coordinates":[121.523152,25.026022]}},{"type":"Feature","properties":{"id":"osm:way:1543002873","name":"樂田麵包屋","category":"bakery","name_en":"GAKUDEN","brand":"樂田麵包屋"},"geometry":{"type":"Point","coordinates":[121.518088,25.03283]}},{"type":"Feature","properties":{"id":"osm:way:437558089","name":"順成蛋糕","category":"bakery","name_en":"Shun Chen Bakery","brand":"順成蛋糕"},"geometry":{"type":"Point","coordinates":[121.520951,25.057491]}},{"type":"Feature","properties":{"id":"osm:way:541455208","name":"Boîte à bijoux","category":"bakery"},"geometry":{"type":"Point","coordinates":[121.56246,25.029877]}},{"type":"Feature","properties":{"id":"osm:way:764307726","name":"馬可先生","category":"bakery","name_en":"Mr. Mark","brand":"馬可先生"},"geometry":{"type":"Point","coordinates":[121.513564,25.073668]}}]}