{"type":"FeatureCollection","features":[{"type":"Feature","properties":{"id":"osm:node:10037504977","name":"LJ1991餐酒吧","category":"bar"},"geometry":{"type":"Point","coordinates":[121.490652,25.053495]}},{"type":"Feature","properties":{"id":"osm:node:10080204915","name":"kunumi","category":"bar","address":"台北市中山區林森北路159巷18號"},"geometry":{"type":"Point","coordinates":[121.525934,25.051581]}},{"type":"Feature","properties":{"id":"osm:node:10080204916","name":"La Bamba","category":"bar","address":"台北市中山區林森北路159巷20號"},"geometry":{"type":"Point","coordinates":[121.525988,25.05157]}},{"type":"Feature","properties":{"id":"osm:node:10080205717","name":"Lavader","category":"bar","address":"台北市中山區林森北路159巷24號"},"geometry":{"type":"Point","coordinates":[121.526055,25.051545]}},{"type":"Feature","properties":{"id":"osm:node:10080205718","name":"Maya","category":"bar","address":"台北市中山區林森北路159巷26號"},"geometry":{"type":"Point","coordinates":[121.526116,25.051539]}},{"type":"Feature","properties":{"id":"osm:node:10080205719","name":"綜合","category":"bar","address":"台北市中山區林森北路159巷26號"},"geometry":{"type":"Point","coordinates":[121.526185,25.051524]}},{"type":"Feature","properties":{"id":"osm:node:10080205721","name":"花椿","category":"bar","address":"台北市中山區林森北路159巷32號"},"geometry":{"type":"Point","coordinates":[121.526316,25.051484]}},{"type":"Feature","properties":{"id":"osm:node:10080205723","name":"Shamu Neko","category":"bar","address":"台北市中山區林森北路159巷42號"},"geometry":{"type":"Point","coordinates":[121.526553,25.051429]}},{"type":"Feature","properties":{"id":"osm:node:10080205724","name":"cinbamon","category":"bar","address":"台北市中山區林森北路159巷44號"},"geometry":{"type":"Point","coordinates":[121.526626,25.051405]}},{"type":"Feature","properties":{"id":"osm:node:10080205727","name":"酒魅鑞","category":"bar","address":"台北市中山區林森北路159巷12號"},"geometry":{"type":"Point","coordinates":[121.525712,25.051645]}},{"type":"Feature","properties":{"id":"osm:node:10080205728","name":"Déjà vu","category":"bar","address":"台北市中山區林森北路159巷8號"},"geometry":{"type":"Point","coordinates":[121.525629,25.051666]}},{"type":"Feature","properties":{"id":"osm:node:10226914045","name":"銀波 Silver Lining","category":"bar"},"geometry":{"type":"Point","coordinates":[121.550464,25.024884]}},{"type":"Feature","properties":{"id":"osm:node:10255244173","name":"享自由餐酒館","category":"bar","opening_hours":"Tu-Su 18:00-02:00"},"geometry":{"type":"Point","coordinates":[121.66011,25.06744]}},{"type":"Feature","properties":{"id":"osm:node:10261652420","name":"梨渦","category":"bar"},"geometry":{"type":"Point","coordinates":[121.593244,25.084401]}},{"type":"Feature","properties":{"id":"osm:node:10687363053","name":"BN Inn 酒坊","category":"bar"},"geometry":{"type":"Point","coordinates":[121.549294,25.045367]}},{"type":"Feature","properties":{"id":"osm:node:10718421238","name":"Continue? Gaming Bar","category":"bar"},"geometry":{"type":"Point","coordinates":[121.533159,25.046201]}},{"type":"Feature","properties":{"id":"osm:node:10740725005","name":"INGE'S Bar & Grill 台北萬豪酒店","category":"bar","address":"10462臺北市中山區樂群二路199號二十樓"},"geometry":{"type":"Point","coordinates":[121.55958,25.080415]}},{"type":"Feature","properties":{"id":"osm:node:11215628861","name":"吉姆老爹","category":"bar","nameEn":"Jim & Dad's","address":"103005臺北市大同區延平北路二段4號"},"geometry":{"type":"Point","coordinates":[121.511674,25.054061]}},{"type":"Feature","properties":{"id":"osm:node:11254253986","name":"參號五金行","category":"bar"},"geometry":{"type":"Point","coordinates":[121.517972,25.055477]}},{"type":"Feature","properties":{"id":"osm:node:11254902037","name":"F Gallery by A Train","category":"bar"},"geometry":{"type":"Point","coordinates":[121.545575,25.051632]}},{"type":"Feature","properties":{"id":"osm:node:11271183163","name":"言吧","category":"bar","nameEn":"Yesterday Is Not Today","opening_hours":"Sun,Tue-Thu 19:00-0:00 / Fri,Sat 19:00-02:00","address":"11070臺北市信義區基隆路一段182號1, B1樓"},"geometry":{"type":"Point","coordinates":[121.564803,25.042248]}},{"type":"Feature","properties":{"id":"osm:node:11294010650","name":"MMO Craft Beer","category":"bar","opening_hours":"Mo, We, Th, Su 16:00-00:00; Fr, Sa 16:00-01:00","address":"臺北市大安區光復南路330號","phone":"+886-2-2776-6360"},"geometry":{"type":"Point","coordinates":[121.556892,25.038477]}},{"type":"Feature","properties":{"id":"osm:node:11294016887","name":"BeerCat","category":"bar","address":"臺北市中山區長安西路8號","phone":"+886 2 2558 1518"},"geometry":{"type":"Point","coordinates":[121.52114,25.049848]}},{"type":"Feature","properties":{"id":"osm:node:11294026824","name":"Far Yeast Craftbeer","category":"bar","opening_hours":"Mo-Su 15:30-00:00","address":"臺北市大安區光復南路322號","phone":"+886-2-2776-2877","website":"https://faryeast.com/en/bar/taiwan-craftbeer-gastropub/"},"geometry":{"type":"Point","coordinates":[121.55678,25.038634]}},{"type":"Feature","properties":{"id":"osm:node:11294029206","name":"Time Beer","category":"bar","opening_hours":"Mo-Su 16:30-23:30","address":"臺北市松山區饒河街136號"},"geometry":{"type":"Point","coordinates":[121.575167,25.050393]}},{"type":"Feature","properties":{"id":"osm:node:11294039991","name":"Crafted","category":"bar","opening_hours":"Tu-Fr 16:00-23:30; Sa 12:00-23:30; Su 12:00-21:30","address":"臺北市中山區玉門街1號","phone":"+886-2-2598-7415","website":"https://crafted.tw/"},"geometry":{"type":"Point","coordinates":[121.521986,25.069599]}},{"type":"Feature","properties":{"id":"osm:node:11299185770","name":"Chance Bar","category":"bar"},"geometry":{"type":"Point","coordinates":[121.506722,25.043127]}},{"type":"Feature","properties":{"id":"osm:node:11309203723","name":"The Malt","category":"bar"},"geometry":{"type":"Point","coordinates":[121.541439,25.043046]}},{"type":"Feature","properties":{"id":"osm:node:11311415373","name":"Sipsip","category":"bar","opening_hours":"Su-Th 12:00-22:00; Fr-Sa 12:00-01:30"},"geometry":{"type":"Point","coordinates":[121.529164,25.044798]}},{"type":"Feature","properties":{"id":"osm:node:11494598369","name":"恬娃會館","category":"bar","address":"104臺北市中山區正義里10鄰林森北路119巷7號","website":"https://www.facebook.com/tianwan99991?mibextid=lqqj4d"},"geometry":{"type":"Point","coordinates":[121.525473,25.050685]}},{"type":"Feature","properties":{"id":"osm:node:11494598469","name":"Live Music.Jazz bar","category":"bar","nameEn":"Live Music, Jazz Bar"},"geometry":{"type":"Point","coordinates":[121.523657,25.050556]}},{"type":"Feature","properties":{"id":"osm:node:11503478665","name":"小店","category":"bar"},"geometry":{"type":"Point","coordinates":[121.471856,25.027629]}},{"type":"Feature","properties":{"id":"osm:node:11510559039","name":"9% 酒趴串燒","category":"bar"},"geometry":{"type":"Point","coordinates":[121.47283,25.030835]}},{"type":"Feature","properties":{"id":"osm:node:11559675944","name":"二丁目","category":"bar","address":"100005臺北市中正區中華路一段29之1號3樓"},"geometry":{"type":"Point","coordinates":[121.50973,25.045767]}},{"type":"Feature","properties":{"id":"osm:node:11981499267","name":"45 Old Bar & Coffee Pub","category":"bar"},"geometry":{"type":"Point","coordinates":[121.535437,25.013366]}},{"type":"Feature","properties":{"id":"osm:node:11983086066","name":"酒聚","category":"bar"},"geometry":{"type":"Point","coordinates":[121.505304,24.994257]}},{"type":"Feature","properties":{"id":"osm:node:12025166855","name":"one million bar","category":"bar"},"geometry":{"type":"Point","coordinates":[121.534794,25.013502]}},{"type":"Feature","properties":{"id":"osm:node:12059451205","name":"富女公司","category":"bar"},"geometry":{"type":"Point","coordinates":[121.531547,25.048923]}},{"type":"Feature","properties":{"id":"osm:node:12091725966","name":"BAR ECHO","category":"bar","wheelchair":"no"},"geometry":{"type":"Point","coordinates":[121.523106,25.05165]}},{"type":"Feature","properties":{"id":"osm:node:12142984490","name":"The Color Shisha Bar","category":"bar","opening_hours":"Su-Th 18:00-02:00; Fr-Sa 18:00-03:00","address":"臺北市大安區敦化南路一段161巷69弄2號一樓"},"geometry":{"type":"Point","coordinates":[121.55237,25.043726]}},{"type":"Feature","properties":{"id":"osm:node:12210044392","name":"Sidebar","category":"bar","opening_hours":"Su-Th 18:00-01:00; Fr-Sa 18:00-02:00","address":"106臺北市大安區通化里2鄰文昌街275號四樓"},"geometry":{"type":"Point","coordinates":[121.556082,25.032331]}},{"type":"Feature","properties":{"id":"osm:node:12297186986","name":"HANKO 60 如醉如夢","category":"bar"},"geometry":{"type":"Point","coordinates":[121.50523,25.045912]}},{"type":"Feature","properties":{"id":"osm:node:12419468101","name":"一千零一夜","category":"bar","nameEn":"1001 Nights Taipei","opening_hours":"Fr-Sa 21:00-06:00; Su, We-Th 21:00-04:00","address":"105臺北市松山區南京東路五段8號二樓"},"geometry":{"type":"Point","coordinates":[121.55832,25.051301]}},{"type":"Feature","properties":{"id":"osm:node:12446877955","name":"CINE Teppan bistro","category":"bar"},"geometry":{"type":"Point","coordinates":[121.508225,25.044342]}},{"type":"Feature","properties":{"id":"osm:node:12517900419","name":"OriginBAR 源","category":"bar"},"geometry":{"type":"Point","coordinates":[121.556308,25.052119]}},{"type":"Feature","properties":{"id":"osm:node:12518328455","name":"Old Brick","category":"bar","address":"臺北市大安區No. 24號, Section 2, Anhe Rd, Da’an District, Taipei City, Ταϊβάν 10624號"},"geometry":{"type":"Point","coordinates":[121.552259,25.031985]}},{"type":"Feature","properties":{"id":"osm:node:12521906301","name":"NOMOU SAKEBAR 飲もう日本酒吧","category":"bar","opening_hours":"Mo-Su 17:00-00:00","address":"104臺北市中山區農安街125巷2號2","phone":"+886 2 2597 8790"},"geometry":{"type":"Point","coordinates":[121.527068,25.064492]}},{"type":"Feature","properties":{"id":"osm:node:12643644161","name":"Banker Martini bar","category":"bar"},"geometry":{"type":"Point","coordinates":[121.552328,25.036556]}},{"type":"Feature","properties":{"id":"osm:node:12662973801","name":"發琴吧","category":"bar","nameEn":"Ginspiration"},"geometry":{"type":"Point","coordinates":[121.509898,25.055788]}},{"type":"Feature","properties":{"id":"osm:node:12745981606","name":"tei by OBOND","category":"bar","address":"110臺北市信義區光復南路553號"},"geometry":{"type":"Point","coordinates":[121.557617,25.031342]}},{"type":"Feature","properties":{"id":"osm:node:12814322858","name":"My Other Place","category":"bar","address":"臺北市松山區復興北路303號","website":"https://www.facebook.com/myotherplacetaipei/"},"geometry":{"type":"Point","coordinates":[121.544417,25.058299]}},{"type":"Feature","properties":{"id":"osm:node:12833738539","name":"酌友氏","category":"bar","nameEn":"Kye's Liquors","address":"臺北市松山區復興北路229號","website":"https://www.kyesliquors.com.tw/"},"geometry":{"type":"Point","coordinates":[121.544437,25.056907]}},{"type":"Feature","properties":{"id":"osm:node:12894669440","name":"Two Shots","category":"bar","address":"106臺北市大安區古莊里2鄰和平東路一段8號"},"geometry":{"type":"Point","coordinates":[121.523215,25.026845]}},{"type":"Feature","properties":{"id":"osm:node:13086556091","name":"掌門精釀啤酒","category":"bar","opening_hours":"Mo-Su 17:30-00:00","address":"114臺北市內湖區寶湖里23鄰民權東路六段189之3號"},"geometry":{"type":"Point","coordinates":[121.597545,25.067843]}},{"type":"Feature","properties":{"id":"osm:node:13134450086","name":"Single&Double","category":"bar","address":"116台北市文山區指南路一段29號","website":"https://www.instagram.com/p/C7_uuG5B6s0/?igsh=YXJ1YTMzbWh2YmQ2"},"geometry":{"type":"Point","coordinates":[121.569749,24.987732]}},{"type":"Feature","properties":{"id":"osm:node:13149266015","name":"FakeSober","category":"bar"},"geometry":{"type":"Point","coordinates":[121.567368,25.035001]}},{"type":"Feature","properties":{"id":"osm:node:13315727598","name":"Sappho Live Jazz","category":"bar","address":"10451台北市中山區林森北路500號","phone":"+886 2 2581 9874","website":"https://www.sappholive.com/"},"geometry":{"type":"Point","coordinates":[121.525427,25.061802]}},{"type":"Feature","properties":{"id":"osm:node:13343580248","name":"Imbibe","category":"bar"},"geometry":{"type":"Point","coordinates":[121.543281,25.044572]}},{"type":"Feature","properties":{"id":"osm:node:13368607001","name":"San Francisco Some Fun","category":"bar","opening_hours":"Mo-Th 12:00-03:00; Fr-Sa 12:00-04:00","address":"臺北市大安區忠孝東路四段49巷4弄2號"},"geometry":{"type":"Point","coordinates":[121.545317,25.042197]}},{"type":"Feature","properties":{"id":"osm:node:13371632794","name":"Nowhere Project","category":"bar","address":"106臺北市大安區德安里2鄰信義路四段107號","website":"https://www.instagram.com/nowhere__project/"},"geometry":{"type":"Point","coordinates":[121.547607,25.033491]}},{"type":"Feature","properties":{"id":"osm:node:13371632795","name":"Knock Knock Who's There?","category":"bar","address":"106臺北市大安區德安里2鄰信義路四段107之1號","website":"https://inline.app/booking/knockknock"},"geometry":{"type":"Point","coordinates":[121.547663,25.03349]}},{"type":"Feature","properties":{"id":"osm:node:13408715501","name":"PUN","category":"bar","opening_hours":"Mo-Su 18:30-01:30"},"geometry":{"type":"Point","coordinates":[121.555814,25.032552]}},{"type":"Feature","properties":{"id":"osm:node:13408715502","name":"Placebo Taipei 安慰劑小酒館","category":"bar","opening_hours":"Su-Th 20:00-03:00; Fr-Sa 20:00-02:00"},"geometry":{"type":"Point","coordinates":[121.557988,25.030073]}},{"type":"Feature","properties":{"id":"osm:node:13543688601","name":"Ximen Beer Bar","category":"bar"},"geometry":{"type":"Point","coordinates":[121.505123,25.045332]}},{"type":"Feature","properties":{"id":"osm:node:13546438701","name":"Stardust","category":"bar"},"geometry":{"type":"Point","coordinates":[121.505943,25.044441]}},{"type":"Feature","properties":{"id":"osm:node:13546576301","name":"獅鬥cdou bar","category":"bar"},"geometry":{"type":"Point","coordinates":[121.50348,25.043893]}},{"type":"Feature","properties":{"id":"osm:node:13610755758","name":"BLACKHAT Jazz Cafe & Bar","category":"bar","opening_hours":"Mo-Fr 12:00-24:00; Sa 18:00-24:00"},"geometry":{"type":"Point","coordinates":[121.511372,25.041784]}},{"type":"Feature","properties":{"id":"osm:node:13758820376","name":"Tipsy Sparrow","category":"bar"},"geometry":{"type":"Point","coordinates":[121.568023,25.03767]}},{"type":"Feature","properties":{"id":"osm:node:13789758801","name":"Do Bar 獨角落","category":"bar","address":"103臺北市大同區長安西路162號","phone":"+886 2 25580276"},"geometry":{"type":"Point","coordinates":[121.51635,25.050971]}},{"type":"Feature","properties":{"id":"osm:node:13895705679","name":"Lab","category":"bar","opening_hours":"Mo-Th, Su 18:00-01:00; Fr, Sa 18:00-02:00","address":"106臺北市大安區正聲里12鄰仁愛路四段409號四樓","website":"https://www.instagram.com/lab_tw/"},"geometry":{"type":"Point","coordinates":[121.555987,25.037995]}},{"type":"Feature","properties":{"id":"osm:node:14085543744","name":"Public Bear Taste Culture","category":"bar","address":"106臺北市大安區龍淵里2鄰復興南路二段324號"},"geometry":{"type":"Point","coordinates":[121.543218,25.023137]}},{"type":"Feature","properties":{"id":"osm:node:2459044535","name":"柏克金啤酒餐廳","category":"bar","nameEn":"Buckskin Beerhouse","address":"10457臺北市中山區南京東路二段1號","wheelchair":"yes"},"geometry":{"type":"Point","coordinates":[121.527923,25.052328]}},{"type":"Feature","properties":{"id":"osm:node:2723697628","name":"菸灰缸pub","category":"bar"},"geometry":{"type":"Point","coordinates":[121.460824,25.092686]}},{"type":"Feature","properties":{"id":"osm:node:2723699162","name":"亞烈航斯pub","category":"bar"},"geometry":{"type":"Point","coordinates":[121.455652,25.088054]}},{"type":"Feature","properties":{"id":"osm:node:2775768374","name":"綠洲信義","category":"bar","nameEn":"The Oasis Tavern Xinyi","address":"110臺北市信義區嘉興里3鄰基隆路二段117號"},"geometry":{"type":"Point","coordinates":[121.557094,25.028525]}},{"type":"Feature","properties":{"id":"osm:node:2943762795","name":"窖床音樂 Bar","category":"bar","address":"108台北市萬華區漢中街二段26號"},"geometry":{"type":"Point","coordinates":[121.507631,25.045221]}},{"type":"Feature","properties":{"id":"osm:node:3151325299","name":"窖父","category":"bar","nameEn":"Hideout","address":"臺北市中正區羅斯福路四段24巷13號","wheelchair":"yes"},"geometry":{"type":"Point","coordinates":[121.532528,25.015049]}},{"type":"Feature","properties":{"id":"osm:node:3154666300","name":"Wicked Wolfpack","category":"bar","address":"台北市士林區中山北路七段29號","website":"https://www.wickedwolfpack.com/"},"geometry":{"type":"Point","coordinates":[121.530506,25.119345]}},{"type":"Feature","properties":{"id":"osm:node:3225050608","name":"TABOO","category":"bar","opening_hours":"We 19:00-1:00; Fr-Sa 22:00-4:00","address":"104臺北市中山區建國北路二段90號","phone":"+886-2-2518-1119"},"geometry":{"type":"Point","coordinates":[121.536526,25.056568]}},{"type":"Feature","properties":{"id":"osm:node:3226282863","name":"L-World","category":"bar","opening_hours":"22:00-07:00","address":"台北市中山區林森北路107巷61號"},"geometry":{"type":"Point","coordinates":[121.527152,25.049934]}},{"type":"Feature","properties":{"id":"osm:node:3255254238","name":"王老先生有塊地單車酒吧","category":"bar","nameEn":"BeerBicycle Beer Bar","address":"108臺北市萬華區漢口街二段90巷8弄9號","phone":"+886 975551156","website":"http://www.beerbicycle.org/","wheelchair":"no"},"geometry":{"type":"Point","coordinates":[121.503995,25.045882]}},{"type":"Feature","properties":{"id":"osm:node:3278033042","name":"柏克金啤酒餐廳","category":"bar","nameEn":"Buckskin Beerhouse","opening_hours":"Su-Th 11:30-22:00; Fr-Sa 11:30-02:00","address":"110台北市信義區松仁路91號","phone":"+886 2 2758 3655","website":"https://www.buckskin.com.tw/"},"geometry":{"type":"Point","coordinates":[121.569284,25.037204]}},{"type":"Feature","properties":{"id":"osm:node:3307881908","name":"BOX Taipei","category":"bar","address":"106台北市大安區市民大道四段118號"},"geometry":{"type":"Point","coordinates":[121.551123,25.044348]}},{"type":"Feature","properties":{"id":"osm:node:3311796699","name":"ZEAL","category":"bar","opening_hours":"19:00 - 03:00","address":"106臺北市大安區忠孝東路四段181巷42號"},"geometry":{"type":"Point","coordinates":[121.550691,25.044169]}},{"type":"Feature","properties":{"id":"osm:node:3311796754","name":"関白酒場","category":"bar","opening_hours":"17:00 - 02:00","address":"106臺北市大安區忠孝東路四段181巷39號","website":"https://www.facebook.com/pages/%E9%96%A2%E7%99%BD%E9%85%92%E5%A0%B4-Afternoon-Tea-Grill-Bar/1446666215608544"},"geometry":{"type":"Point","coordinates":[121.550886,25.044294]}},{"type":"Feature","properties":{"id":"osm:node:3421626694","name":"絕色","category":"bar"},"geometry":{"type":"Point","coordinates":[121.532726,25.053369]}},{"type":"Feature","properties":{"id":"osm:node:3421626993","name":"名亨酒店","category":"bar"},"geometry":{"type":"Point","coordinates":[121.532734,25.05385]}},{"type":"Feature","properties":{"id":"osm:node:3448162405","name":"Digout","category":"bar","opening_hours":"08:00-02:00","address":"106臺北市大安區信義路四段307號","phone":"+886 227 035 775"},"geometry":{"type":"Point","coordinates":[121.5551,25.033366]}},{"type":"Feature","properties":{"id":"osm:node:3454018623","name":"J's Place 輕鬆小酒館","category":"bar","opening_hours":"Mo-Sa 18:00-02:00","address":"106臺北市大安區光復南路420巷27號","phone":"+886 227 044 548"},"geometry":{"type":"Point","coordinates":[121.555944,25.03635]}},{"type":"Feature","properties":{"id":"osm:node:3454018625","name":"Sappho Live","category":"bar","opening_hours":"Tu-Su 20:00-03:00","address":"106臺北市大安區安和路一段102巷1號","phone":"+886 227 005 411","website":"https://www.sappholive.com/"},"geometry":{"type":"Point","coordinates":[121.552148,25.034265]}},{"type":"Feature","properties":{"id":"osm:node:3533381894","name":"方馨酒坊","category":"bar"},"geometry":{"type":"Point","coordinates":[121.531633,25.053512]}},{"type":"Feature","properties":{"id":"osm:node:3649178926","name":"義大利女巫咖啡酒吧","category":"bar","address":"100臺北市中正區新生南路一段54巷10號"},"geometry":{"type":"Point","coordinates":[121.532262,25.041214]}},{"type":"Feature","properties":{"id":"osm:node:3670374290","name":"El Cielo","category":"bar","opening_hours":"Su-Th 18:00-02:00, Fr-Sa 18:00-03:00","address":"106臺北市大安區延吉街137巷26號","website":"https://www.facebook.com/ElCielo.Lounge"},"geometry":{"type":"Point","coordinates":[121.555341,25.041925]}},{"type":"Feature","properties":{"id":"osm:node:3670374301","name":"友達居酒屋","category":"bar","opening_hours":"Tu-Su 18:00-02:00","address":"106臺北市大安區延吉街131巷33號","website":"https://www.facebook.com/tomodachifamily/"},"geometry":{"type":"Point","coordinates":[121.555721,25.042887]}},{"type":"Feature","properties":{"id":"osm:node:3670374303","name":"和居酒屋","category":"bar","opening_hours":"Mo-Sa 11:30-14:00; 17:00-23:00","address":"106臺北市大安區延吉街131巷39號","website":"https://www.facebook.com/hoizagaya"},"geometry":{"type":"Point","coordinates":[121.555773,25.042907]}},{"type":"Feature","properties":{"id":"osm:node:3670374318","name":"武藏居食屋","category":"bar","opening_hours":"Su-Th 17:00-01:00, Fr-Sa 17:00-02:30","address":"106臺北市大安區延吉街131巷9號","website":"https://www.facebook.com/pages/%E6%AD%A6%E8%97%8F%E5%B1%85%E9%A3%9F%E5%B1%8B/174159182605016"},"geometry":{"type":"Point","coordinates":[121.554763,25.042715]}},{"type":"Feature","properties":{"id":"osm:node:3670390134","name":"菜鳥居酒屋","category":"bar","opening_hours":"18:00 - 00:00; Tu off","address":"106臺北市大安區延吉街131巷18號","website":"https://www.facebook.com/rookie.restaurant"},"geometry":{"type":"Point","coordinates":[121.555095,25.042672]}},{"type":"Feature","properties":{"id":"osm:node:3692994193","name":"Marsalis Home Taipei","category":"bar","opening_hours":"Su-Th 19:00-02:00; Fr-Sa 19:00-03:00","address":"110臺北市信義區松仁路90號","phone":"+886 287 898 166","website":"https://www.facebook.com/marsalishome"},"geometry":{"type":"Point","coordinates":[121.567747,25.03499]}},{"type":"Feature","properties":{"id":"osm:node:3723319538","name":"89 Loop","category":"bar","opening_hours":"07:00-27:00","address":"100臺北市中正區羅斯福路四段134號二樓","phone":"+886 2 2365 6597"},"geometry":{"type":"Point","coordinates":[121.535792,25.012929]}},{"type":"Feature","properties":{"id":"osm:node:3818946603","name":"The Pipe","category":"bar"},"geometry":{"type":"Point","coordinates":[121.529003,25.010648]}},{"type":"Feature","properties":{"id":"osm:node:3929888475","name":"Lucky Strike","category":"bar","opening_hours":"Mo-Su 17:00-25:00","address":"116台北市文山區羅斯福路六段223號","phone":"+886 966 831 209"},"geometry":{"type":"Point","coordinates":[121.541376,24.995733]}},{"type":"Feature","properties":{"id":"osm:node:3955430400","name":"角落酒吧The Corner One","category":"bar"},"geometry":{"type":"Point","coordinates":[121.561919,25.054238]}},{"type":"Feature","properties":{"id":"osm:node:4033360507","name":"藍區藝術巴","category":"bar","address":"116台北市文山區興隆路一段241號","phone":"+886 2 2934 0968"},"geometry":{"type":"Point","coordinates":[121.544047,24.99968]}},{"type":"Feature","properties":{"id":"osm:node:4034043338","name":"La Petite Chambre","category":"bar","opening_hours":"Su-Mo 18:30-23:30; Tu 20:00-23:30; We-Th 18:30-23:30; Fr-Sa 18:30-02:30","address":"106臺北市大安區四維路140號","phone":"+886 223 258 036","website":"https://www.facebook.com/pages/La-Petite-Chambre-%E5%B0%8F%E6%88%BF%E9%96%93/115323165298765"},"geometry":{"type":"Point","coordinates":[121.547926,25.031274]}},{"type":"Feature","properties":{"id":"osm:node:4096918908","name":"掌門精釀啤酒","category":"bar","nameEn":"Zhang Men Craft Brewery","opening_hours":"Mo-Th, Su 13:00-00:00; Fr, Sa 13:00-01:00","address":"台北市永康街4巷10號","phone":"+886-2-2395-2366","website":"https://www.zhangmen.co/"},"geometry":{"type":"Point","coordinates":[121.529514,25.032856]}},{"type":"Feature","properties":{"id":"osm:node:4109491421","name":"Taiwan Beer Bar","category":"bar"},"geometry":{"type":"Point","coordinates":[121.53487,25.045976]}},{"type":"Feature","properties":{"id":"osm:node:4149564842","name":"James Joyce Irish Bar","category":"bar","address":"100臺北市中正區羅斯福路三段278之1號","wheelchair":"no"},"geometry":{"type":"Point","coordinates":[121.532062,25.016584]}},{"type":"Feature","properties":{"id":"osm:node:4198179225","name":"Circle Bar","category":"bar","address":"台北市文山區羅斯福路五段31-1號"},"geometry":{"type":"Point","coordinates":[121.538726,25.007677]}},{"type":"Feature","properties":{"id":"osm:node:4205230078","name":"銅猴子","category":"bar","nameEn":"The Brass Monkey","address":"104台北市中山區復興北路166號"},"geometry":{"type":"Point","coordinates":[121.543824,25.053582]}},{"type":"Feature","properties":{"id":"osm:node:4207707330","name":"Another Brick","category":"bar","address":"100臺北市中正區辛亥路一段31號","phone":"+886-2-2365-2371","website":"https://www.facebook.com/AnotherBrickTaipei/"},"geometry":{"type":"Point","coordinates":[121.528336,25.019414]}},{"type":"Feature","properties":{"id":"osm:node:4255504790","name":"CIGAR GALLERY雪茄館","category":"bar","opening_hours":"Mo-Th 11:00-00:00; Fr-Sa 11:00-01:00","address":"松仁路"},"geometry":{"type":"Point","coordinates":[121.568005,25.035015]}},{"type":"Feature","properties":{"id":"osm:node:4298897595","name":"Cyntonia's Cafe & Bar","category":"bar","address":"104台北市中山區長安東路二段201巷19之2號","phone":"+886 2 2778 2180"},"geometry":{"type":"Point","coordinates":[121.543523,25.049392]}},{"type":"Feature","properties":{"id":"osm:node:4298941391","name":"鈞太酒藏","category":"bar","nameEn":"Domaine Wine Cellars","opening_hours":"Mo-Fr 10:00-25:00,Sa-Su 12:00-25:00","address":"臺北市大安區仁愛路四段383號B1","phone":"+886 2 2776 0066","website":"https://domaine.com.tw/"},"geometry":{"type":"Point","coordinates":[121.555146,25.038112]}},{"type":"Feature","properties":{"id":"osm:node:4344542404","name":"Ageha Bar","category":"bar"},"geometry":{"type":"Point","coordinates":[121.52718,25.050699]}},{"type":"Feature","properties":{"id":"osm:node:4344542445","name":"蕃居酒屋","category":"bar","address":"台北市中山區林森北路133巷76號"},"geometry":{"type":"Point","coordinates":[121.527238,25.050577]}},{"type":"Feature","properties":{"id":"osm:node:4375634592","name":"Fourplay Cuisine☆","category":"bar"},"geometry":{"type":"Point","coordinates":[121.547824,25.036145]}},{"type":"Feature","properties":{"id":"osm:node:4384259204","name":"米凱樂啤酒吧","category":"bar","nameEn":"Mikkeller","opening_hours":"Tu-Fr 16:00-24:00; Sa 14:00-24:00; Su 14:00-22:00","address":"103002臺北市大同區南京西路241號","phone":"+886 2 2558 6978","wheelchair":"no"},"geometry":{"type":"Point","coordinates":[121.510146,25.053676]}},{"type":"Feature","properties":{"id":"osm:node:4397679795","name":"二條通．綠島小夜曲","category":"bar","opening_hours":"Mo-Su 00:00-21:00","address":"104台北市中山區中山北路一段33巷1號","phone":"+886 2 2531 4594","website":"https://theisland.tw/"},"geometry":{"type":"Point","coordinates":[121.521559,25.048843]}},{"type":"Feature","properties":{"id":"osm:node:4430741591","name":"Funky Fresh Craft Beer","category":"bar","nameEn":"Funky Fresh Craft Beer","cuisine":"grill","opening_hours":"We-Mo 19:00-00:00","wheelchair":"no"},"geometry":{"type":"Point","coordinates":[121.524166,25.088792]}},{"type":"Feature","properties":{"id":"osm:node:4520685971","name":"Tapas Bar","category":"bar","opening_hours":"Mo-Su 17:00-23:00"},"geometry":{"type":"Point","coordinates":[121.519749,25.026403]}},{"type":"Feature","properties":{"id":"osm:node:4538270105","name":"Old Bridge","category":"bar","address":"116台北市文山區景美街158號"},"geometry":{"type":"Point","coordinates":[121.541478,24.988406]}},{"type":"Feature","properties":{"id":"osm:node:4538270110","name":"一起鬼混去","category":"bar","address":"116台北市文山區景美街102號"},"geometry":{"type":"Point","coordinates":[121.541421,24.989433]}},{"type":"Feature","properties":{"id":"osm:node:4612179003","name":"The garden","category":"bar","address":"108台北市萬華區成都路10號","phone":"+886 2 23110587","wheelchair":"yes"},"geometry":{"type":"Point","coordinates":[121.506676,25.041831]}},{"type":"Feature","properties":{"id":"osm:node:4637224946","name":"45 酒吧 Bar","category":"bar","address":"106臺北市大安區和平東路一段45號二樓","wheelchair":"no"},"geometry":{"type":"Point","coordinates":[121.524104,25.027154]}},{"type":"Feature","properties":{"id":"osm:node:4637537195","name":"Revolver","category":"bar","address":"100臺北市中正區羅斯福路一段1之1號","phone":"+886-2-3393-1678","website":"https://www.revolver.tw","wheelchair":"yes"},"geometry":{"type":"Point","coordinates":[121.517438,25.034266]}},{"type":"Feature","properties":{"id":"osm:node:4678624021","name":"Le Zinc 洛 Cafe & Bar","category":"bar","opening_hours":"Su-Tu 10:00-19:00; Tu-Sa 10:00-24:00","address":"10344台北市大同區民生西路362巷34號","phone":"+886 2 2552 1367 #16","website":"https://www.facebook.com/LeZincLo","wheelchair":"limited"},"geometry":{"type":"Point","coordinates":[121.510453,25.05596]}},{"type":"Feature","properties":{"id":"osm:node:4742463122","name":"The Oasis Tavern","category":"bar","address":"110臺北市信義區嘉興里3鄰基隆路二段113之2號"},"geometry":{"type":"Point","coordinates":[121.557168,25.028649]}},{"type":"Feature","properties":{"id":"osm:node:4754476721","name":"精釀吧在","category":"bar","nameEn":"23 Public","address":"臺北市大安區復興南路二段332號"},"geometry":{"type":"Point","coordinates":[121.543218,25.023209]}},{"type":"Feature","properties":{"id":"osm:node:4891507121","name":"1978壹酒柒吧燒烤海鮮酒吧","category":"bar","address":"105台北市松山區市民大道四段179號"},"geometry":{"type":"Point","coordinates":[121.551862,25.044742]}},{"type":"Feature","properties":{"id":"osm:node:4922600921","name":"麵屋壹慶","category":"bar"},"geometry":{"type":"Point","coordinates":[121.524365,25.066147]}},{"type":"Feature","properties":{"id":"osm:node:5109347813","name":"23 Public","category":"bar","address":"106台北市大安區辛亥路一段100號","wheelchair":"no"},"geometry":{"type":"Point","coordinates":[121.531849,25.021399]}},{"type":"Feature","properties":{"id":"osm:node:5110348188","name":"mousse","category":"bar"},"geometry":{"type":"Point","coordinates":[121.557611,25.030166]}},{"type":"Feature","properties":{"id":"osm:node:5110348774","name":"The Speakeasy Bar","category":"bar","address":"106臺北市大安區光復南路554號"},"geometry":{"type":"Point","coordinates":[121.557254,25.034562]}},{"type":"Feature","properties":{"id":"osm:node:5110490223","name":"啤酒調酒","category":"bar","nameEn":"DRIFTWOOD"},"geometry":{"type":"Point","coordinates":[121.505527,25.046805]}},{"type":"Feature","properties":{"id":"osm:node:5110490233","name":"Commander","category":"bar","wheelchair":"limited"},"geometry":{"type":"Point","coordinates":[121.507835,25.046165]}},{"type":"Feature","properties":{"id":"osm:node:5123592885","name":"7th Japanese Bar","category":"bar","wheelchair":"no"},"geometry":{"type":"Point","coordinates":[121.526523,25.050465]}},{"type":"Feature","properties":{"id":"osm:node:5136596723","name":"三重奏比特司","category":"bar","nameEn":"Trio Bitter","address":"100台北市忠孝東路二段64巷4號","phone":"+886 2 2358 4988"},"geometry":{"type":"Point","coordinates":[121.52857,25.042993]}},{"type":"Feature","properties":{"id":"osm:node:5149270078","name":"軍火庫精釀啤酒","category":"bar"},"geometry":{"type":"Point","coordinates":[121.515682,25.053906]}},{"type":"Feature","properties":{"id":"osm:node:5174460921","name":"隱寺餐酒館","category":"bar","nameEn":"The Temple Bistro","cuisine":"tapas","opening_hours":"Tu-Th 19:00-02:00; Fr-Sa 19:00-03:00; Su 18:30-00:30","address":"110臺北市信義區中興里6鄰嘉興街36號","website":"https://r-d.tw/"},"geometry":{"type":"Point","coordinates":[121.558072,25.031668]}},{"type":"Feature","properties":{"id":"osm:node:5197947430","name":"東海萊姆園organic lime","category":"bar","wheelchair":"yes"},"geometry":{"type":"Point","coordinates":[121.529437,25.118529]}},{"type":"Feature","properties":{"id":"osm:node:5324659748","name":"MUD","category":"bar","opening_hours":"Tu-Sa 19:00-02:00; Sa 19:00-:00:00","address":"10412臺北市中山區中山北路二段57-1號B1樓"},"geometry":{"type":"Point","coordinates":[121.52299,25.055735]}},{"type":"Feature","properties":{"id":"osm:node:5336034221","name":"搖滾熱炒100","category":"bar","cuisine":"seafood;chinese;local;fish","opening_hours":"Mo-Su 11:00-14:00, 17:00-22:00"},"geometry":{"type":"Point","coordinates":[121.55256,25.040721]}},{"type":"Feature","properties":{"id":"osm:node:5464751723","name":"余韻","category":"bar"},"geometry":{"type":"Point","coordinates":[121.545306,25.046057]}},{"type":"Feature","properties":{"id":"osm:node:5480864321","name":"Frank","category":"bar"},"geometry":{"type":"Point","coordinates":[121.566028,25.03566]}},{"type":"Feature","properties":{"id":"osm:node:5544090025","name":"Alchemy","category":"bar","nameEn":"Alchemy"},"geometry":{"type":"Point","coordinates":[121.562913,25.032552]}},{"type":"Feature","properties":{"id":"osm:node:5544090028","name":"Mania 躁鎮","category":"bar"},"geometry":{"type":"Point","coordinates":[121.551971,25.026405]}},{"type":"Feature","properties":{"id":"osm:node:5699174909","name":"Dick Place","category":"bar"},"geometry":{"type":"Point","coordinates":[121.543984,25.030792]}},{"type":"Feature","properties":{"id":"osm:node:5739420398","name":"流民棧","category":"bar","opening_hours":"Mo-Sa 18:00-23:00; Su off","address":"234新北市永和區忠孝街3號","phone":"+886 2 3233 2611;+886 0927 981 520"},"geometry":{"type":"Point","coordinates":[121.515452,25.015732]}},{"type":"Feature","properties":{"id":"osm:node:5739420400","name":"The Hammer","category":"bar","opening_hours":"Tu-Su 17:30-24:00"},"geometry":{"type":"Point","coordinates":[121.515216,25.014731]}},{"type":"Feature","properties":{"id":"osm:node:5784825496","name":"掌門精釀啤酒","category":"bar","nameEn":"Zhangmen Brewing","opening_hours":"Mo-Fr 16:00-24:00, Sa-Su 14:00-24:00","address":"110台北市信義區松高路16號四樓","wheelchair":"yes"},"geometry":{"type":"Point","coordinates":[121.567288,25.037912]}},{"type":"Feature","properties":{"id":"osm:node:5937238269","name":"比爾與莉莉","category":"bar"},"geometry":{"type":"Point","coordinates":[121.544074,25.041922]}},{"type":"Feature","properties":{"id":"osm:node:5937238270","name":"壹號會所","category":"bar"},"geometry":{"type":"Point","coordinates":[121.54404,25.041892]}},{"type":"Feature","properties":{"id":"osm:node:6010827885","name":"草御殿","category":"bar","nameEn":"Ivy Palace","address":"104台北市大同區迪化街一段368號","phone":"+886 2 2550 0015","website":"http://www.facebook.com/pg/Okayagoten"},"geometry":{"type":"Point","coordinates":[121.509202,25.062928]}},{"type":"Feature","properties":{"id":"osm:node:6051947885","name":"南京三渣","category":"bar"},"geometry":{"type":"Point","coordinates":[121.556725,25.052216]}},{"type":"Feature","properties":{"id":"osm:node:6051947985","name":"小地方","category":"bar","nameEn":"Seams"},"geometry":{"type":"Point","coordinates":[121.524099,25.022519]}},{"type":"Feature","properties":{"id":"osm:node:6073651560","name":"七大狼BAR","category":"bar","address":"111臺北市士林區大西路8號","wheelchair":"no"},"geometry":{"type":"Point","coordinates":[121.524151,25.089785]}},{"type":"Feature","properties":{"id":"osm:node:6074055673","name":"the star","category":"bar","address":"111臺北市士林區小西街27號","wheelchair":"yes"},"geometry":{"type":"Point","coordinates":[121.523267,25.089698]}},{"type":"Feature","properties":{"id":"osm:node:6137457603","name":"派對走掉酒品信用合作社","category":"bar","nameEn":"Party Exit","opening_hours":"Mo-Su 16:30-23:00","address":"台北市松山區興安街200號"},"geometry":{"type":"Point","coordinates":[121.545475,25.056]}},{"type":"Feature","properties":{"id":"osm:node:6176129086","name":"清奈媽媽印度廚房","category":"bar","nameEn":"Amma's Kitchen"},"geometry":{"type":"Point","coordinates":[121.546292,25.024989]}},{"type":"Feature","properties":{"id":"osm:node:6183143002","name":"33區快炒","category":"bar"},"geometry":{"type":"Point","coordinates":[121.527562,25.048576]}},{"type":"Feature","properties":{"id":"osm:node:6213854890","name":"馬路酒場串燒居食","category":"bar","address":"106臺北市大安區基隆路二段263號"},"geometry":{"type":"Point","coordinates":[121.550341,25.022169]}},{"type":"Feature","properties":{"id":"osm:node:6271118872","name":"曉 akatsuki","category":"bar"},"geometry":{"type":"Point","coordinates":[121.523866,25.050502]}},{"type":"Feature","properties":{"id":"osm:node:6278511286","name":"啤痞微型精釀啤酒吧","category":"bar","nameEn":"BeerGeek MicroPub","address":"110台北市信義區永吉路8號"},"geometry":{"type":"Point","coordinates":[121.567826,25.045568]}},{"type":"Feature","properties":{"id":"osm:node:6354698724","name":"百欣","category":"bar"},"geometry":{"type":"Point","coordinates":[121.543492,25.042011]}},{"type":"Feature","properties":{"id":"osm:node:6354698725","name":"名亨","category":"bar"},"geometry":{"type":"Point","coordinates":[121.543543,25.042008]}},{"type":"Feature","properties":{"id":"osm:node:6418121439","name":"櫻木匠","category":"bar","wheelchair":"limited"},"geometry":{"type":"Point","coordinates":[121.528763,25.011298]}},{"type":"Feature","properties":{"id":"osm:node:6500400794","name":"BEERSCOVERY精釀啤酒探索館","category":"bar","address":"新北市五股區五工路66號一樓"},"geometry":{"type":"Point","coordinates":[121.459003,25.064032]}},{"type":"Feature","properties":{"id":"osm:node:6514444054","name":"啤酒土狗","category":"bar","nameEn":"Beer to Go","address":"100臺北市中正區新生南路一段6-9號一樓","phone":"+886 2 3322 3022"},"geometry":{"type":"Point","coordinates":[121.532567,25.043796]}},{"type":"Feature","properties":{"id":"osm:node:6574020158","name":"采。時代 義式冰淇淋","category":"bar","nameEn":"ZEIT X LINCK Gelato","address":"103台北市大同區赤峰街35號一樓"},"geometry":{"type":"Point","coordinates":[121.51952,25.054489]}},{"type":"Feature","properties":{"id":"osm:node:6682287319","name":"Preussen","category":"bar"},"geometry":{"type":"Point","coordinates":[121.517122,25.052487]}},{"type":"Feature","properties":{"id":"osm:node:6703689885","name":"Ron Xinyi","category":"bar"},"geometry":{"type":"Point","coordinates":[121.558952,25.032276]}},{"type":"Feature","properties":{"id":"osm:node:6704002287","name":"Highballer’s Bar","category":"bar"},"geometry":{"type":"Point","coordinates":[121.525895,25.058157]}},{"type":"Feature","properties":{"id":"osm:node:6874269785","name":"Fancy Hip Tiger Bar","category":"bar","nameEn":"Landmark taproom"},"geometry":{"type":"Point","coordinates":[121.566556,25.040255]}},{"type":"Feature","properties":{"id":"osm:node:6886599779","name":"Twoshots","category":"bar","address":"臺北市中正區開封街一段5號"},"geometry":{"type":"Point","coordinates":[121.514019,25.046077]}},{"type":"Feature","properties":{"id":"osm:node:6886599781","name":"Picador Sports Bar","category":"bar"},"geometry":{"type":"Point","coordinates":[121.568438,25.086339]}},{"type":"Feature","properties":{"id":"osm:node:6982059014","name":"Everything’s gonna be","category":"bar","nameEn":"Everything’s gonna be"},"geometry":{"type":"Point","coordinates":[121.530987,25.046239]}},{"type":"Feature","properties":{"id":"osm:node:7022030537","name":"Stone Express Bar","category":"bar"},"geometry":{"type":"Point","coordinates":[121.550363,25.027928]}},{"type":"Feature","properties":{"id":"osm:node:7082816333","name":"鈴洛奇 調飲餐食","category":"bar","nameEn":"LiNG Lok-Ki Drinks"},"geometry":{"type":"Point","coordinates":[121.509197,24.992727]}},{"type":"Feature","properties":{"id":"osm:node:7089441301","name":"Lounge & Dart","category":"bar","address":"106臺北市大安區龍門里8鄰新生南路三段7之6號"},"geometry":{"type":"Point","coordinates":[121.535033,25.025566]}},{"type":"Feature","properties":{"id":"osm:node:7093253847","name":"Piu! Piu! Pizza mafia","category":"bar","address":"10841臺北市萬華區開封街二段6號"},"geometry":{"type":"Point","coordinates":[121.508882,25.04604]}},{"type":"Feature","properties":{"id":"osm:node:7111226205","name":"隧道音樂主題餐廳","category":"bar","address":"11455臺北市內湖區金龍路180號"},"geometry":{"type":"Point","coordinates":[121.588329,25.086632]}},{"type":"Feature","properties":{"id":"osm:node:7213007940","name":"ANTOICO FORBI","category":"bar"},"geometry":{"type":"Point","coordinates":[121.539646,25.026687]}},{"type":"Feature","properties":{"id":"osm:node:7282087890","name":"Bitter Burro, take the bitter with the sweet","category":"bar","address":"承德路一段24巷"},"geometry":{"type":"Point","coordinates":[121.516656,25.050469]}},{"type":"Feature","properties":{"id":"osm:node:7716975384","name":"Chillax beer bar","category":"bar"},"geometry":{"type":"Point","coordinates":[121.576112,25.080403]}},{"type":"Feature","properties":{"id":"osm:node:7731649028","name":"歡飲宴","category":"bar"},"geometry":{"type":"Point","coordinates":[121.541311,25.054532]}},{"type":"Feature","properties":{"id":"osm:node:7768973646","name":"Oldie Goodie Live Bar","category":"bar"},"geometry":{"type":"Point","coordinates":[121.527699,25.021409]}},{"type":"Feature","properties":{"id":"osm:node:7881321079","name":"台北酒驛","category":"bar"},"geometry":{"type":"Point","coordinates":[121.559938,25.051722]}},{"type":"Feature","properties":{"id":"osm:node:8146135255","name":"ABV閣樓餐酒館","category":"bar","nameEn":"ABV Bar & Kitchen Penthouse","address":"新北市板橋區府中路67號十二樓"},"geometry":{"type":"Point","coordinates":[121.457977,25.009283]}},{"type":"Feature","properties":{"id":"osm:node:8146173955","name":"啜飲室","category":"bar","nameEn":"Taihu Craft Beer Tasting Room","address":"臺北市大安區仁愛路四段27巷34號"},"geometry":{"type":"Point","coordinates":[121.545082,25.041084]}},{"type":"Feature","properties":{"id":"osm:node:8146290773","name":"貓下去敦北俱樂部&俱樂部男孩沙龍","category":"bar","nameEn":"Meowvelous Taipei Taipei Fan Club & Club Boy Saloon","address":"臺北市松山區敦化北路218號"},"geometry":{"type":"Point","coordinates":[121.548878,25.058641]}},{"type":"Feature","properties":{"id":"osm:node:8187564830","name":"父母","category":"bar","nameEn":"FuMu","address":"104臺北市中山區興安街103號","phone":"+886 2 2518 5660","website":"https://www.fumutaipei.com/"},"geometry":{"type":"Point","coordinates":[121.543699,25.056164]}},{"type":"Feature","properties":{"id":"osm:node:8345313654","name":"Bar 小谷","category":"bar"},"geometry":{"type":"Point","coordinates":[121.522312,25.04985]}},{"type":"Feature","properties":{"id":"osm:node:8381353686","name":"艾澤拉斯bar","category":"bar","address":"10046臺北市中正區漢口街一段4號"},"geometry":{"type":"Point","coordinates":[121.514723,25.045048]}},{"type":"Feature","properties":{"id":"osm:node:8381353694","name":"LA TOUR BEAR","category":"bar"},"geometry":{"type":"Point","coordinates":[121.510019,25.044646]}},{"type":"Feature","properties":{"id":"osm:node:8843386706","name":"Play ba","category":"bar","opening_hours":"Tu-Su 20:00-02:00","address":"108臺北市萬華區西寧南路191號二樓"},"geometry":{"type":"Point","coordinates":[121.506083,25.041401]}},{"type":"Feature","properties":{"id":"osm:node:8862063763","name":"密室191 Bar","category":"bar","address":"臺北市八德路二段191號"},"geometry":{"type":"Point","coordinates":[121.538857,25.046566]}},{"type":"Feature","properties":{"id":"osm:node:9258884042","name":"小器梅酒屋","category":"bar"},"geometry":{"type":"Point","coordinates":[121.519387,25.054129]}},{"type":"Feature","properties":{"id":"osm:node:9260636607","name":"享 鍋酒館","category":"bar"},"geometry":{"type":"Point","coordinates":[121.522579,25.057128]}},{"type":"Feature","properties":{"id":"osm:node:9375541248","name":"友士 酒之庭","category":"bar","nameEn":"Usw Sake Garden","opening_hours":"PH,Mo-Su 11:00-22:00","address":"臺北市大同區萬全街1;1-1;1-2號一樓","wheelchair":"yes"},"geometry":{"type":"Point","coordinates":[121.520378,25.058756]}},{"type":"Feature","properties":{"id":"osm:node:9527718510","name":"Sakebono","category":"bar"},"geometry":{"type":"Point","coordinates":[121.498988,25.035114]}},{"type":"Feature","properties":{"id":"osm:node:9725096947","name":"OFFY Cafe' Bistro","category":"bar"},"geometry":{"type":"Point","coordinates":[121.476852,25.031056]}},{"type":"Feature","properties":{"id":"osm:node:9774005430","name":"福將清茶館","category":"bar"},"geometry":{"type":"Point","coordinates":[121.498825,25.039548]}},{"type":"Feature","properties":{"id":"osm:node:9774005431","name":"天王座卡拉OK","category":"bar"},"geometry":{"type":"Point","coordinates":[121.498952,25.039442]}},{"type":"Feature","properties":{"id":"osm:node:9774005433","name":"富儷會館","category":"bar"},"geometry":{"type":"Point","coordinates":[121.499223,25.039403]}},{"type":"Feature","properties":{"id":"osm:way:1452797743","name":"The Glasshouse","category":"bar","address":"105臺北市松山區中華里16鄰敦化北路129號"},"geometry":{"type":"Point","coordinates":[121.549522,25.052403]}}]}