{"type":"FeatureCollection","features":[{"type":"Feature","properties":{"id":"osm:node:13356996142","name":"急診室","category":"hospital","nameEn":"Emergency Center"},"geometry":{"type":"Point","coordinates":[121.563414,25.026997]}},{"type":"Feature","properties":{"id":"osm:node:13728725099","name":"藝群永和診所","category":"hospital","opening_hours":"Mo-Sa 14:00-21:00","address":"234新北市永和區中山路142號一、二樓","phone":"+886 2 82317581"},"geometry":{"type":"Point","coordinates":[121.510006,25.009807]}},{"type":"Feature","properties":{"id":"osm:node:2630657579","name":"板新醫院","category":"hospital"},"geometry":{"type":"Point","coordinates":[121.456357,25.016828]}},{"type":"Feature","properties":{"id":"osm:node:2978413248","name":"永和復康醫院","category":"hospital"},"geometry":{"type":"Point","coordinates":[121.511943,25.003844]}},{"type":"Feature","properties":{"id":"osm:node:3292775593","name":"板英醫院","category":"hospital","address":"22050新北市板橋區文化路一段269號","phone":"+886-2-82513923"},"geometry":{"type":"Point","coordinates":[121.464544,25.018406]}},{"type":"Feature","properties":{"id":"osm:node:3328449233","name":"怡和醫院","category":"hospital","wheelchair":"yes"},"geometry":{"type":"Point","coordinates":[121.498547,25.00188]}},{"type":"Feature","properties":{"id":"osm:node:3856927986","name":"慶生醫院","category":"hospital","address":"台北市中山區林森北路561號之7","phone":"+886-2-2598-3456"},"geometry":{"type":"Point","coordinates":[121.525822,25.064486]}},{"type":"Feature","properties":{"id":"osm:node:4748285621","name":"中祥醫院附設居家護理所","category":"hospital","address":"235新北市中和區中山路二段140號"},"geometry":{"type":"Point","coordinates":[121.502009,25.003208]}},{"type":"Feature","properties":{"id":"osm:node:5061686948","name":"培靈醫院","category":"hospital","address":"台北市松山區八德路四段355號","phone":"+886-2-2760-6116","website":"http://www.peiling.com.tw/taipei/"},"geometry":{"type":"Point","coordinates":[121.568351,25.049357]}},{"type":"Feature","properties":{"id":"osm:node:6024282261","name":"中英醫院","category":"hospital","nameEn":"Sinobritish Hospital","address":"新北市板橋區文化路一段196號","phone":"+886 2 2256 3584","website":"https://www.choninn.com.tw/"},"geometry":{"type":"Point","coordinates":[121.466216,25.019815]}},{"type":"Feature","properties":{"id":"osm:node:9652612481","name":"臺大兒童醫院","category":"hospital"},"geometry":{"type":"Point","coordinates":[121.518724,25.044137]}},{"type":"Feature","properties":{"id":"osm:relation:10279460","name":"萬芳醫院","category":"hospital","nameEn":"Taipei Municipal Wanfang Hospital","address":"11696臺北市文山區興隆路三段111號","phone":"+886-2-2930-7930","website":"http://www.wanfang.gov.tw/","emergency":"yes"},"geometry":{"type":"Point","coordinates":[121.558012,25.000255]}},{"type":"Feature","properties":{"id":"osm:relation:14486735","name":"臺北醫學大學附設醫院","category":"hospital","nameEn":"Taipei Medical University Hospital","address":"11031臺北市信義區吳興街252號","phone":"+886 2 2737 2181","website":"https://www.tmuh.org.tw/","emergency":"yes"},"geometry":{"type":"Point","coordinates":[121.563063,25.026405]}},{"type":"Feature","properties":{"id":"osm:relation:18509699","name":"泰安醫院","category":"hospital","nameEn":"Taian Hospital","address":"104臺北市中山區新生里6鄰民權東路二段92巷2之1號"},"geometry":{"type":"Point","coordinates":[121.531511,25.061446]}},{"type":"Feature","properties":{"id":"osm:relation:18515322","name":"板橋國泰醫院","category":"hospital","address":"新北市板橋區福星里019鄰忠孝路5~11號"},"geometry":{"type":"Point","coordinates":[121.45996,25.002029]}},{"type":"Feature","properties":{"id":"osm:relation:18515323","name":"板橋中興醫院","category":"hospital","address":"新北市板橋區福星里019鄰忠孝路15號","emergency":"yes"},"geometry":{"type":"Point","coordinates":[121.460236,25.002072]}},{"type":"Feature","properties":{"id":"osm:relation:4612313","name":"三軍總醫院北投分院","category":"hospital","nameEn":"Tri-Service General Hospital Beitou Branch","address":"台北市北投區新民路60號","phone":"+886-2-2895-9808","website":"https://818h.mnd.gov.tw/btweb/H2mee/homePage.aspx"},"geometry":{"type":"Point","coordinates":[121.50959,25.139437]}},{"type":"Feature","properties":{"id":"osm:relation:4615353","name":"耕莘醫院","category":"hospital","nameEn":"Cardinal Tien Hospital","address":"23148新北市新店區中正路362號","phone":"+886-2-2219-3391","website":"https://www.cth.org.tw/","emergency":"yes"},"geometry":{"type":"Point","coordinates":[121.535905,24.976543]}},{"type":"Feature","properties":{"id":"osm:relation:4623519","name":"台北市立聯合醫院陽明院區","category":"hospital","nameEn":"Taipei City Hospital Yangming Branch","address":"111臺北市士林區忠誠路一段105號","phone":"+886-2-2835-3456","website":"https://tpech.gov.taipei/mp109181/Default.aspx"},"geometry":{"type":"Point","coordinates":[121.532053,25.105113]}},{"type":"Feature","properties":{"id":"osm:relation:4637783","name":"國立臺灣大學醫學院附設醫院","category":"hospital","nameEn":"National Taiwan University Hospital","address":"10048臺北市中正區常德街1號","emergency":"yes"},"geometry":{"type":"Point","coordinates":[121.519153,25.041901]}},{"type":"Feature","properties":{"id":"osm:relation:4657784","name":"臺北榮民總醫院","category":"hospital","nameEn":"Taipei Veterans General Hospital","address":"112臺北市北投區石牌路二段201號","phone":"+886-2-2871-2121","website":"https://www.vghtpe.gov.tw/Index.action","emergency":"yes"},"geometry":{"type":"Point","coordinates":[121.520751,25.121008]}},{"type":"Feature","properties":{"id":"osm:relation:4657788","name":"振興醫院","category":"hospital","nameEn":"Cheng Hsin General Hospital","address":"台北市北投區振興街45號","phone":"+886-2-2826-4400","website":"https://www.chgh.org.tw/","wheelchair":"yes","emergency":"yes"},"geometry":{"type":"Point","coordinates":[121.522427,25.116327]}},{"type":"Feature","properties":{"id":"osm:relation:5257272","name":"佛教慈濟綜合醫院台北院區","category":"hospital","nameEn":"Taipei Tzu Chi General Hospital","address":"新北市新店區建國路289號","phone":"+886-2-66289779","website":"http://www.tzuchi.com.tw/tzuchi/default.aspx","emergency":"yes"},"geometry":{"type":"Point","coordinates":[121.535287,24.986231]}},{"type":"Feature","properties":{"id":"osm:relation:6100847","name":"永和耕莘醫院","category":"hospital","nameEn":"Yonghe Cardinal Tien Hospital","address":"234新北市永和區中興街80號","phone":"+886 2 2928 6060","website":"http://www.cthyh.org.tw/","emergency":"no"},"geometry":{"type":"Point","coordinates":[121.517643,25.01147]}},{"type":"Feature","properties":{"id":"osm:relation:6387987","name":"三軍總醫院北投分院門診處","category":"hospital","nameEn":"Tri-service General Hospital Beitou Branch","address":"台北市北投區中和街250號"},"geometry":{"type":"Point","coordinates":[121.501198,25.139739]}},{"type":"Feature","properties":{"id":"osm:relation:6716838","name":"三軍總醫院","category":"hospital","nameEn":"Tri-Service General Hospital","address":"臺北市內湖區成功路二段325號","phone":"+886-2-8792-3311","website":"https://www.tsgh.ndmctsgh.edu.tw"},"geometry":{"type":"Point","coordinates":[121.59332,25.07179]}},{"type":"Feature","properties":{"id":"osm:relation:6933088","name":"三軍總醫院松山分院","category":"hospital","nameEn":"Tri-service General Hospital, Songshan Branch","address":"臺北市松山區健康路131號","phone":"+886 2 2764 2151","website":"http://807.mnd.gov.tw/"},"geometry":{"type":"Point","coordinates":[121.557457,25.054676]}},{"type":"Feature","properties":{"id":"osm:relation:7362376","name":"三總汀州院區","category":"hospital","nameEn":"Tri-Service General Hospital Tingjhou Branch","address":"10086臺北市中正區汀州路三段40號","phone":"+886 2 2365 9055","website":"http://wwwu.tsgh.ndmctsgh.edu.tw/TM2/default.aspx","emergency":"yes"},"geometry":{"type":"Point","coordinates":[121.529244,25.016429]}},{"type":"Feature","properties":{"id":"osm:relation:7539087","name":"仁濟醫院","category":"hospital","nameEn":"Jen-Chi Hospital","address":"台北市廣州街243號","phone":"+886-2-2302-1133","website":"http://www.tjci-tp.org.tw/dispPageBox/TPMain.aspx?ddsPageID=TJCIHP"},"geometry":{"type":"Point","coordinates":[121.497943,25.036701]}},{"type":"Feature","properties":{"id":"osm:relation:7769533","name":"國泰醫院總院","category":"hospital","address":"臺北市大安區仁愛路四段280號","emergency":"yes"},"geometry":{"type":"Point","coordinates":[121.553698,25.036825]}},{"type":"Feature","properties":{"id":"osm:relation:8404780","name":"永越健康管理中心","category":"hospital"},"geometry":{"type":"Point","coordinates":[121.494881,25.027468]}},{"type":"Feature","properties":{"id":"osm:relation:9968359","name":"新光醫院","category":"hospital","nameEn":"Shin Kong Hospital","address":"111台北市士林區文昌路95號","wheelchair":"yes","emergency":"yes"},"geometry":{"type":"Point","coordinates":[121.520091,25.09576]}},{"type":"Feature","properties":{"id":"osm:way:1004862600","name":"臺北市立聯合醫院和平婦幼院區婦幼院址","category":"hospital","nameEn":"Heping Fuyou Branch (Fuyou)","address":"10078臺北市中正區福州街12號","phone":"+886 2 2391 6470","website":"https://tpech.gov.taipei/mp109161/Default.aspx","wheelchair":"yes","emergency":"yes"},"geometry":{"type":"Point","coordinates":[121.51931,25.029007]}},{"type":"Feature","properties":{"id":"osm:way:1052419632","name":"國立臺灣大學醫學院附設醫院癌醫中心分院","category":"hospital","address":"106台北市大安區基隆路三段155巷57號","phone":"+886 2 2322-0322","website":"http://www.ntucc.gov.tw/ntucc/Index.action","emergency":"no"},"geometry":{"type":"Point","coordinates":[121.544247,25.014859]}},{"type":"Feature","properties":{"id":"osm:way:1322465711","name":"豐榮醫院","category":"hospital","nameEn":"Fongjong Hospital"},"geometry":{"type":"Point","coordinates":[121.511444,24.963296]}},{"type":"Feature","properties":{"id":"osm:way:1361896406","name":"台安醫院","category":"hospital","address":"新北市三芝區興華里007鄰楓子林42之5號"},"geometry":{"type":"Point","coordinates":[121.495949,25.208297]}},{"type":"Feature","properties":{"id":"osm:way:139190767","name":"仁愛院區","category":"hospital","nameEn":"Renai Branch","address":"106243臺北市大安區仁愛路四段10號","phone":"+886 2 2709 3600","website":"https://tpech.gov.taipei/mp109151/","wheelchair":"yes","emergency":"yes"},"geometry":{"type":"Point","coordinates":[121.545169,25.03723]}},{"type":"Feature","properties":{"id":"osm:way:139350160","name":"中山醫院","category":"hospital","nameEn":"Chung Shan Hospital","address":"106臺北市仁愛路四段112巷11號","phone":"+886-2-2708-1166","website":"https://www.csh.com.tw/","emergency":"yes"},"geometry":{"type":"Point","coordinates":[121.549962,25.036537]}},{"type":"Feature","properties":{"id":"osm:way:141992817","name":"新北市立聯合醫院板橋院區","category":"hospital","nameEn":"New Taipei City Hospital Banqiao Branch","emergency":"yes"},"geometry":{"type":"Point","coordinates":[121.457824,25.023299]}},{"type":"Feature","properties":{"id":"osm:way:161621394","name":"郵政醫院","category":"hospital","nameEn":"Postal Hospital","address":"100027臺北市中正區福州街14號","phone":"+886 2 2395 6755","website":"http://www.postal.com.tw/","wheelchair":"yes","emergency":"yes"},"geometry":{"type":"Point","coordinates":[121.518826,25.028599]}},{"type":"Feature","properties":{"id":"osm:way:173001823","name":"中國醫藥大學附設醫院臺北分院","category":"hospital","address":"台北市內湖區內湖路二段360號","phone":"+886-2-2791-9696","website":"http://taipei.cmuh.org.tw/"},"geometry":{"type":"Point","coordinates":[121.59074,25.082125]}},{"type":"Feature","properties":{"id":"osm:way:197316116","name":"臺北市立聯合醫院和平婦幼院區和平院址","category":"hospital","address":"10065臺北市中正區中華路二段33號","phone":"+886-2-2388-9595","website":"http://www.tpech.gov.tw/mp.asp?mp=109161","wheelchair":"yes"},"geometry":{"type":"Point","coordinates":[121.507009,25.035389]}},{"type":"Feature","properties":{"id":"osm:way:201280863","name":"臺北市立聯合醫院中興院區","category":"hospital","nameEn":"Taipei City Hospital Zhongxin Branch","address":"103212臺北市大同區鄭州路145號","phone":"+886 2 2552 3234","website":"https://tpech.gov.taipei/mp.asp?mp=109141","wheelchair":"yes","emergency":"yes"},"geometry":{"type":"Point","coordinates":[121.509164,25.051213]}},{"type":"Feature","properties":{"id":"osm:way:231656465","name":"衛生福利部臺北醫院","category":"hospital","nameEn":"Taipei Hospitial","address":"24213新北市新莊區思源路127號","phone":"+886 2 2276 5566","website":"https://www.tph.mohw.gov.tw/","emergency":"yes"},"geometry":{"type":"Point","coordinates":[121.458818,25.042887]}},{"type":"Feature","properties":{"id":"osm:way:239206119","name":"宏恩醫院","category":"hospital","opening_hours":"Mo-Sa 08:00-21:00","address":"106臺北市大安區仁愛路四段61號","emergency":"yes"},"geometry":{"type":"Point","coordinates":[121.54682,25.038352]}},{"type":"Feature","properties":{"id":"osm:way:241424548","name":"亞東醫院","category":"hospital","nameEn":"Far Eastern Hospital","address":"新北市板橋區華東里南雅南路二段21號","website":"https://www.femh.org.tw/","emergency":"yes"},"geometry":{"type":"Point","coordinates":[121.453067,24.997305]}},{"type":"Feature","properties":{"id":"osm:way:252752821","name":"關渡醫院","category":"hospital","address":"台北市北投區知行路225巷12號","phone":"+886-2-2858-7000","website":"http://www.gandau.gov.tw"},"geometry":{"type":"Point","coordinates":[121.466202,25.120478]}},{"type":"Feature","properties":{"id":"osm:way:255983133","name":"忠孝院區","category":"hospital","nameEn":"Chungshao Branch","address":"台北市南港區同德路87號","phone":"+886 2 2786 1288","website":"https://tpech.gov.taipei/mp.asp?mp=109171","wheelchair":"yes","emergency":"yes"},"geometry":{"type":"Point","coordinates":[121.586223,25.046676]}},{"type":"Feature","properties":{"id":"osm:way:266072625","name":"馬偕醫院淡水院區","category":"hospital","nameEn":"Mackay Memorial Hospital (Tamshui)","address":"新北市淡水區民生路45號","phone":"+886 2 2809 4661","website":"https://www.mmh.org.tw/","wheelchair":"yes","emergency":"yes"},"geometry":{"type":"Point","coordinates":[121.461571,25.1394]}},{"type":"Feature","properties":{"id":"osm:way:305430655","name":"馬偕紀念醫院","category":"hospital","nameEn":"Mackay Memorial Hospital","address":"10449臺北市中山區中山北路二段92號","phone":"+886-2-2543-3535","website":"https://www.mmh.org.tw/","wheelchair":"yes","emergency":"yes"},"geometry":{"type":"Point","coordinates":[121.52222,25.058579]}},{"type":"Feature","properties":{"id":"osm:way:307986143","name":"林森中醫昆明院區林森分部","category":"hospital","nameEn":"Linsen Chinese Medicine Branch Linsen Branch","address":"臺北市中山區林森北路530號"},"geometry":{"type":"Point","coordinates":[121.525456,25.063503]}},{"type":"Feature","properties":{"id":"osm:way:308529619","name":"廣川醫院","category":"hospital"},"geometry":{"type":"Point","coordinates":[121.454944,24.982208]}},{"type":"Feature","properties":{"id":"osm:way:315102732","name":"萬華醫院","category":"hospital","address":"108台北市萬華區中華路二段606巷6號","phone":"+886 2 2305 9292","website":"http://www.wanhwa.org.tw/"},"geometry":{"type":"Point","coordinates":[121.509733,25.024033]}},{"type":"Feature","properties":{"id":"osm:way:328772646","name":"汐止國泰綜合醫院","category":"hospital","address":"新北市汐止區建成路59巷2號","wheelchair":"yes","emergency":"yes"},"geometry":{"type":"Point","coordinates":[121.660868,25.072723]}},{"type":"Feature","properties":{"id":"osm:way:330359863","name":"景美醫院","category":"hospital","address":"11674臺北市文山區羅斯福路六段280號","wheelchair":"yes","emergency":"yes"},"geometry":{"type":"Point","coordinates":[121.539779,24.991136]}},{"type":"Feature","properties":{"id":"osm:way:343747436","name":"台安醫院","category":"hospital","nameEn":"Adventist Hospital","address":"105臺北市松山區福成里1鄰八德路二段424號","wheelchair":"yes"},"geometry":{"type":"Point","coordinates":[121.547333,25.047518]}},{"type":"Feature","properties":{"id":"osm:way:345564146","name":"中正區健康服務中心","category":"hospital","address":"臺北市牯嶺街24號","phone":"+886-2-2321-5158","website":"http://www.zzhc.gov.taipei/"},"geometry":{"type":"Point","coordinates":[121.515871,25.030398]}},{"type":"Feature","properties":{"id":"osm:way:353361372","name":"同仁醫院","category":"hospital"},"geometry":{"type":"Point","coordinates":[121.537815,24.982631]}},{"type":"Feature","properties":{"id":"osm:way:354534871","name":"衛生福利部雙和醫院","category":"hospital","nameEn":"Shuang Ho Hospital, MOHW","address":"236新北市中和區中正路291號","wheelchair":"yes","emergency":"yes"},"geometry":{"type":"Point","coordinates":[121.493521,24.992568]}},{"type":"Feature","properties":{"id":"osm:way:362635274","name":"協和婦女醫院","category":"hospital","address":"104臺北市中山區朱園里9鄰松江路85巷5號","phone":"+886 2 2507 2222","website":"https://www.woman.org.tw/"},"geometry":{"type":"Point","coordinates":[121.533951,25.050391]}},{"type":"Feature","properties":{"id":"osm:way:363982002","name":"禾馨民權婦幼診所","category":"hospital","address":"114臺北市內湖區民權東路六段42號","phone":"+886 2 5571 3333","website":"https://www.dianthus.com.tw/MC/","emergency":"yes"},"geometry":{"type":"Point","coordinates":[121.581681,25.067562]}},{"type":"Feature","properties":{"id":"osm:way:375791112","name":"康寧醫院","category":"hospital","address":"台北市內湖區成功路五段420巷26號","phone":"+886-2-2634-5500","website":"https://www.knh.org.tw/","emergency":"yes"},"geometry":{"type":"Point","coordinates":[121.608867,25.075799]}},{"type":"Feature","properties":{"id":"osm:way:396909006","name":"臺北市立聯合醫院松德院區","category":"hospital","nameEn":"Taipei City Psychiatric Center (TCPC)","address":"臺北市信義區松德路309號","phone":"+886 2 2726 3141","website":"https://tpech.gov.taipei/mp.asp?mp=109201","emergency":"yes"},"geometry":{"type":"Point","coordinates":[121.57439,25.029496]}},{"type":"Feature","properties":{"id":"osm:way:403555136","name":"西園醫院","category":"hospital","nameEn":"West Garden Hospital","address":"108035臺北市萬華區西園路二段266~274號、185、187號","phone":"+886 2 2307 6968","website":"https://www.westgarden.com.tw/","emergency":"yes"},"geometry":{"type":"Point","coordinates":[121.494347,25.02774]}},{"type":"Feature","properties":{"id":"osm:way:424742265","name":"新北市立聯合醫院三重院區","category":"hospital","nameEn":"New Taipei City Hospital Sanchong Branch","address":"241新北市三重區新北大道一段3號","emergency":"yes"},"geometry":{"type":"Point","coordinates":[121.490826,25.060604]}},{"type":"Feature","properties":{"id":"osm:way:428372314","name":"北新醫院","category":"hospital"},"geometry":{"type":"Point","coordinates":[121.475466,25.193261]}},{"type":"Feature","properties":{"id":"osm:way:432713664","name":"國立台灣大學醫學院附設醫院北護分院","category":"hospital","nameEn":"National Taiwan University Hospital Bei-Hu Branch","address":"108台北市萬華區西門里9鄰內江街87號"},"geometry":{"type":"Point","coordinates":[121.503611,25.041868]}},{"type":"Feature","properties":{"id":"osm:way:462964969","name":"中心綜合醫院","category":"hospital","nameEn":"Central Clinic and Hospital","address":"106臺北市大安區忠孝東路四段77號","emergency":"yes"},"geometry":{"type":"Point","coordinates":[121.547405,25.041916]}},{"type":"Feature","properties":{"id":"osm:way:491221747","name":"宏仁醫院","category":"hospital","nameEn":"Hong Ren Hospital","address":"241新北市三重區水漾路一段158號","emergency":"yes"},"geometry":{"type":"Point","coordinates":[121.483814,25.054075]}},{"type":"Feature","properties":{"id":"osm:way:495028736","name":"博仁綜合醫院","category":"hospital","address":"台北市松山區光復北路66號","phone":"+886-2-2570-2211","website":"https://www.pojengh.com.tw/","emergency":"yes"},"geometry":{"type":"Point","coordinates":[121.557437,25.049946]}},{"type":"Feature","properties":{"id":"osm:way:543000989","name":"台北秀傳醫院","category":"hospital","address":"106臺北市大安區光復南路116巷1號","phone":"+886 2 2771 7172","website":"https://www.tpshow.org.tw/","emergency":"no"},"geometry":{"type":"Point","coordinates":[121.55688,25.043167]}},{"type":"Feature","properties":{"id":"osm:way:546942400","name":"和信治癌中心醫院","category":"hospital","nameEn":"Koo Foundation Sun Yat-Sen Cancer Center","address":"台北市北投區立德路125號","website":"https://www.kfsyscc.org/m/"},"geometry":{"type":"Point","coordinates":[121.471756,25.128392]}},{"type":"Feature","properties":{"id":"osm:way:708675111","name":"臺北市立聯合醫院昆明院區","category":"hospital","wheelchair":"yes"},"geometry":{"type":"Point","coordinates":[121.504734,25.044268]}},{"type":"Feature","properties":{"id":"osm:way:996052181","name":"長青醫院","category":"hospital","address":"新北市淡水區糞箕湖1-5號","emergency":"assembly_point"},"geometry":{"type":"Point","coordinates":[121.483082,25.171559]}}]}