{"type":"FeatureCollection","features":[{"type":"Feature","properties":{"id":"osm:node:1101090913","name":"新店仁愛圖書閱覽室","category":"library","name_en":"Xindian Ren'ai Reading Room","opening_hours":"Su-Mo 08:30-17:00; Tu-Sa 08:30-21:00; Th[-1] off; PH off"},"geometry":{"type":"Point","coordinates":[121.54083,24.975571]}},{"type":"Feature","properties":{"id":"osm:node:11582486764","name":"永和保生分館","category":"library","opening_hours":"Mo,Su 08:30-17:00; Tu-Sa 08:30-21:00"},"geometry":{"type":"Point","coordinates":[121.505141,25.013231]}},{"type":"Feature","properties":{"id":"osm:node:12244968202","name":"廣慈分館","category":"library"},"geometry":{"type":"Point","coordinates":[121.582274,25.037912]}},{"type":"Feature","properties":{"id":"osm:node:12250787800","name":"臺大法學院圖書館","category":"library"},"geometry":{"type":"Point","coordinates":[121.544792,25.019928]}},{"type":"Feature","properties":{"id":"osm:node:12407393164","name":"圖書館","category":"library"},"geometry":{"type":"Point","coordinates":[121.594487,25.053128]}},{"type":"Feature","properties":{"id":"osm:node:12455471654","name":"故事屋（文學館）","category":"library","opening_hours":"Tu-Su 11:00-17:00"},"geometry":{"type":"Point","coordinates":[121.465246,25.007348]}},{"type":"Feature","properties":{"id":"osm:node:12791601535","name":"圖書館","category":"library"},"geometry":{"type":"Point","coordinates":[121.463609,25.145695]}},{"type":"Feature","properties":{"id":"osm:node:13279201255","name":"新北市積穗國小豐書園","category":"library","opening_hours":"Mo-Fr 08:00-17:00"},"geometry":{"type":"Point","coordinates":[121.481462,24.999199]}},{"type":"Feature","properties":{"id":"osm:node:13279207681","name":"圖書館","category":"library","opening_hours":"Mo-Fr 08:00-17:00"},"geometry":{"type":"Point","coordinates":[121.49198,24.991663]}},{"type":"Feature","properties":{"id":"osm:node:13279212551","name":"積穗愛閱","category":"library"},"geometry":{"type":"Point","coordinates":[121.47896,25.000212]}},{"type":"Feature","properties":{"id":"osm:node:13296212242","name":"國家圖書館多媒體創意實驗中心 OPEN LAB","category":"library","opening_hours":"Tu-Sa 09:00-21:00; Su 09:00-17:00; Mo off"},"geometry":{"type":"Point","coordinates":[121.509334,25.042698]}},{"type":"Feature","properties":{"id":"osm:node:1482885760","name":"中山分館","category":"library","name_en":"Zhongsan Branch","opening_hours":"Tu-Sa 08:30-21:00; Mo, Su 09:00-17:00"},"geometry":{"type":"Point","coordinates":[121.533602,25.064468]}},{"type":"Feature","properties":{"id":"osm:node:1703008954","name":"新北市立圖書館新店分館","category":"library","name_en":"New Taipei City Library Xindian Branch","opening_hours":"Mo 08:30-17:00; Tu-Sa 08:30-21:00; Su 08:30-17:00; Th[-1] off; PH off"},"geometry":{"type":"Point","coordinates":[121.540805,24.982589]}},{"type":"Feature","properties":{"id":"osm:node:1720009140","name":"大直分館","category":"library","name_en":"Dazhi Branch"},"geometry":{"type":"Point","coordinates":[121.54669,25.081861]}},{"type":"Feature","properties":{"id":"osm:node:1724025627","name":"葫蘆堵分館","category":"library"},"geometry":{"type":"Point","coordinates":[121.510806,25.082336]}},{"type":"Feature","properties":{"id":"osm:node:1832693019","name":"陽明大學圖書館1-4F","category":"library"},"geometry":{"type":"Point","coordinates":[121.513346,25.120426]}},{"type":"Feature","properties":{"id":"osm:node:1937523869","name":"台北市立圖書館士林分館","category":"library","name_en":"Taipei Public Library Shihlin Branch"},"geometry":{"type":"Point","coordinates":[121.522804,25.096534]}},{"type":"Feature","properties":{"id":"osm:node:1996755979","name":"新店中央圖書閱覽室","category":"library","name_en":"Xindian Zhongyang Reading Room"},"geometry":{"type":"Point","coordinates":[121.52751,24.975379]}},{"type":"Feature","properties":{"id":"osm:node:2013717674","name":"城中分館","category":"library","opening_hours":"Tu-Sa 08:30-21:00, Su-Mo 09:00-17:00, Th[1] off, PH off"},"geometry":{"type":"Point","coordinates":[121.530909,25.040145]}},{"type":"Feature","properties":{"id":"osm:node:2160836810","name":"師大便利書店 (自動借還書機)","category":"library"},"geometry":{"type":"Point","coordinates":[121.528082,25.025649]}},{"type":"Feature","properties":{"id":"osm:node:2178660012","name":"臺北市立圖書館長安分館","category":"library"},"geometry":{"type":"Point","coordinates":[121.520983,25.05023]}},{"type":"Feature","properties":{"id":"osm:node:2260120976","name":"恆安民眾閱覽室","category":"library"},"geometry":{"type":"Point","coordinates":[121.527302,25.063686]}},{"type":"Feature","properties":{"id":"osm:node:2321739244","name":"萬興分館","category":"library","opening_hours":"Tu-Sa 08:30-21:00, Su-Mo 09:00-17:00, Th[1] off, PH off"},"geometry":{"type":"Point","coordinates":[121.576816,24.988738]}},{"type":"Feature","properties":{"id":"osm:node:2365905451","name":"龍安民眾閱覽室","category":"library"},"geometry":{"type":"Point","coordinates":[121.529357,25.028574]}},{"type":"Feature","properties":{"id":"osm:node:2395664935","name":"武聖廟圖書館","category":"library"},"geometry":{"type":"Point","coordinates":[121.450316,25.034014]}},{"type":"Feature","properties":{"id":"osm:node:2520707674","name":"清江分館","category":"library"},"geometry":{"type":"Point","coordinates":[121.506923,25.127583]}},{"type":"Feature","properties":{"id":"osm:node:2616884874","name":"新北市立中港圖書館","category":"library"},"geometry":{"type":"Point","coordinates":[121.451929,25.046508]}},{"type":"Feature","properties":{"id":"osm:node:2616960456","name":"三興分館","category":"library","opening_hours":"Su-Mo 09:00-17:00; Tu-Sa 08:30-21:00"},"geometry":{"type":"Point","coordinates":[121.561052,25.029022]}},{"type":"Feature","properties":{"id":"osm:node:2617016480","name":"柴埕圖書閱覽室","category":"library"},"geometry":{"type":"Point","coordinates":[121.516415,24.967518]}},{"type":"Feature","properties":{"id":"osm:node:2628972338","name":"景新分館","category":"library","opening_hours":"Tu-Sa 08:30-21:00, Su-Mo 09:00-17:00, Th[1] off, PH off"},"geometry":{"type":"Point","coordinates":[121.542077,24.990015]}},{"type":"Feature","properties":{"id":"osm:node:2673946522","name":"福德智慧圖書館","category":"library","name_en":"Fude Intelligent Library","opening_hours":"Mo-Su 09:00-21:00; PH off"},"geometry":{"type":"Point","coordinates":[121.580146,25.036374]}},{"type":"Feature","properties":{"id":"osm:node:2696114003","name":"稻香分館","category":"library"},"geometry":{"type":"Point","coordinates":[121.488844,25.140951]}},{"type":"Feature","properties":{"id":"osm:node:2713722768","name":"中崙分館","category":"library","name_en":"Zhonglun Branch"},"geometry":{"type":"Point","coordinates":[121.546015,25.048453]}},{"type":"Feature","properties":{"id":"osm:node:2723694053","name":"新北市立圖書館蘆洲集賢分館","category":"library","name_en":"Luzhou Jixian Library","opening_hours":"Su,Mo 08:30-17:00; Tu-Sa 08:30-21:00"},"geometry":{"type":"Point","coordinates":[121.481655,25.084973]}},{"type":"Feature","properties":{"id":"osm:node:2755630360","name":"臺大醫學圖書館","category":"library"},"geometry":{"type":"Point","coordinates":[121.520006,25.040027]}},{"type":"Feature","properties":{"id":"osm:node:2784758412","name":"板橋慈惠宮媽祖廟書館","category":"library"},"geometry":{"type":"Point","coordinates":[121.45672,25.009321]}},{"type":"Feature","properties":{"id":"osm:node:2825596259","name":"明倫高中圖書館","category":"library"},"geometry":{"type":"Point","coordinates":[121.518777,25.075836]}},{"type":"Feature","properties":{"id":"osm:node:2917411049","name":"道藩分館","category":"library","name_en":"Daofan Branch","opening_hours":"Tu-Sa 08:30-21:00, Su-Mo 09:00-17:00, Th[1] off, PH off"},"geometry":{"type":"Point","coordinates":[121.543959,25.021675]}},{"type":"Feature","properties":{"id":"osm:node:3087334533","name":"力行分館","category":"library","opening_hours":"Tu-Sa 08:30-21:00; Su-Mo 09:00-17:00; Th[1] off; PH off"},"geometry":{"type":"Point","coordinates":[121.556424,24.97963]}},{"type":"Feature","properties":{"id":"osm:node:3166053818","name":"土城柑林埤圖書閱覽室","category":"library"},"geometry":{"type":"Point","coordinates":[121.451896,24.987039]}},{"type":"Feature","properties":{"id":"osm:node:3187766467","name":"新北市圖書館新莊分館","category":"library"},"geometry":{"type":"Point","coordinates":[121.452299,25.03646]}},{"type":"Feature","properties":{"id":"osm:node:3205651518","name":"新北市立圖書館板橋江子翠分館","category":"library","name_en":"Banqiao Jiangzicuei Branch, New Taipei City Library","opening_hours":"Tu-Sa 08:30-21:00; Su-Mo 08:30-17:00; Th[-1] off; PH off"},"geometry":{"type":"Point","coordinates":[121.472219,25.026063]}},{"type":"Feature","properties":{"id":"osm:node:3210314680","name":"成功民眾閱覽室","category":"library","name_en":"Chenggong Neighborhood Reading Room","opening_hours":"Tu-Sa 08:30-21:00, Su-Mo 09:00-17:00"},"geometry":{"type":"Point","coordinates":[121.545353,25.0254]}},{"type":"Feature","properties":{"id":"osm:node:3232347129","name":"南雅閱覽室","category":"library","opening_hours":"Mo-Tu,Th-Sa 08:00-21:30;Su 08:00-11:30;We off"},"geometry":{"type":"Point","coordinates":[121.454975,25.003754]}},{"type":"Feature","properties":{"id":"osm:node:3232569028","name":"萬華分館","category":"library","name_en":"Wanhua Branch","opening_hours":"Tu-Sa 08:30-21:00, Su-Mo 09:00-17:00, Th[1] off, PH off"},"geometry":{"type":"Point","coordinates":[121.495829,25.02781]}},{"type":"Feature","properties":{"id":"osm:node:3234807778","name":"新北市立圖書館板橋萬板親子閱覽室","category":"library","name_en":"Banciao Wanban Family Reading Room, New Taipei City Library","opening_hours":"Tu-Sa 08:30-21:00;Su-Mo 08:30-17:00;Tr[-1] off;PH off"},"geometry":{"type":"Point","coordinates":[121.472431,25.022335]}},{"type":"Feature","properties":{"id":"osm:node:3235293092","name":"中和員山分館","category":"library","opening_hours":"Tu-Sa 08:30-21:00; Su-Mo 08:30-17:00; Th[-1] off; PH off"},"geometry":{"type":"Point","coordinates":[121.474227,25.003286]}},{"type":"Feature","properties":{"id":"osm:node:3457851831","name":"大同圖書閱覽室","category":"library"},"geometry":{"type":"Point","coordinates":[121.499638,24.996129]}},{"type":"Feature","properties":{"id":"osm:node:3500368931","name":"新北市立圖書館板橋國光圖書閱覽室","category":"library","name_en":"Banqiao Guoguang Reading Room, New Taipei City Library","opening_hours":"Tu-Sa 08:30-21:00; Su-Mo 08:30-17:00; PH off; Th[-1] off"},"geometry":{"type":"Point","coordinates":[121.453595,25.020257]}},{"type":"Feature","properties":{"id":"osm:node:3503435953","name":"新北市立圖書館板橋車站低碳智慧圖書館","category":"library","name_en":"Banqiao Station Self-service Library","opening_hours":"Mo-Su 07:00-22:00"},"geometry":{"type":"Point","coordinates":[121.463898,25.014651]}},{"type":"Feature","properties":{"id":"osm:node:3504208016","name":"新北市立圖書館板橋民生圖書閱覽室","category":"library","name_en":"Banqiao Minsheng Reading Room, New Taipei City Library","opening_hours":"Tu-Sa 08:30-21:00; Su-Mo 08:30-17:00; PH off; Th[-1] off"},"geometry":{"type":"Point","coordinates":[121.475829,25.013413]}},{"type":"Feature","properties":{"id":"osm:node:3518458353","name":"松山分館","category":"library","name_en":"Songshan Branch","opening_hours":"Su-Mo 09:00-17:00; Tu-Sa 08:30-21:00; Th[1] off"},"geometry":{"type":"Point","coordinates":[121.576863,25.04977]}},{"type":"Feature","properties":{"id":"osm:node:3540706864","name":"西園分館","category":"library","opening_hours":"Su-Mo 09:00-17:00; Tu-Sa 08:30-21:00"},"geometry":{"type":"Point","coordinates":[121.501742,25.03218]}},{"type":"Feature","properties":{"id":"osm:node:3652889645","name":"百忍圖書館","category":"library"},"geometry":{"type":"Point","coordinates":[121.535459,24.975302]}},{"type":"Feature","properties":{"id":"osm:node:3661063907","name":"振興醫院圖書館","category":"library"},"geometry":{"type":"Point","coordinates":[121.522496,25.11743]}},{"type":"Feature","properties":{"id":"osm:node:3788314206","name":"吉利分館","category":"library"},"geometry":{"type":"Point","coordinates":[121.508437,25.119206]}},{"type":"Feature","properties":{"id":"osm:node:3806467833","name":"三民分館","category":"library","name_en":"Sanmin Branch"},"geometry":{"type":"Point","coordinates":[121.562851,25.059203]}},{"type":"Feature","properties":{"id":"osm:node:3808319919","name":"石牌分館","category":"library"},"geometry":{"type":"Point","coordinates":[121.522668,25.113144]}},{"type":"Feature","properties":{"id":"osm:node:3822530558","name":"市圖秀山民眾閱覽室","category":"library"},"geometry":{"type":"Point","coordinates":[121.493175,25.145585]}},{"type":"Feature","properties":{"id":"osm:node:3851686310","name":"永明民眾閱覽室","category":"library","name_en":"Yongming Neighborhood Reading Room","opening_hours":"Su-Mo 09:00-17:00; Tu-Sa 08:30-21:00"},"geometry":{"type":"Point","coordinates":[121.517568,25.118322]}},{"type":"Feature","properties":{"id":"osm:node:3926526891","name":"天母圖書館","category":"library","name_en":"Tianmu Library","opening_hours":"Tu-Sa 08:30-21:00; Su-Mo 09:00-17:00"},"geometry":{"type":"Point","coordinates":[121.533156,25.123467]}},{"type":"Feature","properties":{"id":"osm:node:4018205777","name":"孫逸仙博士圖書館","category":"library","name_en":"Dr. Sun Yat-Sen Library"},"geometry":{"type":"Point","coordinates":[121.560588,25.040032]}},{"type":"Feature","properties":{"id":"osm:node:4018210622","name":"東區地下街智慧圖書館","category":"library","name_en":"Taipei Public Library East Metro Mall Intelligent Library","opening_hours":"06:00-24:00"},"geometry":{"type":"Point","coordinates":[121.545769,25.041488]}},{"type":"Feature","properties":{"id":"osm:node:4275934490","name":"萬芳民眾閱覽室","category":"library","name_en":"Wanfang Neighborhood Reading Room","opening_hours":"Tu-Sa 08:30-21:00; Su-Mo 09:00-17:00"},"geometry":{"type":"Point","coordinates":[121.56922,25.00222]}},{"type":"Feature","properties":{"id":"osm:node:4447376026","name":"菜寮閱覽室","category":"library"},"geometry":{"type":"Point","coordinates":[121.492693,25.057852]}},{"type":"Feature","properties":{"id":"osm:node:4504820444","name":"民生分館","category":"library"},"geometry":{"type":"Point","coordinates":[121.551463,25.056935]}},{"type":"Feature","properties":{"id":"osm:node:4524863686","name":"六合分館","category":"library"},"geometry":{"type":"Point","coordinates":[121.568838,25.024343]}},{"type":"Feature","properties":{"id":"osm:node:4577549961","name":"北一女中圖書館","category":"library"},"geometry":{"type":"Point","coordinates":[121.513896,25.03793]}},{"type":"Feature","properties":{"id":"osm:node:4631173863","name":"蘆洲長安分館","category":"library","name_en":"Luzhou Chang'an Branch"},"geometry":{"type":"Point","coordinates":[121.46202,25.080683]}},{"type":"Feature","properties":{"id":"osm:node:4631173864","name":"永安圖書館","category":"library"},"geometry":{"type":"Point","coordinates":[121.462646,25.078639]}},{"type":"Feature","properties":{"id":"osm:node:4631196159","name":"永平圖書館","category":"library"},"geometry":{"type":"Point","coordinates":[121.459403,25.0903]}},{"type":"Feature","properties":{"id":"osm:node:4716576276","name":"文山分館","category":"library","opening_hours":"Tu-Sa 08:30-21:00, Su-Mo 09:00-17:00, Th[1] off, PH off"},"geometry":{"type":"Point","coordinates":[121.551469,25.001514]}},{"type":"Feature","properties":{"id":"osm:node:4717603320","name":"安康民眾閱覽室","category":"library","opening_hours":"Su-Mo 09:00-17:00; Tu-Sa 08:30-21:00"},"geometry":{"type":"Point","coordinates":[121.560793,24.987806]}},{"type":"Feature","properties":{"id":"osm:node:4835990323","name":"新北市立圖書館三重南區分館","category":"library","opening_hours":"08:30-21:00"},"geometry":{"type":"Point","coordinates":[121.491642,25.057103]}},{"type":"Feature","properties":{"id":"osm:node:4891511840","name":"中和分館","category":"library"},"geometry":{"type":"Point","coordinates":[121.5065,24.9897]}},{"type":"Feature","properties":{"id":"osm:node:4927508385","name":"後港代辦民眾閱覽室","category":"library"},"geometry":{"type":"Point","coordinates":[121.518068,25.087315]}},{"type":"Feature","properties":{"id":"osm:node:5102415706","name":"更寮國小圖書館(2F)","category":"library"},"geometry":{"type":"Point","coordinates":[121.467613,25.070846]}},{"type":"Feature","properties":{"id":"osm:node:5110489231","name":"建成分館","category":"library","name_en":"Jiancheng Branch","opening_hours":"Tu-Sa 08:30-21:00; Su-Mo 09:00-17:00"},"geometry":{"type":"Point","coordinates":[121.516452,25.056919]}},{"type":"Feature","properties":{"id":"osm:node:5185384566","name":"圖書館","category":"library"},"geometry":{"type":"Point","coordinates":[121.561407,24.973949]}},{"type":"Feature","properties":{"id":"osm:node:5232275043","name":"新北市圖書館汐止自強分館","category":"library"},"geometry":{"type":"Point","coordinates":[121.657094,25.062861]}},{"type":"Feature","properties":{"id":"osm:node:5254601541","name":"延吉民眾閱覽室","category":"library"},"geometry":{"type":"Point","coordinates":[121.555138,25.036457]}},{"type":"Feature","properties":{"id":"osm:node:5266040818","name":"民權圖書館","category":"library"},"geometry":{"type":"Point","coordinates":[121.519851,24.998026]}},{"type":"Feature","properties":{"id":"osm:node:5271075066","name":"新北圖書館深坑分館","category":"library"},"geometry":{"type":"Point","coordinates":[121.615959,25.002619]}},{"type":"Feature","properties":{"id":"osm:node:5316457293","name":"原住民族圖書資訊中心","category":"library"},"geometry":{"type":"Point","coordinates":[121.541199,25.01783]}},{"type":"Feature","properties":{"id":"osm:node:5757678666","name":"圖書文獻大樓","category":"library"},"geometry":{"type":"Point","coordinates":[121.548693,25.100254]}},{"type":"Feature","properties":{"id":"osm:node:5841020143","name":"立法院國會圖書館","category":"library"},"geometry":{"type":"Point","coordinates":[121.520136,25.043212]}},{"type":"Feature","properties":{"id":"osm:node:5843759281","name":"總統府第二局第五科圖書館","category":"library"},"geometry":{"type":"Point","coordinates":[121.511735,25.040486]}},{"type":"Feature","properties":{"id":"osm:node:5920284485","name":"信誼太陽親子館","category":"library"},"geometry":{"type":"Point","coordinates":[121.514971,25.031198]}},{"type":"Feature","properties":{"id":"osm:node:6180749166","name":"圖書館","category":"library"},"geometry":{"type":"Point","coordinates":[121.558535,25.000837]}},{"type":"Feature","properties":{"id":"osm:node:6271626932","name":"南海普陀山慧濟寺附設圖書館","category":"library"},"geometry":{"type":"Point","coordinates":[121.536019,25.126525]}},{"type":"Feature","properties":{"id":"osm:node:6464866185","name":"Lightbox 攝影圖書室","category":"library","opening_hours":"Tu-Sa 13:00-18:00"},"geometry":{"type":"Point","coordinates":[121.53065,25.019761]}},{"type":"Feature","properties":{"id":"osm:node:6700210235","name":"永春分館","category":"library"},"geometry":{"type":"Point","coordinates":[121.577553,25.043102]}},{"type":"Feature","properties":{"id":"osm:node:7080459308","name":"新北市立石碇高中圖書館","category":"library"},"geometry":{"type":"Point","coordinates":[121.643141,25.013476]}},{"type":"Feature","properties":{"id":"osm:node:7105971481","name":"北原會館圖書館","category":"library"},"geometry":{"type":"Point","coordinates":[121.59447,25.053977]}},{"type":"Feature","properties":{"id":"osm:node:7214103893","name":"古亭智慧圖書館","category":"library","opening_hours":"Mo-Su 09:00-21:00"},"geometry":{"type":"Point","coordinates":[121.510437,25.025181]}},{"type":"Feature","properties":{"id":"osm:node:7214103918","name":"延平分館","category":"library","opening_hours":"Su-Mo 09:00-17:00; Tu-Sa 08:30-21:00"},"geometry":{"type":"Point","coordinates":[121.512072,25.059221]}},{"type":"Feature","properties":{"id":"osm:node:7215614322","name":"西中分館","category":"library"},"geometry":{"type":"Point","coordinates":[121.566644,25.085011]}},{"type":"Feature","properties":{"id":"osm:node:7220601355","name":"木柵分館","category":"library","opening_hours":"Tu-Sa 08:30-21:00, Su-Mo 09:00-17:00, Th[1] off, PH off"},"geometry":{"type":"Point","coordinates":[121.569179,24.988586]}},{"type":"Feature","properties":{"id":"osm:node:7221622855","name":"內湖分館","category":"library"},"geometry":{"type":"Point","coordinates":[121.589058,25.069398]}},{"type":"Feature","properties":{"id":"osm:node:7221781609","name":"士林分館臨時替代館","category":"library","name_en":"Shihlin Branch","opening_hours":"Tu-Su 09:00-17:00"},"geometry":{"type":"Point","coordinates":[121.518576,25.095677]}},{"type":"Feature","properties":{"id":"osm:node:7951900082","name":"臺灣高等法院圖書館","category":"library"},"geometry":{"type":"Point","coordinates":[121.512285,25.038089]}},{"type":"Feature","properties":{"id":"osm:node:8042883574","name":"永和忠孝圖書閱覽室","category":"library"},"geometry":{"type":"Point","coordinates":[121.515351,25.016839]}},{"type":"Feature","properties":{"id":"osm:node:8209067401","name":"24k休息室","category":"library"},"geometry":{"type":"Point","coordinates":[121.539554,25.136435]}},{"type":"Feature","properties":{"id":"osm:node:8277501436","name":"龍華民眾閱覽室","category":"library"},"geometry":{"type":"Point","coordinates":[121.58691,25.047551]}},{"type":"Feature","properties":{"id":"osm:node:9151839658","name":"汐止江北分館","category":"library"},"geometry":{"type":"Point","coordinates":[121.654502,25.070086]}},{"type":"Feature","properties":{"id":"osm:node:9151839659","name":"新北市立圖書館汐止分館","category":"library"},"geometry":{"type":"Point","coordinates":[121.658961,25.063825]}},{"type":"Feature","properties":{"id":"osm:node:9151839660","name":"新北市立圖書館汐止橫科圖書閱覽室","category":"library"},"geometry":{"type":"Point","coordinates":[121.620059,25.050571]}},{"type":"Feature","properties":{"id":"osm:node:9566170061","name":"圖書館","category":"library"},"geometry":{"type":"Point","coordinates":[121.51354,25.030847]}},{"type":"Feature","properties":{"id":"osm:node:9750631231","name":"碧湖國小圖書室","category":"library"},"geometry":{"type":"Point","coordinates":[121.591661,25.083954]}},{"type":"Feature","properties":{"id":"osm:node:9750732305","name":"氣象署圖書室","category":"library"},"geometry":{"type":"Point","coordinates":[121.514207,25.037362]}},{"type":"Feature","properties":{"id":"osm:node:9787127632","name":"內湖國小圖書館","category":"library"},"geometry":{"type":"Point","coordinates":[121.579958,25.079386]}},{"type":"Feature","properties":{"id":"osm:node:9787141449","name":"碧湖公園閱覽室","category":"library"},"geometry":{"type":"Point","coordinates":[121.582963,25.082691]}},{"type":"Feature","properties":{"id":"osm:node:9803481364","name":"內湖高工圖書館","category":"library"},"geometry":{"type":"Point","coordinates":[121.575031,25.079774]}},{"type":"Feature","properties":{"id":"osm:node:9803531675","name":"麗山國小圖書室","category":"library"},"geometry":{"type":"Point","coordinates":[121.572523,25.082629]}},{"type":"Feature","properties":{"id":"osm:node:9803531689","name":"麗山國中圖書室","category":"library"},"geometry":{"type":"Point","coordinates":[121.575657,25.081989]}},{"type":"Feature","properties":{"id":"osm:node:9803573464","name":"內湖高中圖書館","category":"library"},"geometry":{"type":"Point","coordinates":[121.587002,25.078362]}},{"type":"Feature","properties":{"id":"osm:node:9803573471","name":"內湖國中圖書館","category":"library"},"geometry":{"type":"Point","coordinates":[121.588987,25.076411]}},{"type":"Feature","properties":{"id":"osm:node:9909363802","name":"臺北市立圖書館社子島智慧圖書館","category":"library"},"geometry":{"type":"Point","coordinates":[121.474596,25.106146]}},{"type":"Feature","properties":{"id":"osm:node:9951940568","name":"永豐閱覽室","category":"library","opening_hours":"Tu-Sa 08:00-21:00, Su-Mo 08:00-17:00"},"geometry":{"type":"Point","coordinates":[121.478277,25.074656]}},{"type":"Feature","properties":{"id":"osm:node:9951940574","name":"興華閱覽室","category":"library","opening_hours":"Tu-Sa 08:00-21:00, Su-Mo 08:00-17:00"},"geometry":{"type":"Point","coordinates":[121.483387,25.060211]}},{"type":"Feature","properties":{"id":"osm:node:9951940608","name":"慈愛閱覽室","category":"library","opening_hours":"Tu-Sa 08:00-21:00, Su-Mo 08:00-17:00"},"geometry":{"type":"Point","coordinates":[121.484972,25.080723]}},{"type":"Feature","properties":{"id":"osm:node:9951944426","name":"聯邦閱覽室","category":"library","opening_hours":"Tu-Sa 08:00-21:00, Su-Mo 08:00-17:00"},"geometry":{"type":"Point","coordinates":[121.483753,25.063918]}},{"type":"Feature","properties":{"id":"osm:node:9951944433","name":"過圳閱覽室","category":"library","opening_hours":"Tu-Sa 08:00-21:00, Su-Mo 08:00-17:00"},"geometry":{"type":"Point","coordinates":[121.488513,25.060238]}},{"type":"Feature","properties":{"id":"osm:node:9951944438","name":"新北市圖書館三重田中分館","category":"library","opening_hours":"Tu-Sa 10:00-19:00"},"geometry":{"type":"Point","coordinates":[121.483071,25.065524]}},{"type":"Feature","properties":{"id":"osm:node:9951944439","name":"五華閱覽室","category":"library","opening_hours":"Tu-Sa 08:00-21:00, Su-Mo 08:00-17:00"},"geometry":{"type":"Point","coordinates":[121.494107,25.0841]}},{"type":"Feature","properties":{"id":"osm:node:9951944452","name":"永福閱覽室","category":"library","opening_hours":"Tu-Sa 08:00-21:00, Su-Mo 08:00-17:00"},"geometry":{"type":"Point","coordinates":[121.480997,25.076824]}},{"type":"Feature","properties":{"id":"osm:node:9951944457","name":"三德閱覽室","category":"library","opening_hours":"Tu-Sa 08:00-21:00, Su-Mo 08:00-17:00"},"geometry":{"type":"Point","coordinates":[121.499235,25.076215]}},{"type":"Feature","properties":{"id":"osm:node:9951944475","name":"慈生閱覽室","category":"library","opening_hours":"Tu-Sa 08:00-21:00, Su-Mo 08:00-17:00"},"geometry":{"type":"Point","coordinates":[121.484488,25.079888]}},{"type":"Feature","properties":{"id":"osm:node:9951944480","name":"龍濱閱覽室","category":"library","opening_hours":"Tu-Sa 08:00-21:00, Su-Mo 08:00-17:00"},"geometry":{"type":"Point","coordinates":[121.502322,25.072841]}},{"type":"Feature","properties":{"id":"osm:node:9951944481","name":"福田閱覽室","category":"library","opening_hours":"Tu-Sa 08:00-21:00, Su-Mo 08:00-17:00"},"geometry":{"type":"Point","coordinates":[121.479697,25.067215]}},{"type":"Feature","properties":{"id":"osm:node:9951944483","name":"六合閱覽室","category":"library","opening_hours":"Tu-Sa 08:00-21:00, Su-Mo 08:00-17:00"},"geometry":{"type":"Point","coordinates":[121.488301,25.069179]}},{"type":"Feature","properties":{"id":"osm:node:9951983714","name":"新北市立圖書館三重培德分館","category":"library"},"geometry":{"type":"Point","coordinates":[121.485966,25.07151]}},{"type":"Feature","properties":{"id":"osm:node:9952019330","name":"新北市立圖書館三重南區分館","category":"library"},"geometry":{"type":"Point","coordinates":[121.491411,25.057124]}},{"type":"Feature","properties":{"id":"osm:node:9952019331","name":"二重埔閱覽室","category":"library","opening_hours":"Tu-Sa 09:00-21:00"},"geometry":{"type":"Point","coordinates":[121.475202,25.066576]}},{"type":"Feature","properties":{"id":"osm:node:9952019340","name":"光興閱覽室","category":"library","opening_hours":"Tu-Sa 09:00-21:00"},"geometry":{"type":"Point","coordinates":[121.499196,25.058601]}},{"type":"Feature","properties":{"id":"osm:node:9952019341","name":"IReading智慧型借還書站","category":"library"},"geometry":{"type":"Point","coordinates":[121.483155,25.055316]}},{"type":"Feature","properties":{"id":"osm:relation:14045849","name":"總圖書館","category":"library","name_en":"NTU Library"},"geometry":{"type":"Point","coordinates":[121.540946,25.017549]}},{"type":"Feature","properties":{"id":"osm:relation:18483136","name":"蔣經國總統圖書館","category":"library","name_en":"Chiang Ching-kuo Presidential Library"},"geometry":{"type":"Point","coordinates":[121.537247,25.078925]}},{"type":"Feature","properties":{"id":"osm:relation:8376918","name":"國家圖書館","category":"library","name_en":"National Central Library","opening_hours":"Tu-Sa 09:00-21:00; Su 09:00-17:00; Mo off"},"geometry":{"type":"Point","coordinates":[121.516584,25.037601]}},{"type":"Feature","properties":{"id":"osm:relation:8986768","name":"圖書館","category":"library","name_en":"NTUST Library"},"geometry":{"type":"Point","coordinates":[121.541208,25.013816]}},{"type":"Feature","properties":{"id":"osm:way:124352121","name":"國立臺灣圖書館","category":"library","name_en":"National Taiwan Library","opening_hours":"Tu-Su 09:00-21:00"},"geometry":{"type":"Point","coordinates":[121.51285,25.001443]}},{"type":"Feature","properties":{"id":"osm:way:127948707","name":"人文社會科學館","category":"library","name_en":"Library of Humanities and Social Sciences"},"geometry":{"type":"Point","coordinates":[121.611393,25.041063]}},{"type":"Feature","properties":{"id":"osm:way:127948734","name":"傅斯年圖書館","category":"library","name_en":"Fu Ssu-nien Library"},"geometry":{"type":"Point","coordinates":[121.61671,25.040445]}},{"type":"Feature","properties":{"id":"osm:way:127950352","name":"歐美所圖書館","category":"library"},"geometry":{"type":"Point","coordinates":[121.61517,25.039633]}},{"type":"Feature","properties":{"id":"osm:way:139123645","name":"圖書館","category":"library"},"geometry":{"type":"Point","coordinates":[121.540096,25.035551]}},{"type":"Feature","properties":{"id":"osm:way:1458308192","name":"松山機場智慧圖書館","category":"library","opening_hours":"Mo-Su,PH 06:00-24:00"},"geometry":{"type":"Point","coordinates":[121.55157,25.06325]}},{"type":"Feature","properties":{"id":"osm:way:168407498","name":"西湖分館","category":"library"},"geometry":{"type":"Point","coordinates":[121.577294,25.078692]}},{"type":"Feature","properties":{"id":"osm:way:205900064","name":"台北市立圖書館總館","category":"library","name_en":"Taipei Main Library","opening_hours":"Su-Mo 09:00-21:00; Tu-Sa 08:30-21:00"},"geometry":{"type":"Point","coordinates":[121.538324,25.029183]}},{"type":"Feature","properties":{"id":"osm:way:206235020","name":"景美分館","category":"library","name_en":"Jingmei Branch","opening_hours":"Tu-Sa 08:30-21:00, Su-Mo 09:00-17:00, Th[1] off, PH off"},"geometry":{"type":"Point","coordinates":[121.5363,25.00364]}},{"type":"Feature","properties":{"id":"osm:way:222657534","name":"中正圖書館","category":"library","name_en":"Main Library"},"geometry":{"type":"Point","coordinates":[121.576367,24.985833]}},{"type":"Feature","properties":{"id":"osm:way:229885664","name":"臺北市立大學圖書館","category":"library"},"geometry":{"type":"Point","coordinates":[121.512886,25.03581]}},{"type":"Feature","properties":{"id":"osm:way:235418149","name":"覺生紀念圖書館","category":"library"},"geometry":{"type":"Point","coordinates":[121.45097,25.174746]}},{"type":"Feature","properties":{"id":"osm:way:238524422","name":"新北市立圖書館永和分館","category":"library"},"geometry":{"type":"Point","coordinates":[121.519938,25.008653]}},{"type":"Feature","properties":{"id":"osm:way:253582198","name":"郭廷以圖書館","category":"library","name_en":"Kuo Ting-yee Library of Institute of Modern History, Academia Sinica"},"geometry":{"type":"Point","coordinates":[121.615237,25.040286]}},{"type":"Feature","properties":{"id":"osm:way:255362758","name":"汐止大同分館","category":"library"},"geometry":{"type":"Point","coordinates":[121.659532,25.068184]}},{"type":"Feature","properties":{"id":"osm:way:256068913","name":"王貫英先生紀念圖書館","category":"library","name_en":"Taipei Public Library Wang Guan-Ying Branch","opening_hours":"Tu-Sa 08:30-21:00, Su-Mo 09:00-17:00, Th[1] off, PH off"},"geometry":{"type":"Point","coordinates":[121.523839,25.022642]}},{"type":"Feature","properties":{"id":"osm:way:256125732","name":"李科永紀念圖書館","category":"library","name_en":"Lee Ko-Yung Memorial Library","opening_hours":"Tu-Sa 08:30-21:00, Su,Mo 09:00-17:00; Th[1] Off; PH Off"},"geometry":{"type":"Point","coordinates":[121.531008,25.095989]}},{"type":"Feature","properties":{"id":"osm:way:256190306","name":"北投分館","category":"library","name_en":"Beitou Branch","opening_hours":"Su-Mo 09:00-17:00; Tu-Sa 08:30-21:00; PH off; Th[1] off"},"geometry":{"type":"Point","coordinates":[121.506251,25.136423]}},{"type":"Feature","properties":{"id":"osm:way:259909294","name":"雨農閱覽室","category":"library","opening_hours":"08:30-16:30"},"geometry":{"type":"Point","coordinates":[121.532855,25.103098]}},{"type":"Feature","properties":{"id":"osm:way:266522567","name":"新北市立圖書館板橋四維分館","category":"library","name_en":"Banqiao Siwei Branch, New Taipei Public Library"},"geometry":{"type":"Point","coordinates":[121.463348,25.025148]}},{"type":"Feature","properties":{"id":"osm:way:268526306","name":"圖書館","category":"library","name_en":"Library"},"geometry":{"type":"Point","coordinates":[121.464192,25.020294]}},{"type":"Feature","properties":{"id":"osm:way:278135912","name":"圖書館","category":"library"},"geometry":{"type":"Point","coordinates":[121.532878,24.975018]}},{"type":"Feature","properties":{"id":"osm:way:278136136","name":"圖書館","category":"library"},"geometry":{"type":"Point","coordinates":[121.477378,24.994324]}},{"type":"Feature","properties":{"id":"osm:way:280671343","name":"太陽圖書館","category":"library"},"geometry":{"type":"Point","coordinates":[121.503651,25.024733]}},{"type":"Feature","properties":{"id":"osm:way:281749491","name":"圖書館","category":"library"},"geometry":{"type":"Point","coordinates":[121.53581,25.056787]}},{"type":"Feature","properties":{"id":"osm:way:283887810","name":"圖書館","category":"library"},"geometry":{"type":"Point","coordinates":[121.534824,25.042911]}},{"type":"Feature","properties":{"id":"osm:way:285682239","name":"圖書館","category":"library"},"geometry":{"type":"Point","coordinates":[121.555586,24.980917]}},{"type":"Feature","properties":{"id":"osm:way:301793536","name":"N棟圖資大樓","category":"library"},"geometry":{"type":"Point","coordinates":[121.545979,25.084748]}},{"type":"Feature","properties":{"id":"osm:way:304780025","name":"大講堂 圖書館 K書中心","category":"library"},"geometry":{"type":"Point","coordinates":[121.577789,25.08566]}},{"type":"Feature","properties":{"id":"osm:way:307155340","name":"大同分館","category":"library","opening_hours":"Tu-Sa 08:30-21:00, Su-Mo 09:00-17:00, Th[1] off, PH off"},"geometry":{"type":"Point","coordinates":[121.513296,25.074272]}},{"type":"Feature","properties":{"id":"osm:way:311536360","name":"辜振甫先生紀念圖書館","category":"library","name_en":"Koo Chen-Fu Memorial Library"},"geometry":{"type":"Point","coordinates":[121.5423,25.020413]}},{"type":"Feature","properties":{"id":"osm:way:316939416","name":"新北市立圖書館板橋分館","category":"library","opening_hours":"Tu-Sa 08:30-21:00; Su-Mo 08:30-17:00; PH off"},"geometry":{"type":"Point","coordinates":[121.457965,25.010697]}},{"type":"Feature","properties":{"id":"osm:way:317123812","name":"新北市立圖書館總館","category":"library","name_en":"New Taipei City Library","opening_hours":"Su-Mo 08:30-17:00; Tu-Sa 08:30-21:00; PH off; Th[-1] off"},"geometry":{"type":"Point","coordinates":[121.455248,25.001423]}},{"type":"Feature","properties":{"id":"osm:way:324901030","name":"圖書館","category":"library","opening_hours":"Mo-Fr 08:00-22:00; Sa,Su 09:00-17:00"},"geometry":{"type":"Point","coordinates":[121.544949,25.02387]}},{"type":"Feature","properties":{"id":"osm:way:337206599","name":"圖書館","category":"library"},"geometry":{"type":"Point","coordinates":[121.450232,24.982712]}},{"type":"Feature","properties":{"id":"osm:way:343372142","name":"舊莊圖書館","category":"library"},"geometry":{"type":"Point","coordinates":[121.619381,25.041391]}},{"type":"Feature","properties":{"id":"osm:way:350932875","name":"青鳥圖書館","category":"library","opening_hours":"Mo-Fr 10:30-18:00"},"geometry":{"type":"Point","coordinates":[121.540847,25.039636]}},{"type":"Feature","properties":{"id":"osm:way:363124306","name":"百齡智慧圖書館","category":"library","opening_hours":"Mo-Fr 16:30-20:50, Sa-Su 09:10-20:50;PH off"},"geometry":{"type":"Point","coordinates":[121.518244,25.086168]}},{"type":"Feature","properties":{"id":"osm:way:393330569","name":"德明財經科技大學圖書二館","category":"library"},"geometry":{"type":"Point","coordinates":[121.565668,25.087631]}},{"type":"Feature","properties":{"id":"osm:way:393330571","name":"明德財經科技大學圖書館","category":"library"},"geometry":{"type":"Point","coordinates":[121.56635,25.086662]}},{"type":"Feature","properties":{"id":"osm:way:400094339","name":"新北市立圖書館板橋忠孝分館","category":"library"},"geometry":{"type":"Point","coordinates":[121.459995,24.997404]}},{"type":"Feature","properties":{"id":"osm:way:404011226","name":"土城清水圖書閱覽室","category":"library"},"geometry":{"type":"Point","coordinates":[121.461462,24.983448]}},{"type":"Feature","properties":{"id":"osm:way:423517916","name":"圖書館","category":"library"},"geometry":{"type":"Point","coordinates":[121.528368,25.086122]}},{"type":"Feature","properties":{"id":"osm:way:426278316","name":"圖書館","category":"library"},"geometry":{"type":"Point","coordinates":[121.520104,25.117779]}},{"type":"Feature","properties":{"id":"osm:way:434455792","name":"新北市立圖書館三重分館","category":"library","opening_hours":"Tu-Sa 08:30-21:00; Su-Mo 08:30-17:00"},"geometry":{"type":"Point","coordinates":[121.49602,25.066024]}},{"type":"Feature","properties":{"id":"osm:way:447796778","name":"新北市立圖書館三重五常分館","category":"library"},"geometry":{"type":"Point","coordinates":[121.496104,25.080778]}},{"type":"Feature","properties":{"id":"osm:way:452650455","name":"行天宮圖書館","category":"library"},"geometry":{"type":"Point","coordinates":[121.547796,25.053752]}},{"type":"Feature","properties":{"id":"osm:way:453933597","name":"中正圖書館","category":"library","name_en":"Soochow University Library"},"geometry":{"type":"Point","coordinates":[121.546451,25.093454]}},{"type":"Feature","properties":{"id":"osm:way:461577525","name":"新北市立圖書館三重崇德分館","category":"library"},"geometry":{"type":"Point","coordinates":[121.497448,25.074506]}},{"type":"Feature","properties":{"id":"osm:way:461697255","name":"圖資大樓","category":"library"},"geometry":{"type":"Point","coordinates":[121.46974,25.134868]}},{"type":"Feature","properties":{"id":"osm:way:487361941","name":"經國紀念圖書館","category":"library","name_en":"Jing Guo Main Library"},"geometry":{"type":"Point","coordinates":[121.605173,25.003949]}},{"type":"Feature","properties":{"id":"osm:way:514836804","name":"總圖書館","category":"library"},"geometry":{"type":"Point","coordinates":[121.45546,24.970107]}},{"type":"Feature","properties":{"id":"osm:way:516743392","name":"後竹圍親子分館","category":"library","opening_hours":"Tu-Sa 08:00-21:00, Su-Mo 08:00-17:00"},"geometry":{"type":"Point","coordinates":[121.491002,25.072405]}},{"type":"Feature","properties":{"id":"osm:way:523993444","name":"圖書資訊大樓","category":"library"},"geometry":{"type":"Point","coordinates":[121.551692,25.101513]}},{"type":"Feature","properties":{"id":"osm:way:527996178","name":"天后宮圖書館","category":"library"},"geometry":{"type":"Point","coordinates":[121.506331,25.042805]}},{"type":"Feature","properties":{"id":"osm:way:539433328","name":"新北市立圖書館汐止北峰圖書閱覽室","category":"library"},"geometry":{"type":"Point","coordinates":[121.631685,25.06395]}},{"type":"Feature","properties":{"id":"osm:way:548483187","name":"行天宮北投分宮圖書室","category":"library"},"geometry":{"type":"Point","coordinates":[121.478297,25.136967]}},{"type":"Feature","properties":{"id":"osm:way:600811108","name":"行天宮親子圖書館","category":"library"},"geometry":{"type":"Point","coordinates":[121.522076,25.05161]}},{"type":"Feature","properties":{"id":"osm:way:636945596","name":"新北圖書館蘆洲兒童親子分館","category":"library","name_en":"New Taipei Library Jixien Branch","opening_hours":"Tu-Sa 08:30-21:00; Su,Mo 08:30-17:00"},"geometry":{"type":"Point","coordinates":[121.483629,25.08589]}},{"type":"Feature","properties":{"id":"osm:way:672483449","name":"達賢圖書館","category":"library","name_en":"Dah Hsian Seetoo Library","opening_hours":"Mo-Sa 08:00-21:30"},"geometry":{"type":"Point","coordinates":[121.578798,24.988398]}},{"type":"Feature","properties":{"id":"osm:way:672483450","name":"湖濱悅讀小屋","category":"library"},"geometry":{"type":"Point","coordinates":[121.579464,24.988557]}},{"type":"Feature","properties":{"id":"osm:way:705235807","name":"龍山分館","category":"library","name_en":"Longshan Branch","opening_hours":"Su-Mo 09:00-17:00; Tu-Sa 08:30-21:00"},"geometry":{"type":"Point","coordinates":[121.502422,25.038575]}},{"type":"Feature","properties":{"id":"osm:way:705365211","name":"南港分館","category":"library","name_en":"Nan-Kang Branch"},"geometry":{"type":"Point","coordinates":[121.608306,25.054945]}},{"type":"Feature","properties":{"id":"osm:way:742828399","name":"圖書館","category":"library"},"geometry":{"type":"Point","coordinates":[121.566929,25.02383]}},{"type":"Feature","properties":{"id":"osm:way:748648039","name":"新北市立圖書館新莊聯合分館","category":"library"},"geometry":{"type":"Point","coordinates":[121.456036,25.047908]}},{"type":"Feature","properties":{"id":"osm:way:762731608","name":"圖書館","category":"library"},"geometry":{"type":"Point","coordinates":[121.502114,25.1437]}},{"type":"Feature","properties":{"id":"osm:way:80317521","name":"東湖分館","category":"library","name_en":"Tung Hu Branch"},"geometry":{"type":"Point","coordinates":[121.612663,25.067302]}},{"type":"Feature","properties":{"id":"osm:way:836631436","name":"林建生紀念圖書館","category":"library"},"geometry":{"type":"Point","coordinates":[121.470202,25.088672]}},{"type":"Feature","properties":{"id":"osm:way:949031805","name":"新北市立圖書館三重東區分館","category":"library"},"geometry":{"type":"Point","coordinates":[121.487782,25.083623]}}]}