{"type":"FeatureCollection","features":[{"type":"Feature","properties":{"id":"osm:node:11050485966","name":"電幻1號所","category":"museum","name_en":"TAIPOWER D/S ONE","opening_hours":"Tu-Su 10:00-18:00"},"geometry":{"type":"Point","coordinates":[121.462001,25.011923]}},{"type":"Feature","properties":{"id":"osm:node:11364376447","name":"華岡博物館","category":"museum","opening_hours":"Mo-Fr 09:00-16:00"},"geometry":{"type":"Point","coordinates":[121.540667,25.137346]}},{"type":"Feature","properties":{"id":"osm:node:12030508379","name":"蒙藏文化中心","category":"museum"},"geometry":{"type":"Point","coordinates":[121.531385,25.027739]}},{"type":"Feature","properties":{"id":"osm:node:12422897258","name":"國家鐵道博物館籌備處","category":"museum","name_en":"National Railway Museum (Preparatory Office)"},"geometry":{"type":"Point","coordinates":[121.564133,25.047401]}},{"type":"Feature","properties":{"id":"osm:node:12462530129","name":"警政署警察史蹟館","category":"museum","opening_hours":"Mo 09:30-11:30; Mo 14:30-17:00; Th 09:30-11:30; Th 14:30-17:00"},"geometry":{"type":"Point","coordinates":[121.522711,25.045413]}},{"type":"Feature","properties":{"id":"osm:node:12571025628","name":"小紅厝月經博物館","category":"museum","name_en":"The Red House Period Museum"},"geometry":{"type":"Point","coordinates":[121.515193,25.074483]}},{"type":"Feature","properties":{"id":"osm:node:12844151311","name":"林森紀念堂","category":"museum"},"geometry":{"type":"Point","coordinates":[121.514954,25.029906]}},{"type":"Feature","properties":{"id":"osm:node:13031722513","name":"東吳大學數位校史館","category":"museum"},"geometry":{"type":"Point","coordinates":[121.546689,25.094076]}},{"type":"Feature","properties":{"id":"osm:node:13146774801","name":"阿嬤家 和平與女性人權館","category":"museum","name_en":"Ama museum","opening_hours":"Tu-Sa 10:00-17:00"},"geometry":{"type":"Point","coordinates":[121.518076,25.06445]}},{"type":"Feature","properties":{"id":"osm:node:1707866516","name":"物理文物廳","category":"museum","name_en":"Physical Heritage Hall"},"geometry":{"type":"Point","coordinates":[121.536057,25.016846]}},{"type":"Feature","properties":{"id":"osm:node:1707866520","name":"台大校史館","category":"museum","name_en":"Gallery of NTU History","opening_hours":"Mo 09:00-17:00, We-Fr 09:00-17:00"},"geometry":{"type":"Point","coordinates":[121.535337,25.017768]}},{"type":"Feature","properties":{"id":"osm:node:1707866538","name":"昆蟲標本館","category":"museum","name_en":"Insect specimen museum"},"geometry":{"type":"Point","coordinates":[121.540771,25.011079]}},{"type":"Feature","properties":{"id":"osm:node:1707866560","name":"動物博物館","category":"museum","name_en":"Animal Museum"},"geometry":{"type":"Point","coordinates":[121.538974,25.015593]}},{"type":"Feature","properties":{"id":"osm:node:1707904027","name":"臺大檔案館","category":"museum","name_en":"National Taiwan University Archives","opening_hours":"Mo-Fr 10:00-16:00"},"geometry":{"type":"Point","coordinates":[121.528732,25.013943]}},{"type":"Feature","properties":{"id":"osm:node:1707904029","name":"人類學博物館","category":"museum","name_en":"Anthropology museum"},"geometry":{"type":"Point","coordinates":[121.534933,25.017795]}},{"type":"Feature","properties":{"id":"osm:node:2166427486","name":"順益台灣原住民博物館","category":"museum","name_en":"Shung Ye Museum of Formosan Aborigines – Fine Arts","opening_hours":"Tu-Su 09:00-17:00"},"geometry":{"type":"Point","coordinates":[121.552037,25.101006]}},{"type":"Feature","properties":{"id":"osm:node:2168537989","name":"成功高中昆蟲館","category":"museum","name_en":"Successful High School Insect Museum"},"geometry":{"type":"Point","coordinates":[121.523231,25.043392]}},{"type":"Feature","properties":{"id":"osm:node:2566814443","name":"袖珍博物館","category":"museum","name_en":"Miniatures Museum of Taiwan","opening_hours":"Tu-Su 10:00-18:00"},"geometry":{"type":"Point","coordinates":[121.536167,25.050286]}},{"type":"Feature","properties":{"id":"osm:node:2577210193","name":"台灣不二衛生套知識館","category":"museum","name_en":"Taiwan Fuji Latex Condoms discovery center","opening_hours":"Mo-Fr 10:00; Mo-Fr 13:00; Mo-Fr 15:00"},"geometry":{"type":"Point","coordinates":[121.455002,25.198614]}},{"type":"Feature","properties":{"id":"osm:node:2577210194","name":"工研益壽多文化館","category":"museum","name_en":"Kong Yen Cultural Museum","opening_hours":"Mo-Fr 09:30-16:00"},"geometry":{"type":"Point","coordinates":[121.455844,25.19988]}},{"type":"Feature","properties":{"id":"osm:node:2613505723","name":"長榮海事博物館","category":"museum","name_en":"Evergreen Maritime Museum","opening_hours":"Tu-Su 09:00-17:00; Mo off"},"geometry":{"type":"Point","coordinates":[121.518756,25.038662]}},{"type":"Feature","properties":{"id":"osm:node:2747384967","name":"鄭南榕自由紀念館","category":"museum","name_en":"Cheng Nan-jung Liberty Museum","opening_hours":"Tu-Sa 10:00-17:00"},"geometry":{"type":"Point","coordinates":[121.545567,25.061535]}},{"type":"Feature","properties":{"id":"osm:node:3200945581","name":"孫運璿科技．人文紀念館","category":"museum","name_en":"Sun Yun-Suan Memorial Museum","opening_hours":"Tu-Su 10:00-17:00"},"geometry":{"type":"Point","coordinates":[121.511522,25.033578]}},{"type":"Feature","properties":{"id":"osm:node:3387890570","name":"政大民族學博物館","category":"museum","name_en":"School of Ethnology, Zhengda University"},"geometry":{"type":"Point","coordinates":[121.573477,24.986196]}},{"type":"Feature","properties":{"id":"osm:node:3509881554","name":"勞工安全衛生展示館","category":"museum","name_en":"Labor Safety and Health Exhibition Hall"},"geometry":{"type":"Point","coordinates":[121.631301,25.050899]}},{"type":"Feature","properties":{"id":"osm:node:3541171395","name":"大同工學院科學博物館","category":"museum","name_en":"Polytechnic Institute of Science Museum"},"geometry":{"type":"Point","coordinates":[121.521523,25.064589]}},{"type":"Feature","properties":{"id":"osm:node:3655111511","name":"石油展示館","category":"museum","name_en":"Oil exhibition hall","opening_hours":"Mo-Fr 09:00-17:00"},"geometry":{"type":"Point","coordinates":[121.569628,25.039456]}},{"type":"Feature","properties":{"id":"osm:node:3750108327","name":"歷史文物陳列館","category":"museum","name_en":"Museum of the Institute of History & Philology","opening_hours":"We, Sa, Su 09:30-16:30"},"geometry":{"type":"Point","coordinates":[121.616373,25.039523]}},{"type":"Feature","properties":{"id":"osm:node:3798720606","name":"鳳甲美術館","category":"museum","name_en":"Hong-gah Museum","opening_hours":"Tu-Su 10:30-17:30; Mo off"},"geometry":{"type":"Point","coordinates":[121.499149,25.125281]}},{"type":"Feature","properties":{"id":"osm:node:4043621677","name":"萬華故事館","category":"museum","name_en":"Wanhua Story House"},"geometry":{"type":"Point","coordinates":[121.506581,25.023929]}},{"type":"Feature","properties":{"id":"osm:node:4076119630","name":"幸福公路館-台灣公路博物館","category":"museum","name_en":"Taiwan Highway Museum","opening_hours":"Mo-Fr 08:30-17:30"},"geometry":{"type":"Point","coordinates":[121.496694,25.026966]}},{"type":"Feature","properties":{"id":"osm:node:4085141426","name":"元智紀念館","category":"museum","name_en":"Yuan Ze Memorial Hall"},"geometry":{"type":"Point","coordinates":[121.4529,25.000271]}},{"type":"Feature","properties":{"id":"osm:node:4213847897","name":"棣慕華牧師紀念館","category":"museum","name_en":"Dr. Charlies E. DeVol Memorial Hall"},"geometry":{"type":"Point","coordinates":[121.542337,25.005514]}},{"type":"Feature","properties":{"id":"osm:node:4335684520","name":"第一銀行行史館","category":"museum","name_en":"First Bank Entomology Museum"},"geometry":{"type":"Point","coordinates":[121.525027,25.049266]}},{"type":"Feature","properties":{"id":"osm:node:4384988658","name":"文錙藝術中心","category":"museum","name_en":"Carrie Chang Fine Arts Center"},"geometry":{"type":"Point","coordinates":[121.452208,25.175007]}},{"type":"Feature","properties":{"id":"osm:node:4828117121","name":"迪化207博物館","category":"museum","opening_hours":"We-Su 10:00-17:30"},"geometry":{"type":"Point","coordinates":[121.509524,25.059514]}},{"type":"Feature","properties":{"id":"osm:node:5162506699","name":"台北探索館","category":"museum","name_en":"Discovery Center of Taipei"},"geometry":{"type":"Point","coordinates":[121.564107,25.037423]}},{"type":"Feature","properties":{"id":"osm:node:5285038117","name":"台灣癌症博物館","category":"museum","name_en":"Taiwan Cancer Museum"},"geometry":{"type":"Point","coordinates":[121.471818,25.129369]}},{"type":"Feature","properties":{"id":"osm:node:5299604451","name":"海關博物館","category":"museum","name_en":"Customs Museum","opening_hours":"Mo-Fr 09:00-17:00 \"group only, by appointment\""},"geometry":{"type":"Point","coordinates":[121.511367,25.050916]}},{"type":"Feature","properties":{"id":"osm:node:5299858017","name":"國立臺灣大學醫學人文博物館","category":"museum","name_en":"National Taiwan University Medical Humanities Museum","opening_hours":"Mo-Fr 09:30-12:00,13:30-16:30; Sa-Su off"},"geometry":{"type":"Point","coordinates":[121.518533,25.039596]}},{"type":"Feature","properties":{"id":"osm:node:5310769995","name":"郵政博物館臺北館","category":"museum","name_en":"Postal Museum Taipei Branch","opening_hours":"Tu-Su 09:00-17:00; Mo, PH off"},"geometry":{"type":"Point","coordinates":[121.5115,25.047008]}},{"type":"Feature","properties":{"id":"osm:node:5318080610","name":"國史館展場","category":"museum","name_en":"National History Museum Exhibition Hall","opening_hours":"Mo-Fr 09:30-16:30; PH off"},"geometry":{"type":"Point","coordinates":[121.510894,25.039868]}},{"type":"Feature","properties":{"id":"osm:node:5372146609","name":"世界宗教博物館","category":"museum","name_en":"Museum of World Religions","opening_hours":"Mo off; Tu-Su 10:00-17:00"},"geometry":{"type":"Point","coordinates":[121.507415,25.007773]}},{"type":"Feature","properties":{"id":"osm:node:5551867524","name":"原住民族文化產業推展中心","category":"museum","name_en":"Aboriginal Cultural Industry Promotion Center"},"geometry":{"type":"Point","coordinates":[121.519426,25.031559]}},{"type":"Feature","properties":{"id":"osm:node:5769531961","name":"紅樹林生態教育館","category":"museum","name_en":"Mangrove Ecological Education Center"},"geometry":{"type":"Point","coordinates":[121.458739,25.154298]}},{"type":"Feature","properties":{"id":"osm:node:6292776085","name":"臺灣漫畫基地","category":"museum","name_en":"Taiwan Comic Base","opening_hours":"Tu-Su 10:00-21:00"},"geometry":{"type":"Point","coordinates":[121.51608,25.050005]}},{"type":"Feature","properties":{"id":"osm:node:6401807457","name":"陳逢顯毫芒雕刻館","category":"museum"},"geometry":{"type":"Point","coordinates":[121.525097,24.961384]}},{"type":"Feature","properties":{"id":"osm:node:6681320988","name":"台灣國家婦女館","category":"museum","name_en":"Taiwan Women's Center","opening_hours":"Mo-Fr 09:00-18:00; PH off"},"geometry":{"type":"Point","coordinates":[121.526923,25.043071]}},{"type":"Feature","properties":{"id":"osm:node:7130046505","name":"新芳春","category":"museum","name_en":"Sin Hong Choon","opening_hours":"Tu-Fr, Su 10:00-19:00; Sa 10:00-21:00"},"geometry":{"type":"Point","coordinates":[121.512607,25.057106]}},{"type":"Feature","properties":{"id":"osm:node:7755276885","name":"智慧化居住空間展示中心","category":"museum","opening_hours":"Tu-Sa 09:00-17:00"},"geometry":{"type":"Point","coordinates":[121.536739,24.998622]}},{"type":"Feature","properties":{"id":"osm:node:9785004774","name":"臺灣銀行文物館","category":"museum","name_en":"Taiwan Bank Museum","opening_hours":"Tu-Fr 09:30-12:00"},"geometry":{"type":"Point","coordinates":[121.511259,25.041415]}},{"type":"Feature","properties":{"id":"osm:relation:11736180","name":"臺北市立美術館","category":"museum","name_en":"Taipei Fine Arts Museum","opening_hours":"Tu-Fr 09:30-17:30, Sa 09:30-20:30, Su 09:30-17:30"},"geometry":{"type":"Point","coordinates":[121.524584,25.072015]}},{"type":"Feature","properties":{"id":"osm:relation:18197028","name":"胡璉故居紀念館","category":"museum","name_en":"Hu-Lien Former Residence Memorial","opening_hours":"Th-Sa 10:00-12:00; Th-Sa 14:00-16:00; PH off"},"geometry":{"type":"Point","coordinates":[121.526609,24.961913]}},{"type":"Feature","properties":{"id":"osm:relation:5721857","name":"國立臺灣博物館 南門園區","category":"museum","name_en":"Nanmen Park of National Taiwan Museum","opening_hours":"Mo-Su 06:00-22:00"},"geometry":{"type":"Point","coordinates":[121.516046,25.033519]}},{"type":"Feature","properties":{"id":"osm:relation:6613336","name":"白色恐怖景美紀念園區","category":"museum","name_en":"National Museum of Human Rights","opening_hours":"Tu-Su 09:00-17:00"},"geometry":{"type":"Point","coordinates":[121.532391,24.987302]}},{"type":"Feature","properties":{"id":"osm:relation:6710338","name":"林安泰古厝","category":"museum","name_en":"Lin An Tai Historical House & Museum"},"geometry":{"type":"Point","coordinates":[121.530398,25.072433]}},{"type":"Feature","properties":{"id":"osm:relation:7875303","name":"國立台灣藝術教育館","category":"museum","name_en":"National Taiwan Arts Education Center"},"geometry":{"type":"Point","coordinates":[121.511951,25.032253]}},{"type":"Feature","properties":{"id":"osm:way:1050624645","name":"台北二二八紀念館","category":"museum","name_en":"Taipei 228 Memorial Museum","opening_hours":"Tu-Su 10:00-17:00; Mo off"},"geometry":{"type":"Point","coordinates":[121.515469,25.040373]}},{"type":"Feature","properties":{"id":"osm:way:1050624691","name":"國立臺灣博物館","category":"museum","name_en":"National Taiwan Museum","opening_hours":"Tu-Su 09:30-17:00, Mo off"},"geometry":{"type":"Point","coordinates":[121.515003,25.042746]}},{"type":"Feature","properties":{"id":"osm:way:1052759757","name":"中正紀念堂","category":"museum","name_en":"Chiang Kai-shek Memorial Hall","opening_hours":"09:00-18:00"},"geometry":{"type":"Point","coordinates":[121.521816,25.034637]}},{"type":"Feature","properties":{"id":"osm:way:1131522120","name":"富邦美術館","category":"museum"},"geometry":{"type":"Point","coordinates":[121.571232,25.039284]}},{"type":"Feature","properties":{"id":"osm:way:1226116241","name":"自來水博物館","category":"museum","name_en":"Museum of Drinking Water","opening_hours":"Jul-Aug 09:00-20:00; Sep-May 09:00-18:00; Mo off"},"geometry":{"type":"Point","coordinates":[121.530069,25.012567]}},{"type":"Feature","properties":{"id":"osm:way:1229841985","name":"腊葉館","category":"museum","name_en":"Herbarium of Taipei Botanical Garden","opening_hours":"We-Su 09:30-16:30; Mo, Tu 00:00-24:00"},"geometry":{"type":"Point","coordinates":[121.508883,25.03178]}},{"type":"Feature","properties":{"id":"osm:way:1266800146","name":"頭廷魁文史館","category":"museum","opening_hours":"Tu 14:00-16:00; PH off"},"geometry":{"type":"Point","coordinates":[121.574197,24.994677]}},{"type":"Feature","properties":{"id":"osm:way:1307044048","name":"美國醫藥助華紀念館 (安齋)","category":"museum","name_en":"The Armstrong Residence (AMBAC Memorial)"},"geometry":{"type":"Point","coordinates":[121.527757,25.016792]}},{"type":"Feature","properties":{"id":"osm:way:1321851971","name":"植物標本館","category":"museum","name_en":"TAI Herbarium"},"geometry":{"type":"Point","coordinates":[121.535192,25.016466]}},{"type":"Feature","properties":{"id":"osm:way:189788192","name":"國父紀念館","category":"museum","name_en":"Sun Yat-sen Memorial Hall","opening_hours":"09:00-18:00"},"geometry":{"type":"Point","coordinates":[121.560292,25.04001]}},{"type":"Feature","properties":{"id":"osm:way:197611922","name":"郵政博物館","category":"museum","name_en":"Postal Museum","opening_hours":"Tu-Su 09:00-17:00; Mo off"},"geometry":{"type":"Point","coordinates":[121.514856,25.0317]}},{"type":"Feature","properties":{"id":"osm:way:197611923","name":"二二八國家紀念館","category":"museum","name_en":"National 228 Memorial Museum","opening_hours":"Tu-Su 10:00-17:00; Mo off"},"geometry":{"type":"Point","coordinates":[121.514033,25.031482]}},{"type":"Feature","properties":{"id":"osm:way:208362644","name":"防災科學教育館","category":"museum","opening_hours":"Tu-Su 09:00-12:00; Tu-Su 14:00-17:00"},"geometry":{"type":"Point","coordinates":[121.59023,25.069405]}},{"type":"Feature","properties":{"id":"osm:way:217690234","name":"台北當代藝術館","category":"museum","name_en":"Museum of Contemporary Art Taipei","opening_hours":"Tu-Su 10:00-18:00"},"geometry":{"type":"Point","coordinates":[121.519027,25.050783]}},{"type":"Feature","properties":{"id":"osm:way:217775994","name":"茶推廣中心","category":"museum","name_en":"Tea Research and Promotion Center","opening_hours":"Tu-Su 09:00-17:00"},"geometry":{"type":"Point","coordinates":[121.594197,24.96907]}},{"type":"Feature","properties":{"id":"osm:way:223069049","name":"凱達格蘭文化館","category":"museum","name_en":"Ketagalan Culture Center","opening_hours":"Tu-Su 09:00-17:00;PH off"},"geometry":{"type":"Point","coordinates":[121.505831,25.137121]}},{"type":"Feature","properties":{"id":"osm:way:235418097","name":"海事博物館","category":"museum","name_en":"The Maritime Museum","opening_hours":"Mo-Sa 09:00-17:00; Su off; PH off"},"geometry":{"type":"Point","coordinates":[121.450415,25.176184]}},{"type":"Feature","properties":{"id":"osm:way:252570490","name":"汐止區文化中心","category":"museum"},"geometry":{"type":"Point","coordinates":[121.659467,25.068383]}},{"type":"Feature","properties":{"id":"osm:way:252994060","name":"臺北當代工藝設計分館","category":"museum"},"geometry":{"type":"Point","coordinates":[121.512299,25.031908]}},{"type":"Feature","properties":{"id":"osm:way:253142536","name":"國立臺灣博物館土銀展示館","category":"museum","name_en":"Taiwan Land Bank Exhibition Hall, National Taiwan Museum","opening_hours":"Tu-Su 09:30-17:00"},"geometry":{"type":"Point","coordinates":[121.514392,25.043675]}},{"type":"Feature","properties":{"id":"osm:way:256161773","name":"關渡美術館","category":"museum"},"geometry":{"type":"Point","coordinates":[121.471499,25.13345]}},{"type":"Feature","properties":{"id":"osm:way:256190307","name":"北投溫泉博物館","category":"museum","name_en":"Beitou Hot Spring Museum","opening_hours":"Tu-Su 09:00-17:00;PH Sa-Su 09:00-17:00;PH off"},"geometry":{"type":"Point","coordinates":[121.507156,25.136594]}},{"type":"Feature","properties":{"id":"osm:way:259077222","name":"紫禁城博物館","category":"museum","name_en":"Luzhou Forbidden City Museum"},"geometry":{"type":"Point","coordinates":[121.473578,25.084094]}},{"type":"Feature","properties":{"id":"osm:way:259697581","name":"農村文物館","category":"museum"},"geometry":{"type":"Point","coordinates":[121.470789,25.029784]}},{"type":"Feature","properties":{"id":"osm:way:259897278","name":"芝山岩文化史蹟公園考古探坑展示館","category":"museum","name_en":"Archaeological Excavations Exhibit Hall at Chih-Shan-Yen Cultural History Park"},"geometry":{"type":"Point","coordinates":[121.532084,25.102244]}},{"type":"Feature","properties":{"id":"osm:way:268533343","name":"蒲添生雕塑紀念館","category":"museum"},"geometry":{"type":"Point","coordinates":[121.524682,25.045435]}},{"type":"Feature","properties":{"id":"osm:way:271367088","name":"國家攝影文化中心（原大阪商船株式會社臺北支店）","category":"museum","name_en":"Former Osaka Shosen Kaisha Taihoku Branch"},"geometry":{"type":"Point","coordinates":[121.514459,25.046634]}},{"type":"Feature","properties":{"id":"osm:way:277518268","name":"國立臺灣博物館鐵道部園區","category":"museum","name_en":"Railway Department Park","opening_hours":"Tu-Su 09:30-17:00"},"geometry":{"type":"Point","coordinates":[121.511029,25.049139]}},{"type":"Feature","properties":{"id":"osm:way:303408848","name":"志生紀念館","category":"museum"},"geometry":{"type":"Point","coordinates":[121.522105,25.067641]}},{"type":"Feature","properties":{"id":"osm:way:310011146","name":"教育中心","category":"museum","name_en":"Education Center"},"geometry":{"type":"Point","coordinates":[121.58207,24.997585]}},{"type":"Feature","properties":{"id":"osm:way:312673212","name":"梁實秋故居","category":"museum"},"geometry":{"type":"Point","coordinates":[121.527877,25.023817]}},{"type":"Feature","properties":{"id":"osm:way:313229276","name":"北師美術館","category":"museum","name_en":"Museum of National Taipei University of Education","opening_hours":"Tu-Su 10:00-18:00"},"geometry":{"type":"Point","coordinates":[121.544385,25.024567]}},{"type":"Feature","properties":{"id":"osm:way:313680586","name":"臺北偶戲館","category":"museum","name_en":"Taipei Puppetry Museum"},"geometry":{"type":"Point","coordinates":[121.561355,25.047749]}},{"type":"Feature","properties":{"id":"osm:way:315852781","name":"臺北市立天文科學教育館","category":"museum","name_en":"Taipei Astronomical Museum","opening_hours":"Tu-Fr 09:00-17:00; Sa 09:00-20:00; PH Mo 09:00-17:00"},"geometry":{"type":"Point","coordinates":[121.518542,25.095978]}},{"type":"Feature","properties":{"id":"osm:way:327088319","name":"國立臺灣科學教育館","category":"museum","name_en":"National Taiwan Science Education Center","opening_hours":"Tu-Fr 09:00-17:00, Sa-Su 09:00-18:00"},"geometry":{"type":"Point","coordinates":[121.516713,25.096127]}},{"type":"Feature","properties":{"id":"osm:way:359397573","name":"地質標本館","category":"museum","name_en":"Geo-specimen Cottage"},"geometry":{"type":"Point","coordinates":[121.537401,25.014496]}},{"type":"Feature","properties":{"id":"osm:way:366421426","name":"芝山岩展示館","category":"museum"},"geometry":{"type":"Point","coordinates":[121.532065,25.10355]}},{"type":"Feature","properties":{"id":"osm:way:372582374","name":"郭子儀紀念堂","category":"museum"},"geometry":{"type":"Point","coordinates":[121.586569,25.079609]}},{"type":"Feature","properties":{"id":"osm:way:376521772","name":"臺灣文學館臺北分館","category":"museum"},"geometry":{"type":"Point","coordinates":[121.526665,25.045247]}},{"type":"Feature","properties":{"id":"osm:way:390780640","name":"王雲五紀念館","category":"museum"},"geometry":{"type":"Point","coordinates":[121.535482,25.024863]}},{"type":"Feature","properties":{"id":"osm:way:39456561","name":"農業陳列館","category":"museum","name_en":"NTU Agricultural Exhibition Hall"},"geometry":{"type":"Point","coordinates":[121.534198,25.018142]}},{"type":"Feature","properties":{"id":"osm:way:399827985","name":"草山行館","category":"museum"},"geometry":{"type":"Point","coordinates":[121.538032,25.154403]}},{"type":"Feature","properties":{"id":"osm:way:413827311","name":"台博小客廳","category":"museum"},"geometry":{"type":"Point","coordinates":[121.513468,25.042815]}},{"type":"Feature","properties":{"id":"osm:way:462816761","name":"撫臺街洋樓","category":"museum","name_en":"Futai Street Mansion","opening_hours":"Mo-Sa 10:00-18:00"},"geometry":{"type":"Point","coordinates":[121.510827,25.046725]}},{"type":"Feature","properties":{"id":"osm:way:478372281","name":"夢想館","category":"museum","name_en":"Pavilion of Dreams"},"geometry":{"type":"Point","coordinates":[121.530912,25.070942]}},{"type":"Feature","properties":{"id":"osm:way:478372848","name":"未來館","category":"museum","name_en":"Pavilion of Future"},"geometry":{"type":"Point","coordinates":[121.53181,25.071433]}},{"type":"Feature","properties":{"id":"osm:way:478372849","name":"天使生活館","category":"museum","name_en":"Pavilion of Angel Life"},"geometry":{"type":"Point","coordinates":[121.53226,25.071099]}},{"type":"Feature","properties":{"id":"osm:way:493281545","name":"新北投火車站舊站房","category":"museum","name_en":"Xinbeitou Historic Station","opening_hours":"Tu-Su 10:00-18:00"},"geometry":{"type":"Point","coordinates":[121.50342,25.136566]}},{"type":"Feature","properties":{"id":"osm:way:524270023","name":"摩耶精舍(張大千紀念館)","category":"museum"},"geometry":{"type":"Point","coordinates":[121.555189,25.102727]}},{"type":"Feature","properties":{"id":"osm:way:536718884","name":"台電北部展示館","category":"museum"},"geometry":{"type":"Point","coordinates":[121.658802,25.206557]}},{"type":"Feature","properties":{"id":"osm:way:543896288","name":"台北市客家文化會館","category":"museum"},"geometry":{"type":"Point","coordinates":[121.543122,25.034548]}},{"type":"Feature","properties":{"id":"osm:way:553687451","name":"國立歷史博物館","category":"museum","name_en":"National Museum of History","opening_hours":"Tu-Su 10:00-18:00"},"geometry":{"type":"Point","coordinates":[121.51117,25.031541]}},{"type":"Feature","properties":{"id":"osm:way:619147380","name":"竹子湖蓬萊米原種田事務所","category":"museum"},"geometry":{"type":"Point","coordinates":[121.539362,25.168289]}},{"type":"Feature","properties":{"id":"osm:way:674019579","name":"樹火紀念紙博物館","category":"museum","name_en":"Tree Fire Memorial Paper Museum","opening_hours":"Mo-Sa 09:30-16:30"},"geometry":{"type":"Point","coordinates":[121.533629,25.04826]}},{"type":"Feature","properties":{"id":"osm:way:699007110","name":"台北圓山公園都市綠化環境教育中心","category":"museum"},"geometry":{"type":"Point","coordinates":[121.521901,25.072467]}},{"type":"Feature","properties":{"id":"osm:way:727261753","name":"石雕博物館","category":"museum"},"geometry":{"type":"Point","coordinates":[121.544957,25.107628]}},{"type":"Feature","properties":{"id":"osm:way:746060239","name":"台灣文學基地","category":"museum","name_en":"Taiwan Literature Base"},"geometry":{"type":"Point","coordinates":[121.528357,25.041389]}},{"type":"Feature","properties":{"id":"osm:way:754342598","name":"臺北市鄉土教育中心","category":"museum","name_en":"Heritage and Culture Education Center of Taipei","opening_hours":"Tu-Su 09:00-17:00"},"geometry":{"type":"Point","coordinates":[121.50313,25.036699]}},{"type":"Feature","properties":{"id":"osm:way:827791918","name":"國立故宮博物院","category":"museum","name_en":"National Palace Museum","opening_hours":"Tu-Su 09:00-17:00"},"geometry":{"type":"Point","coordinates":[121.548787,25.101579]}},{"type":"Feature","properties":{"id":"osm:way:848699560","name":"鄭曼青紀念館","category":"museum"},"geometry":{"type":"Point","coordinates":[121.517559,25.010625]}},{"type":"Feature","properties":{"id":"osm:way:940457325","name":"北投文物館","category":"museum","name_en":"Beitou Museum"},"geometry":{"type":"Point","coordinates":[121.514479,25.138093]}},{"type":"Feature","properties":{"id":"osm:way:948948333","name":"順益台灣原住民博物館美術分館","category":"museum","opening_hours":"Tu-Su 09:00-17:00"},"geometry":{"type":"Point","coordinates":[121.510975,25.046376]}}]}