{"type":"FeatureCollection","features":[{"type":"Feature","properties":{"id":"osm:node:10029223368","name":"七美藥局","category":"pharmacy"},"geometry":{"type":"Point","coordinates":[121.490162,25.052818]}},{"type":"Feature","properties":{"id":"osm:node:10032296948","name":"黎明藥師藥局","category":"pharmacy"},"geometry":{"type":"Point","coordinates":[121.481315,25.079838]}},{"type":"Feature","properties":{"id":"osm:node:10034304032","name":"合康健保藥局","category":"pharmacy"},"geometry":{"type":"Point","coordinates":[121.482353,25.078889]}},{"type":"Feature","properties":{"id":"osm:node:10037456264","name":"大惠藥局","category":"pharmacy"},"geometry":{"type":"Point","coordinates":[121.490812,25.052793]}},{"type":"Feature","properties":{"id":"osm:node:10037456278","name":"三光藥局","category":"pharmacy"},"geometry":{"type":"Point","coordinates":[121.491191,25.05275]}},{"type":"Feature","properties":{"id":"osm:node:10037505001","name":"建芳藥局","category":"pharmacy"},"geometry":{"type":"Point","coordinates":[121.490346,25.053161]}},{"type":"Feature","properties":{"id":"osm:node:10076693809","name":"千大藥局","category":"pharmacy"},"geometry":{"type":"Point","coordinates":[121.521676,24.993948]}},{"type":"Feature","properties":{"id":"osm:node:10076730526","name":"富康活力遠東藥局","category":"pharmacy"},"geometry":{"type":"Point","coordinates":[121.486614,24.998436]}},{"type":"Feature","properties":{"id":"osm:node:10080205729","name":"大信藥局","category":"pharmacy"},"geometry":{"type":"Point","coordinates":[121.525566,25.051685]}},{"type":"Feature","properties":{"id":"osm:node:10239576773","name":"躍獅大同藥局","category":"pharmacy","opening_hours":"Mo-Su 09:00-22:00"},"geometry":{"type":"Point","coordinates":[121.656464,25.064894]}},{"type":"Feature","properties":{"id":"osm:node:10250167577","name":"光環藥局","category":"pharmacy"},"geometry":{"type":"Point","coordinates":[121.480187,25.019475]}},{"type":"Feature","properties":{"id":"osm:node:10261529693","name":"壽安中藥房","category":"pharmacy"},"geometry":{"type":"Point","coordinates":[121.592866,25.084414]}},{"type":"Feature","properties":{"id":"osm:node:10261665377","name":"傑昇藥局","category":"pharmacy"},"geometry":{"type":"Point","coordinates":[121.589075,25.081781]}},{"type":"Feature","properties":{"id":"osm:node:10268953164","name":"品品藥局","category":"pharmacy"},"geometry":{"type":"Point","coordinates":[121.482776,25.020677]}},{"type":"Feature","properties":{"id":"osm:node:10271125756","name":"晴光藥局","category":"pharmacy"},"geometry":{"type":"Point","coordinates":[121.476572,25.016869]}},{"type":"Feature","properties":{"id":"osm:node:10271125780","name":"麗森藥師藥局","category":"pharmacy"},"geometry":{"type":"Point","coordinates":[121.479366,25.015346]}},{"type":"Feature","properties":{"id":"osm:node:10536333055","name":"建祥武昌藥局","category":"pharmacy"},"geometry":{"type":"Point","coordinates":[121.512122,25.044159]}},{"type":"Feature","properties":{"id":"osm:node:10553911603","name":"綠洲藥局","category":"pharmacy"},"geometry":{"type":"Point","coordinates":[121.479235,25.013883]}},{"type":"Feature","properties":{"id":"osm:node:10553916327","name":"信昌藥局","category":"pharmacy"},"geometry":{"type":"Point","coordinates":[121.478874,25.014191]}},{"type":"Feature","properties":{"id":"osm:node:10553916329","name":"正成藥師藥局","category":"pharmacy"},"geometry":{"type":"Point","coordinates":[121.478722,25.015121]}},{"type":"Feature","properties":{"id":"osm:node:10553916330","name":"福勝堂藥局","category":"pharmacy"},"geometry":{"type":"Point","coordinates":[121.479558,25.014867]}},{"type":"Feature","properties":{"id":"osm:node:10553916331","name":"俊昌藥局","category":"pharmacy"},"geometry":{"type":"Point","coordinates":[121.479706,25.012467]}},{"type":"Feature","properties":{"id":"osm:node:10731783820","name":"正向專業藥局","category":"pharmacy"},"geometry":{"type":"Point","coordinates":[121.471784,25.008237]}},{"type":"Feature","properties":{"id":"osm:node:10801472278","name":"365德和蔘茸","category":"pharmacy"},"geometry":{"type":"Point","coordinates":[121.509909,25.057013]}},{"type":"Feature","properties":{"id":"osm:node:10801488097","name":"躍獅藥局","category":"pharmacy"},"geometry":{"type":"Point","coordinates":[121.511651,25.057519]}},{"type":"Feature","properties":{"id":"osm:node:1081855280","name":"吳順安藥局","category":"pharmacy"},"geometry":{"type":"Point","coordinates":[121.534653,25.040059]}},{"type":"Feature","properties":{"id":"osm:node:11004819579","name":"信美藥局","category":"pharmacy"},"geometry":{"type":"Point","coordinates":[121.463803,25.010469]}},{"type":"Feature","properties":{"id":"osm:node:11017158620","name":"漢民藥局","category":"pharmacy"},"geometry":{"type":"Point","coordinates":[121.471926,25.007362]}},{"type":"Feature","properties":{"id":"osm:node:11043977910","name":"光鹽藥局","category":"pharmacy"},"geometry":{"type":"Point","coordinates":[121.474856,25.016059]}},{"type":"Feature","properties":{"id":"osm:node:11043977911","name":"愛美得藥局","category":"pharmacy"},"geometry":{"type":"Point","coordinates":[121.472905,25.015131]}},{"type":"Feature","properties":{"id":"osm:node:11049327162","name":"順儷新板藥局","category":"pharmacy"},"geometry":{"type":"Point","coordinates":[121.469806,25.011782]}},{"type":"Feature","properties":{"id":"osm:node:11061673373","name":"陸品藥局","category":"pharmacy"},"geometry":{"type":"Point","coordinates":[121.460682,25.007369]}},{"type":"Feature","properties":{"id":"osm:node:11220379702","name":"富康藥局","category":"pharmacy"},"geometry":{"type":"Point","coordinates":[121.511436,25.057326]}},{"type":"Feature","properties":{"id":"osm:node:11355878089","name":"慶福藥局","category":"pharmacy"},"geometry":{"type":"Point","coordinates":[121.510427,25.053987]}},{"type":"Feature","properties":{"id":"osm:node:11368558931","name":"康裕藥局","category":"pharmacy","opening_hours":"Mo-Sa 10:10-23:00; Su off"},"geometry":{"type":"Point","coordinates":[121.54255,24.983044]}},{"type":"Feature","properties":{"id":"osm:node:11390928018","name":"西園宏越藥局","category":"pharmacy"},"geometry":{"type":"Point","coordinates":[121.494253,25.027087]}},{"type":"Feature","properties":{"id":"osm:node:11390928021","name":"安聖藥局","category":"pharmacy"},"geometry":{"type":"Point","coordinates":[121.494613,25.027914]}},{"type":"Feature","properties":{"id":"osm:node:11390928022","name":"躍獅西園藥局","category":"pharmacy","opening_hours":"Mo-Su 09:00-22:00"},"geometry":{"type":"Point","coordinates":[121.494537,25.027843]}},{"type":"Feature","properties":{"id":"osm:node:11390928023","name":"大樹藥局","category":"pharmacy","name_en":"Great Tree Pharmacy","brand":"大樹藥局","opening_hours":"09:00-22:00"},"geometry":{"type":"Point","coordinates":[121.493494,25.02698]}},{"type":"Feature","properties":{"id":"osm:node:11390928027","name":"長泰藥局","category":"pharmacy"},"geometry":{"type":"Point","coordinates":[121.494168,25.027533]}},{"type":"Feature","properties":{"id":"osm:node:11390928028","name":"瑞生藥局","category":"pharmacy"},"geometry":{"type":"Point","coordinates":[121.49473,25.028003]}},{"type":"Feature","properties":{"id":"osm:node:11425676400","name":"永康大藥局","category":"pharmacy"},"geometry":{"type":"Point","coordinates":[121.504355,25.038039]}},{"type":"Feature","properties":{"id":"osm:node:11431701931","name":"躍獅京東藥局","category":"pharmacy","name_en":"Yeschain"},"geometry":{"type":"Point","coordinates":[121.56694,25.051126]}},{"type":"Feature","properties":{"id":"osm:node:11493126143","name":"茂安堂參藥號","category":"pharmacy"},"geometry":{"type":"Point","coordinates":[121.542026,25.049067]}},{"type":"Feature","properties":{"id":"osm:node:11496693148","name":"佳龍樂局","category":"pharmacy"},"geometry":{"type":"Point","coordinates":[121.615141,25.045411]}},{"type":"Feature","properties":{"id":"osm:node:11496693150","name":"心心藥局","category":"pharmacy"},"geometry":{"type":"Point","coordinates":[121.615101,25.045518]}},{"type":"Feature","properties":{"id":"osm:node:11559675942","name":"大盛藥局","category":"pharmacy"},"geometry":{"type":"Point","coordinates":[121.510533,25.046423]}},{"type":"Feature","properties":{"id":"osm:node:11626860838","name":"安東藥局","category":"pharmacy"},"geometry":{"type":"Point","coordinates":[121.542524,25.042761]}},{"type":"Feature","properties":{"id":"osm:node:11762544259","name":"永奕藥局","category":"pharmacy"},"geometry":{"type":"Point","coordinates":[121.507715,25.012089]}},{"type":"Feature","properties":{"id":"osm:node:11814016126","name":"康宏安藥局","category":"pharmacy","opening_hours":"Mo-Su 09:00-22:00"},"geometry":{"type":"Point","coordinates":[121.510559,25.013218]}},{"type":"Feature","properties":{"id":"osm:node:11941455072","name":"美滿藥局","category":"pharmacy"},"geometry":{"type":"Point","coordinates":[121.483388,25.060557]}},{"type":"Feature","properties":{"id":"osm:node:12070739255","name":"太醫藥局","category":"pharmacy"},"geometry":{"type":"Point","coordinates":[121.528254,25.025577]}},{"type":"Feature","properties":{"id":"osm:node:12094641145","name":"文昌堂中藥","category":"pharmacy"},"geometry":{"type":"Point","coordinates":[121.641347,25.064361]}},{"type":"Feature","properties":{"id":"osm:node:12094914663","name":"安忻藥局","category":"pharmacy"},"geometry":{"type":"Point","coordinates":[121.642185,25.064312]}},{"type":"Feature","properties":{"id":"osm:node:12094914684","name":"齊豐示範藥局","category":"pharmacy"},"geometry":{"type":"Point","coordinates":[121.642144,25.065566]}},{"type":"Feature","properties":{"id":"osm:node:12094915702","name":"穎又安｜中西｜大藥局","category":"pharmacy"},"geometry":{"type":"Point","coordinates":[121.641635,25.065502]}},{"type":"Feature","properties":{"id":"osm:node:12094915705","name":"同興蔘藥行","category":"pharmacy"},"geometry":{"type":"Point","coordinates":[121.64133,25.064575]}},{"type":"Feature","properties":{"id":"osm:node:12099964653","name":"百源堂大藥局","category":"pharmacy"},"geometry":{"type":"Point","coordinates":[121.53224,25.048613]}},{"type":"Feature","properties":{"id":"osm:node:12213895896","name":"春天藥局","category":"pharmacy"},"geometry":{"type":"Point","coordinates":[121.578453,25.07919]}},{"type":"Feature","properties":{"id":"osm:node:12248645164","name":"大安藥局","category":"pharmacy"},"geometry":{"type":"Point","coordinates":[121.532396,25.041201]}},{"type":"Feature","properties":{"id":"osm:node:12251073751","name":"大樹藥局","category":"pharmacy","name_en":"Great Tree Pharmacy","brand":"大樹藥局"},"geometry":{"type":"Point","coordinates":[121.490518,25.053322]}},{"type":"Feature","properties":{"id":"osm:node:12399499510","name":"富康東湖藥局","category":"pharmacy"},"geometry":{"type":"Point","coordinates":[121.617028,25.069876]}},{"type":"Feature","properties":{"id":"osm:node:12441091705","name":"松本清","category":"pharmacy","name_en":"Matsumoto Kiyoshi","brand":"松本清"},"geometry":{"type":"Point","coordinates":[121.531545,25.111462]}},{"type":"Feature","properties":{"id":"osm:node:12517745840","name":"日藥本鋪","category":"pharmacy"},"geometry":{"type":"Point","coordinates":[121.560464,25.051237]}},{"type":"Feature","properties":{"id":"osm:node:12518556465","name":"杏一醫療用品","category":"pharmacy","name_en":"MedFirst","brand":"杏一醫療用品"},"geometry":{"type":"Point","coordinates":[121.55764,25.050344]}},{"type":"Feature","properties":{"id":"osm:node:12603453947","name":"晶龍藥局","category":"pharmacy"},"geometry":{"type":"Point","coordinates":[121.596117,25.084589]}},{"type":"Feature","properties":{"id":"osm:node:12860417498","name":"杏 一 Medfirst","category":"pharmacy"},"geometry":{"type":"Point","coordinates":[121.546149,25.037145]}},{"type":"Feature","properties":{"id":"osm:node:13082396039","name":"康宜庭興隆藥局","category":"pharmacy"},"geometry":{"type":"Point","coordinates":[121.558942,24.997869]}},{"type":"Feature","properties":{"id":"osm:node:13096109850","name":"佑全保健藥妝","category":"pharmacy"},"geometry":{"type":"Point","coordinates":[121.576273,25.075259]}},{"type":"Feature","properties":{"id":"osm:node:13108188475","name":"廣田藥局","category":"pharmacy"},"geometry":{"type":"Point","coordinates":[121.542232,25.047798]}},{"type":"Feature","properties":{"id":"osm:node:13110842369","name":"大樹藥局","category":"pharmacy","name_en":"Great Tree Pharmacy","brand":"大樹藥局"},"geometry":{"type":"Point","coordinates":[121.45989,25.141139]}},{"type":"Feature","properties":{"id":"osm:node:13131018960","name":"健康人生藥局","category":"pharmacy"},"geometry":{"type":"Point","coordinates":[121.533663,25.014199]}},{"type":"Feature","properties":{"id":"osm:node:13131122549","name":"專品藥局 政大店","category":"pharmacy"},"geometry":{"type":"Point","coordinates":[121.574226,24.987889]}},{"type":"Feature","properties":{"id":"osm:node:13134450093","name":"富康活力藥局","category":"pharmacy"},"geometry":{"type":"Point","coordinates":[121.56941,24.987574]}},{"type":"Feature","properties":{"id":"osm:node:13134450096","name":"人人健保藥局","category":"pharmacy"},"geometry":{"type":"Point","coordinates":[121.568661,24.987865]}},{"type":"Feature","properties":{"id":"osm:node:13134459234","name":"躍獅奕新藥局","category":"pharmacy"},"geometry":{"type":"Point","coordinates":[121.566036,24.982873]}},{"type":"Feature","properties":{"id":"osm:node:13136578090","name":"北一藥師藥局","category":"pharmacy"},"geometry":{"type":"Point","coordinates":[121.564174,24.982362]}},{"type":"Feature","properties":{"id":"osm:node:13136578098","name":"正記中藥 正記生醫","category":"pharmacy"},"geometry":{"type":"Point","coordinates":[121.565105,24.982618]}},{"type":"Feature","properties":{"id":"osm:node:1314186565","name":"南雅藥局","category":"pharmacy"},"geometry":{"type":"Point","coordinates":[121.456185,25.005341]}},{"type":"Feature","properties":{"id":"osm:node:13142340379","name":"美迦藥局","category":"pharmacy"},"geometry":{"type":"Point","coordinates":[121.568676,24.988156]}},{"type":"Feature","properties":{"id":"osm:node:13142341056","name":"宜康藥局","category":"pharmacy"},"geometry":{"type":"Point","coordinates":[121.56863,24.988712]}},{"type":"Feature","properties":{"id":"osm:node:13142341069","name":"保元蔘藥行","category":"pharmacy"},"geometry":{"type":"Point","coordinates":[121.567898,24.988849]}},{"type":"Feature","properties":{"id":"osm:node:13142341074","name":"大樹連鎖藥局","category":"pharmacy"},"geometry":{"type":"Point","coordinates":[121.56766,24.988683]}},{"type":"Feature","properties":{"id":"osm:node:13142341078","name":"杏一醫療用品","category":"pharmacy","name_en":"MedFirst","brand":"杏一醫療用品"},"geometry":{"type":"Point","coordinates":[121.567816,24.98872]}},{"type":"Feature","properties":{"id":"osm:node:13142341105","name":"振大藥局","category":"pharmacy"},"geometry":{"type":"Point","coordinates":[121.569699,24.986848]}},{"type":"Feature","properties":{"id":"osm:node:13172749082","name":"星辰藥局","category":"pharmacy"},"geometry":{"type":"Point","coordinates":[121.463664,25.006516]}},{"type":"Feature","properties":{"id":"osm:node:13227524581","name":"員山春天藥局","category":"pharmacy","opening_hours":"Mo-Su 09:00-22:00"},"geometry":{"type":"Point","coordinates":[121.480953,24.995711]}},{"type":"Feature","properties":{"id":"osm:node:13249455746","name":"國安藥局","category":"pharmacy"},"geometry":{"type":"Point","coordinates":[121.467781,24.990295]}},{"type":"Feature","properties":{"id":"osm:node:13249499262","name":"陽光活力藥局","category":"pharmacy"},"geometry":{"type":"Point","coordinates":[121.467542,24.990216]}},{"type":"Feature","properties":{"id":"osm:node:13264506252","name":"快樂鳥連鎖藥局","category":"pharmacy"},"geometry":{"type":"Point","coordinates":[121.464405,24.988087]}},{"type":"Feature","properties":{"id":"osm:node:13279186255","name":"健暉藥局","category":"pharmacy"},"geometry":{"type":"Point","coordinates":[121.482872,24.995557]}},{"type":"Feature","properties":{"id":"osm:node:13279193695","name":"中和-良安藥局","category":"pharmacy","opening_hours":"Mo-Su 10:00-20:00"},"geometry":{"type":"Point","coordinates":[121.483232,24.995541]}},{"type":"Feature","properties":{"id":"osm:node:13279194647","name":"正陽藥師藥局","category":"pharmacy","opening_hours":"Mo-Su 10:00-20:00"},"geometry":{"type":"Point","coordinates":[121.482185,24.995526]}},{"type":"Feature","properties":{"id":"osm:node:13289012559","name":"大豐藥局","category":"pharmacy","opening_hours":"Mo-Sa 09:00-22:00; Su 09:30-21:00"},"geometry":{"type":"Point","coordinates":[121.541495,24.980517]}},{"type":"Feature","properties":{"id":"osm:node:13418592201","name":"專品藥局","category":"pharmacy","opening_hours":"Mo-Su 08:30-22:30"},"geometry":{"type":"Point","coordinates":[121.505117,25.040593]}},{"type":"Feature","properties":{"id":"osm:node:13523737907","name":"博昱師大藥局","category":"pharmacy"},"geometry":{"type":"Point","coordinates":[121.528075,25.021071]}},{"type":"Feature","properties":{"id":"osm:node:13609305379","name":"耀生中西藥局","category":"pharmacy","opening_hours":"09:00-21:30"},"geometry":{"type":"Point","coordinates":[121.543125,24.979743]}},{"type":"Feature","properties":{"id":"osm:node:13634373451","name":"廣欣藥局","category":"pharmacy"},"geometry":{"type":"Point","coordinates":[121.471022,25.031418]}},{"type":"Feature","properties":{"id":"osm:node:13707859725","name":"富康活力藥局","category":"pharmacy"},"geometry":{"type":"Point","coordinates":[121.656213,25.064995]}},{"type":"Feature","properties":{"id":"osm:node:13707874369","name":"江北藥局","category":"pharmacy"},"geometry":{"type":"Point","coordinates":[121.655717,25.06787]}},{"type":"Feature","properties":{"id":"osm:node:13728730745","name":"康荃優生保健藥局","category":"pharmacy","opening_hours":"Mo-Sa 09:00-21:30"},"geometry":{"type":"Point","coordinates":[121.49937,25.004939]}},{"type":"Feature","properties":{"id":"osm:node:13792884877","name":"星安藥局","category":"pharmacy"},"geometry":{"type":"Point","coordinates":[121.540676,25.060833]}},{"type":"Feature","properties":{"id":"osm:node:13930612517","name":"南星西藥房","category":"pharmacy"},"geometry":{"type":"Point","coordinates":[121.492845,25.060255]}},{"type":"Feature","properties":{"id":"osm:node:13961919674","name":"全民藥局","category":"pharmacy"},"geometry":{"type":"Point","coordinates":[121.474294,25.081069]}},{"type":"Feature","properties":{"id":"osm:node:13961919676","name":"朝安堂蔘藥行","category":"pharmacy"},"geometry":{"type":"Point","coordinates":[121.474336,25.080992]}},{"type":"Feature","properties":{"id":"osm:node:13961919687","name":"弘大藥局","category":"pharmacy"},"geometry":{"type":"Point","coordinates":[121.473439,25.078978]}},{"type":"Feature","properties":{"id":"osm:node:1398644385","name":"大樹藥局","category":"pharmacy","name_en":"Great Tree Pharmacy","brand":"大樹藥局","opening_hours":"09:00-22:00"},"geometry":{"type":"Point","coordinates":[121.47261,25.006547]}},{"type":"Feature","properties":{"id":"osm:node:13997746294","name":"純德藥行","category":"pharmacy"},"geometry":{"type":"Point","coordinates":[121.53208,25.048359]}},{"type":"Feature","properties":{"id":"osm:node:14026354101","name":"信福中藥房","category":"pharmacy"},"geometry":{"type":"Point","coordinates":[121.467939,24.986401]}},{"type":"Feature","properties":{"id":"osm:node:14115395902","name":"丁丁連鎖藥局","category":"pharmacy"},"geometry":{"type":"Point","coordinates":[121.463489,25.000573]}},{"type":"Feature","properties":{"id":"osm:node:1411751368","name":"長青連鎖藥局","category":"pharmacy","name_en":"Ever Green Ever Young","brand":"長青連鎖藥局"},"geometry":{"type":"Point","coordinates":[121.463485,24.996731]}},{"type":"Feature","properties":{"id":"osm:node:1720016590","name":"大直永安藥局","category":"pharmacy"},"geometry":{"type":"Point","coordinates":[121.548246,25.080865]}},{"type":"Feature","properties":{"id":"osm:node:1720016594","name":"大直健康藥局","category":"pharmacy"},"geometry":{"type":"Point","coordinates":[121.548629,25.081974]}},{"type":"Feature","properties":{"id":"osm:node:1735966197","name":"信康藥局","category":"pharmacy"},"geometry":{"type":"Point","coordinates":[121.518549,25.02957]}},{"type":"Feature","properties":{"id":"osm:node:1735966198","name":"健康人生藥局","category":"pharmacy"},"geometry":{"type":"Point","coordinates":[121.518737,25.029345]}},{"type":"Feature","properties":{"id":"osm:node:1818561593","name":"康是美","category":"pharmacy","name_en":"COSMED","brand":"康是美"},"geometry":{"type":"Point","coordinates":[121.461322,24.996105]}},{"type":"Feature","properties":{"id":"osm:node:1937532106","name":"屈臣氏","category":"pharmacy","name_en":"Watsons","brand":"屈臣氏"},"geometry":{"type":"Point","coordinates":[121.524119,25.094735]}},{"type":"Feature","properties":{"id":"osm:node:1944251046","name":"富宥康","category":"pharmacy","name_en":"A/B Set Pharmacy"},"geometry":{"type":"Point","coordinates":[121.549669,25.082611]}},{"type":"Feature","properties":{"id":"osm:node:2090614024","name":"屈臣氏","category":"pharmacy","name_en":"Watsons","brand":"屈臣氏"},"geometry":{"type":"Point","coordinates":[121.541562,24.971862]}},{"type":"Feature","properties":{"id":"osm:node:2282744460","name":"屈臣氏","category":"pharmacy","name_en":"Watsons","brand":"屈臣氏"},"geometry":{"type":"Point","coordinates":[121.557236,25.029568]}},{"type":"Feature","properties":{"id":"osm:node:2287877543","name":"健園藥局","category":"pharmacy"},"geometry":{"type":"Point","coordinates":[121.616649,25.05403]}},{"type":"Feature","properties":{"id":"osm:node:2297905951","name":"安安藥局","category":"pharmacy"},"geometry":{"type":"Point","coordinates":[121.591837,25.080267]}},{"type":"Feature","properties":{"id":"osm:node:2300974263","name":"專家牙醫","category":"pharmacy"},"geometry":{"type":"Point","coordinates":[121.592703,25.079982]}},{"type":"Feature","properties":{"id":"osm:node:2306318175","name":"杏一藥局","category":"pharmacy"},"geometry":{"type":"Point","coordinates":[121.55754,24.999093]}},{"type":"Feature","properties":{"id":"osm:node:2307156605","name":"康菱藥局","category":"pharmacy"},"geometry":{"type":"Point","coordinates":[121.592154,25.082755]}},{"type":"Feature","properties":{"id":"osm:node:2307723080","name":"屈臣氏","category":"pharmacy","name_en":"Watsons","brand":"屈臣氏"},"geometry":{"type":"Point","coordinates":[121.566689,24.988637]}},{"type":"Feature","properties":{"id":"osm:node:2313917285","name":"傳統療法","category":"pharmacy"},"geometry":{"type":"Point","coordinates":[121.592731,25.080585]}},{"type":"Feature","properties":{"id":"osm:node:2313983440","name":"早安元氣藥局","category":"pharmacy"},"geometry":{"type":"Point","coordinates":[121.592176,25.081736]}},{"type":"Feature","properties":{"id":"osm:node:2355618177","name":"康宜庭市公所藥局","category":"pharmacy"},"geometry":{"type":"Point","coordinates":[121.54094,24.96697]}},{"type":"Feature","properties":{"id":"osm:node:2355618202","name":"美康藥妝藥局","category":"pharmacy"},"geometry":{"type":"Point","coordinates":[121.540908,24.966901]}},{"type":"Feature","properties":{"id":"osm:node:2383980628","name":"健業藥局","category":"pharmacy"},"geometry":{"type":"Point","coordinates":[121.528093,25.022646]}},{"type":"Feature","properties":{"id":"osm:node:2392257347","name":"富康活力藥局","category":"pharmacy"},"geometry":{"type":"Point","coordinates":[121.534985,25.0602]}},{"type":"Feature","properties":{"id":"osm:node:2392257348","name":"順泰藥局","category":"pharmacy"},"geometry":{"type":"Point","coordinates":[121.534748,25.060174]}},{"type":"Feature","properties":{"id":"osm:node:2399354857","name":"康宜庭景文藥局","category":"pharmacy"},"geometry":{"type":"Point","coordinates":[121.541308,24.990939]}},{"type":"Feature","properties":{"id":"osm:node:2415942442","name":"泰佑藥局","category":"pharmacy"},"geometry":{"type":"Point","coordinates":[121.551536,25.030112]}},{"type":"Feature","properties":{"id":"osm:node:2440534639","name":"丹華藥房","category":"pharmacy"},"geometry":{"type":"Point","coordinates":[121.500464,25.036898]}},{"type":"Feature","properties":{"id":"osm:node:2462837712","name":"博揚藥局","category":"pharmacy"},"geometry":{"type":"Point","coordinates":[121.54437,24.992696]}},{"type":"Feature","properties":{"id":"osm:node:2470166169","name":"正升藥局","category":"pharmacy"},"geometry":{"type":"Point","coordinates":[121.540741,24.986486]}},{"type":"Feature","properties":{"id":"osm:node:2514660913","name":"九福藥局","category":"pharmacy"},"geometry":{"type":"Point","coordinates":[121.508084,25.126143]}},{"type":"Feature","properties":{"id":"osm:node:2529515876","name":"裕康藥局","category":"pharmacy"},"geometry":{"type":"Point","coordinates":[121.546202,24.98667]}},{"type":"Feature","properties":{"id":"osm:node:2529515915","name":"勤習堂","category":"pharmacy"},"geometry":{"type":"Point","coordinates":[121.546266,24.986687]}},{"type":"Feature","properties":{"id":"osm:node:2536516055","name":"樂福健保藥局","category":"pharmacy"},"geometry":{"type":"Point","coordinates":[121.45758,25.0495]}},{"type":"Feature","properties":{"id":"osm:node:2566814444","name":"長安藥局","category":"pharmacy"},"geometry":{"type":"Point","coordinates":[121.541704,25.048397]}},{"type":"Feature","properties":{"id":"osm:node:2572568013","name":"元昌藥房","category":"pharmacy"},"geometry":{"type":"Point","coordinates":[121.541237,25.0478]}},{"type":"Feature","properties":{"id":"osm:node:2598572997","name":"健康人生藥局","category":"pharmacy"},"geometry":{"type":"Point","coordinates":[121.557268,24.999261]}},{"type":"Feature","properties":{"id":"osm:node:2625638971","name":"信隆大藥局","category":"pharmacy"},"geometry":{"type":"Point","coordinates":[121.514911,24.963809]}},{"type":"Feature","properties":{"id":"osm:node:2630778753","name":"信隆大藥局","category":"pharmacy","name_en":"Shin Long Pharmacy"},"geometry":{"type":"Point","coordinates":[121.511795,24.991706]}},{"type":"Feature","properties":{"id":"osm:node:2656074185","name":"健康人生藥局","category":"pharmacy"},"geometry":{"type":"Point","coordinates":[121.566232,25.052055]}},{"type":"Feature","properties":{"id":"osm:node:2721068701","name":"裕和藥局","category":"pharmacy"},"geometry":{"type":"Point","coordinates":[121.500721,25.029586]}},{"type":"Feature","properties":{"id":"osm:node:2756655317","name":"立赫景福藥局","category":"pharmacy"},"geometry":{"type":"Point","coordinates":[121.516971,25.044878]}},{"type":"Feature","properties":{"id":"osm:node:2782015577","name":"順天堂藥局","category":"pharmacy"},"geometry":{"type":"Point","coordinates":[121.517117,25.045452]}},{"type":"Feature","properties":{"id":"osm:node:2799084315","name":"躍獅藥局","category":"pharmacy"},"geometry":{"type":"Point","coordinates":[121.592639,25.081587]}},{"type":"Feature","properties":{"id":"osm:node:2806281120","name":"大內湖藥局","category":"pharmacy"},"geometry":{"type":"Point","coordinates":[121.59106,25.081071]}},{"type":"Feature","properties":{"id":"osm:node:2806281128","name":"康是美","category":"pharmacy"},"geometry":{"type":"Point","coordinates":[121.592431,25.082346]}},{"type":"Feature","properties":{"id":"osm:node:2806281131","name":"屈臣氏","category":"pharmacy","name_en":"Watsons","brand":"屈臣氏"},"geometry":{"type":"Point","coordinates":[121.592034,25.082034]}},{"type":"Feature","properties":{"id":"osm:node:2815096231","name":"思恩藥局","category":"pharmacy"},"geometry":{"type":"Point","coordinates":[121.593127,25.081207]}},{"type":"Feature","properties":{"id":"osm:node:2816066945","name":"聖拱堂中藥舖","category":"pharmacy"},"geometry":{"type":"Point","coordinates":[121.591731,25.080316]}},{"type":"Feature","properties":{"id":"osm:node:2816066957","name":"安信中藥","category":"pharmacy"},"geometry":{"type":"Point","coordinates":[121.591599,25.080374]}},{"type":"Feature","properties":{"id":"osm:node:2822123545","name":"維安藥局","category":"pharmacy"},"geometry":{"type":"Point","coordinates":[121.590534,25.081547]}},{"type":"Feature","properties":{"id":"osm:node:2822549350","name":"樂活藥師藥局","category":"pharmacy"},"geometry":{"type":"Point","coordinates":[121.591031,25.08223]}},{"type":"Feature","properties":{"id":"osm:node:2822549362","name":"杏一","category":"pharmacy"},"geometry":{"type":"Point","coordinates":[121.590376,25.081976]}},{"type":"Feature","properties":{"id":"osm:node:2822549368","name":"東邦西藥房","category":"pharmacy"},"geometry":{"type":"Point","coordinates":[121.590443,25.082094]}},{"type":"Feature","properties":{"id":"osm:node:2822583082","name":"桔子藥局","category":"pharmacy"},"geometry":{"type":"Point","coordinates":[121.591404,25.082941]}},{"type":"Feature","properties":{"id":"osm:node:2839793654","name":"赫爾藥局","category":"pharmacy","name_en":"Heal Pharmacy","opening_hours":"Mo-Sa 09:00-22:00; Su off"},"geometry":{"type":"Point","coordinates":[121.542018,24.980712]}},{"type":"Feature","properties":{"id":"osm:node:2850324302","name":"札幌藥妝","category":"pharmacy"},"geometry":{"type":"Point","coordinates":[121.505348,25.045136]}},{"type":"Feature","properties":{"id":"osm:node:2949647952","name":"麗恩藥局","category":"pharmacy"},"geometry":{"type":"Point","coordinates":[121.525859,25.065294]}},{"type":"Feature","properties":{"id":"osm:node:2987200648","name":"鼎泰健保藥局","category":"pharmacy"},"geometry":{"type":"Point","coordinates":[121.565313,25.042184]}},{"type":"Feature","properties":{"id":"osm:node:3019724713","name":"生德堂中西藥行","category":"pharmacy"},"geometry":{"type":"Point","coordinates":[121.615241,25.053401]}},{"type":"Feature","properties":{"id":"osm:node:3133613726","name":"慈航藥局","category":"pharmacy"},"geometry":{"type":"Point","coordinates":[121.524548,25.094817]}},{"type":"Feature","properties":{"id":"osm:node:3156215165","name":"忠春蔘藥行","category":"pharmacy"},"geometry":{"type":"Point","coordinates":[121.450503,25.045411]}},{"type":"Feature","properties":{"id":"osm:node:3182109607","name":"欣安藥局","category":"pharmacy"},"geometry":{"type":"Point","coordinates":[121.541423,24.991338]}},{"type":"Feature","properties":{"id":"osm:node:3182274369","name":"永世安中藥行","category":"pharmacy"},"geometry":{"type":"Point","coordinates":[121.451617,25.045564]}},{"type":"Feature","properties":{"id":"osm:node:3182310123","name":"全安藥房","category":"pharmacy"},"geometry":{"type":"Point","coordinates":[121.525808,25.030233]}},{"type":"Feature","properties":{"id":"osm:node:3186011782","name":"日藥本舖","category":"pharmacy","name_en":"jp medical","brand":"日藥本舖"},"geometry":{"type":"Point","coordinates":[121.51927,25.052633]}},{"type":"Feature","properties":{"id":"osm:node:3196847500","name":"杏一","category":"pharmacy"},"geometry":{"type":"Point","coordinates":[121.546471,25.048311]}},{"type":"Feature","properties":{"id":"osm:node:3212444658","name":"躍獅藥局","category":"pharmacy"},"geometry":{"type":"Point","coordinates":[121.509231,24.998592]}},{"type":"Feature","properties":{"id":"osm:node:3232486050","name":"佳德健保藥局","category":"pharmacy"},"geometry":{"type":"Point","coordinates":[121.611553,25.070575]}},{"type":"Feature","properties":{"id":"osm:node:3232509984","name":"宜昇藥局","category":"pharmacy"},"geometry":{"type":"Point","coordinates":[121.611806,25.070793]}},{"type":"Feature","properties":{"id":"osm:node:3328449213","name":"何德昌藥局","category":"pharmacy"},"geometry":{"type":"Point","coordinates":[121.490623,24.996224]}},{"type":"Feature","properties":{"id":"osm:node:3416180938","name":"田邊藥局","category":"pharmacy"},"geometry":{"type":"Point","coordinates":[121.499132,24.999377]}},{"type":"Feature","properties":{"id":"osm:node:3416263829","name":"圓通西藥房","category":"pharmacy"},"geometry":{"type":"Point","coordinates":[121.500054,24.997188]}},{"type":"Feature","properties":{"id":"osm:node:3417501602","name":"顧藥局","category":"pharmacy"},"geometry":{"type":"Point","coordinates":[121.498369,24.995807]}},{"type":"Feature","properties":{"id":"osm:node:3417501604","name":"悅聖藥局","category":"pharmacy"},"geometry":{"type":"Point","coordinates":[121.498398,24.995688]}},{"type":"Feature","properties":{"id":"osm:node:3424566632","name":"冠品藥師藥局","category":"pharmacy"},"geometry":{"type":"Point","coordinates":[121.496261,24.999375]}},{"type":"Feature","properties":{"id":"osm:node:3424566641","name":"彰和蔘藥行","category":"pharmacy"},"geometry":{"type":"Point","coordinates":[121.495585,24.998435]}},{"type":"Feature","properties":{"id":"osm:node:3424566642","name":"慈鴻堂蔘藥行","category":"pharmacy"},"geometry":{"type":"Point","coordinates":[121.496294,24.999418]}},{"type":"Feature","properties":{"id":"osm:node:3424566644","name":"立健健保特約藥局","category":"pharmacy"},"geometry":{"type":"Point","coordinates":[121.489272,24.996013]}},{"type":"Feature","properties":{"id":"osm:node:3424888990","name":"光田藥局","category":"pharmacy"},"geometry":{"type":"Point","coordinates":[121.498209,25.001973]}},{"type":"Feature","properties":{"id":"osm:node:3440708506","name":"健星藥局","category":"pharmacy"},"geometry":{"type":"Point","coordinates":[121.496463,25.004634]}},{"type":"Feature","properties":{"id":"osm:node:3440914201","name":"一安藥妝藥局","category":"pharmacy"},"geometry":{"type":"Point","coordinates":[121.499741,25.002221]}},{"type":"Feature","properties":{"id":"osm:node:3444854809","name":"大樹藥局","category":"pharmacy","name_en":"Great Tree Pharmacy","brand":"大樹藥局","opening_hours":"09:00-22:30"},"geometry":{"type":"Point","coordinates":[121.540442,24.992475]}},{"type":"Feature","properties":{"id":"osm:node:3463196815","name":"福雄藥局","category":"pharmacy"},"geometry":{"type":"Point","coordinates":[121.502608,24.994666]}},{"type":"Feature","properties":{"id":"osm:node:3463230924","name":"慶源蔘藥行國術館","category":"pharmacy"},"geometry":{"type":"Point","coordinates":[121.500113,24.997051]}},{"type":"Feature","properties":{"id":"osm:node:3464721412","name":"美佳藥局","category":"pharmacy"},"geometry":{"type":"Point","coordinates":[121.502609,24.995872]}},{"type":"Feature","properties":{"id":"osm:node:3464721416","name":"詠邑藥局","category":"pharmacy"},"geometry":{"type":"Point","coordinates":[121.503779,24.996668]}},{"type":"Feature","properties":{"id":"osm:node:3465503374","name":"九崧藥局","category":"pharmacy"},"geometry":{"type":"Point","coordinates":[121.502933,24.995742]}},{"type":"Feature","properties":{"id":"osm:node:3492626238","name":"三華藥局","category":"pharmacy"},"geometry":{"type":"Point","coordinates":[121.499645,24.993852]}},{"type":"Feature","properties":{"id":"osm:node:3597899314","name":"大樹藥局","category":"pharmacy","name_en":"Great Tree Pharmacy","brand":"大樹藥局","opening_hours":"09:00-22:00"},"geometry":{"type":"Point","coordinates":[121.50745,25.034744]}},{"type":"Feature","properties":{"id":"osm:node:3620984004","name":"如生參藥行","category":"pharmacy"},"geometry":{"type":"Point","coordinates":[121.543819,24.999537]}},{"type":"Feature","properties":{"id":"osm:node:3627318130","name":"杏-醫療用品","category":"pharmacy","name_en":"MedFirst","brand":"杏-醫療用品","opening_hours":"09:00-22:00"},"geometry":{"type":"Point","coordinates":[121.570594,25.00127]}},{"type":"Feature","properties":{"id":"osm:node:3631514151","name":"屈臣氏","category":"pharmacy","name_en":"Watsons","brand":"屈臣氏"},"geometry":{"type":"Point","coordinates":[121.510919,25.002574]}},{"type":"Feature","properties":{"id":"osm:node:3664788328","name":"佳頤中西醫藥局","category":"pharmacy"},"geometry":{"type":"Point","coordinates":[121.532339,25.054928]}},{"type":"Feature","properties":{"id":"osm:node:3687762585","name":"世中欣健保藥局","category":"pharmacy"},"geometry":{"type":"Point","coordinates":[121.529547,25.03314]}},{"type":"Feature","properties":{"id":"osm:node:3695581477","name":"耀獅藥局","category":"pharmacy"},"geometry":{"type":"Point","coordinates":[121.544295,24.969888]}},{"type":"Feature","properties":{"id":"osm:node:3704216626","name":"惠友藥局","category":"pharmacy"},"geometry":{"type":"Point","coordinates":[121.531451,25.054432]}},{"type":"Feature","properties":{"id":"osm:node:3704355302","name":"中一藥局","category":"pharmacy"},"geometry":{"type":"Point","coordinates":[121.553074,25.024256]}},{"type":"Feature","properties":{"id":"osm:node:3720429049","name":"大樹藥局","category":"pharmacy","name_en":"Great Tree Pharmacy","brand":"大樹藥局"},"geometry":{"type":"Point","coordinates":[121.497158,25.064141]}},{"type":"Feature","properties":{"id":"osm:node:3721407942","name":"協成中藥行","category":"pharmacy"},"geometry":{"type":"Point","coordinates":[121.540983,25.028443]}},{"type":"Feature","properties":{"id":"osm:node:3721407943","name":"廣生堂","category":"pharmacy"},"geometry":{"type":"Point","coordinates":[121.540951,25.028401]}},{"type":"Feature","properties":{"id":"osm:node:3725463405","name":"中華西藥房","category":"pharmacy"},"geometry":{"type":"Point","coordinates":[121.513834,25.042212]}},{"type":"Feature","properties":{"id":"osm:node:3728639540","name":"同心堂蔘藥行","category":"pharmacy"},"geometry":{"type":"Point","coordinates":[121.554281,25.029846]}},{"type":"Feature","properties":{"id":"osm:node:3730158025","name":"義隆西藥房","category":"pharmacy"},"geometry":{"type":"Point","coordinates":[121.541522,24.993559]}},{"type":"Feature","properties":{"id":"osm:node:3731616068","name":"春臨堂蔘藥行","category":"pharmacy"},"geometry":{"type":"Point","coordinates":[121.548008,24.997537]}},{"type":"Feature","properties":{"id":"osm:node:3748632788","name":"萬春堂藥房","category":"pharmacy"},"geometry":{"type":"Point","coordinates":[121.539619,25.026627]}},{"type":"Feature","properties":{"id":"osm:node:3767530298","name":"景美藥局","category":"pharmacy"},"geometry":{"type":"Point","coordinates":[121.541221,24.990315]}},{"type":"Feature","properties":{"id":"osm:node:3811140294","name":"逸全生活藥局","category":"pharmacy"},"geometry":{"type":"Point","coordinates":[121.53876,25.001971]}},{"type":"Feature","properties":{"id":"osm:node:3811446151","name":"大樹藥局","category":"pharmacy","name_en":"Great Tree Pharmacy","brand":"大樹藥局","opening_hours":"10:00-23:00"},"geometry":{"type":"Point","coordinates":[121.519177,25.057335]}},{"type":"Feature","properties":{"id":"osm:node:3812406087","name":"台安藥局","category":"pharmacy","name_en":"Citymed"},"geometry":{"type":"Point","coordinates":[121.545063,24.995243]}},{"type":"Feature","properties":{"id":"osm:node:3812406126","name":"光典藥局","category":"pharmacy"},"geometry":{"type":"Point","coordinates":[121.544824,24.994947]}},{"type":"Feature","properties":{"id":"osm:node:3815225762","name":"71恩典藥局","category":"pharmacy","name_en":"Amazing Grace Pharmacy"},"geometry":{"type":"Point","coordinates":[121.526769,25.034498]}},{"type":"Feature","properties":{"id":"osm:node:3835272258","name":"百安堂","category":"pharmacy"},"geometry":{"type":"Point","coordinates":[121.509798,25.056654]}},{"type":"Feature","properties":{"id":"osm:node:3835273957","name":"誠記蔘藥行","category":"pharmacy"},"geometry":{"type":"Point","coordinates":[121.509403,25.059249]}},{"type":"Feature","properties":{"id":"osm:node:3835320329","name":"文元蔘藥行","category":"pharmacy"},"geometry":{"type":"Point","coordinates":[121.552807,24.987762]}},{"type":"Feature","properties":{"id":"osm:node:3835339688","name":"文安堂蔘藥行","category":"pharmacy"},"geometry":{"type":"Point","coordinates":[121.568493,24.98397]}},{"type":"Feature","properties":{"id":"osm:node:3835339737","name":"新陽藥局","category":"pharmacy"},"geometry":{"type":"Point","coordinates":[121.555039,24.987566]}},{"type":"Feature","properties":{"id":"osm:node:3835344361","name":"全銨藥局","category":"pharmacy"},"geometry":{"type":"Point","coordinates":[121.555804,24.980347]}},{"type":"Feature","properties":{"id":"osm:node:3835347352","name":"京城藥局","category":"pharmacy"},"geometry":{"type":"Point","coordinates":[121.559928,24.984131]}},{"type":"Feature","properties":{"id":"osm:node:3835377574","name":"大愛幸福藥局","category":"pharmacy"},"geometry":{"type":"Point","coordinates":[121.567503,24.983387]}},{"type":"Feature","properties":{"id":"osm:node:3842796427","name":"逸仙藥師藥局","category":"pharmacy"},"geometry":{"type":"Point","coordinates":[121.552483,25.001425]}},{"type":"Feature","properties":{"id":"osm:node:3846401764","name":"中山藥局","category":"pharmacy","name_en":"Zhongzhan Pharmacy"},"geometry":{"type":"Point","coordinates":[121.53492,25.053205]}},{"type":"Feature","properties":{"id":"osm:node:3851245497","name":"博登藥局","category":"pharmacy"},"geometry":{"type":"Point","coordinates":[121.547699,24.999493]}},{"type":"Feature","properties":{"id":"osm:node:3867793891","name":"立赫藥局","category":"pharmacy"},"geometry":{"type":"Point","coordinates":[121.532605,25.043216]}},{"type":"Feature","properties":{"id":"osm:node:3881721634","name":"大樹藥局","category":"pharmacy","name_en":"Great Tree Pharmacy","brand":"大樹藥局;スギ薬局","opening_hours":"09:00-22:00"},"geometry":{"type":"Point","coordinates":[121.543103,24.973789]}},{"type":"Feature","properties":{"id":"osm:node:3887825434","name":"光成藥局","category":"pharmacy"},"geometry":{"type":"Point","coordinates":[121.557726,25.0344]}},{"type":"Feature","properties":{"id":"osm:node:3904126501","name":"璟福藥局","category":"pharmacy"},"geometry":{"type":"Point","coordinates":[121.510984,24.996427]}},{"type":"Feature","properties":{"id":"osm:node:3923847474","name":"躍獅新生藥局","category":"pharmacy"},"geometry":{"type":"Point","coordinates":[121.536228,25.025629]}},{"type":"Feature","properties":{"id":"osm:node:3929888369","name":"佳醫藥局","category":"pharmacy"},"geometry":{"type":"Point","coordinates":[121.539808,24.990927]}},{"type":"Feature","properties":{"id":"osm:node:3929888390","name":"天德堂蔘藥行","category":"pharmacy"},"geometry":{"type":"Point","coordinates":[121.539831,24.990973]}},{"type":"Feature","properties":{"id":"osm:node:3929984869","name":"文祥藥局","category":"pharmacy"},"geometry":{"type":"Point","coordinates":[121.542171,25.137511]}},{"type":"Feature","properties":{"id":"osm:node:3944645353","name":"臨沂中西藥局","category":"pharmacy","name_en":"Near You Pharmacy"},"geometry":{"type":"Point","coordinates":[121.531667,25.04068]}},{"type":"Feature","properties":{"id":"osm:node:3953673678","name":"百祥藥局","category":"pharmacy"},"geometry":{"type":"Point","coordinates":[121.560867,25.052843]}},{"type":"Feature","properties":{"id":"osm:node:3959632231","name":"專心藥局","category":"pharmacy"},"geometry":{"type":"Point","coordinates":[121.534678,25.054215]}},{"type":"Feature","properties":{"id":"osm:node:3992167360","name":"港香蘭佐治藥鋪","category":"pharmacy"},"geometry":{"type":"Point","coordinates":[121.51482,25.053519]}},{"type":"Feature","properties":{"id":"osm:node:3999360293","name":"躍獅景新藥局","category":"pharmacy"},"geometry":{"type":"Point","coordinates":[121.539624,24.999759]}},{"type":"Feature","properties":{"id":"osm:node:3999392706","name":"杏仁藥局","category":"pharmacy"},"geometry":{"type":"Point","coordinates":[121.583469,25.039018]}},{"type":"Feature","properties":{"id":"osm:node:4007690410","name":"燕福藥局","category":"pharmacy"},"geometry":{"type":"Point","coordinates":[121.532425,25.018322]}},{"type":"Feature","properties":{"id":"osm:node:4007798831","name":"新進安藥房","category":"pharmacy"},"geometry":{"type":"Point","coordinates":[121.541522,24.991583]}},{"type":"Feature","properties":{"id":"osm:node:4007811645","name":"華明西藥房","category":"pharmacy"},"geometry":{"type":"Point","coordinates":[121.541799,24.991407]}},{"type":"Feature","properties":{"id":"osm:node:4018209444","name":"杏一","category":"pharmacy","opening_hours":"Mo-Sa 08:00-22:00; Su 09:00-19:00"},"geometry":{"type":"Point","coordinates":[121.510696,25.050402]}},{"type":"Feature","properties":{"id":"osm:node:4033147899","name":"康宜庭北新藥局","category":"pharmacy"},"geometry":{"type":"Point","coordinates":[121.542729,24.972808]}},{"type":"Feature","properties":{"id":"osm:node:4033359743","name":"宇康藥局","category":"pharmacy"},"geometry":{"type":"Point","coordinates":[121.538283,25.002014]}},{"type":"Feature","properties":{"id":"osm:node:4033359744","name":"康宜庭萬隆藥局","category":"pharmacy"},"geometry":{"type":"Point","coordinates":[121.538412,25.003371]}},{"type":"Feature","properties":{"id":"osm:node:4043621254","name":"信義藥局","category":"pharmacy"},"geometry":{"type":"Point","coordinates":[121.505054,25.025817]}},{"type":"Feature","properties":{"id":"osm:node:4043621271","name":"康之友藥局","category":"pharmacy"},"geometry":{"type":"Point","coordinates":[121.505409,25.025911]}},{"type":"Feature","properties":{"id":"osm:node:4050767774","name":"鈞生漢藥行","category":"pharmacy"},"geometry":{"type":"Point","coordinates":[121.563996,25.060091]}},{"type":"Feature","properties":{"id":"osm:node:4058075219","name":"大樹藥局","category":"pharmacy","name_en":"Great Tree Pharmacy","brand":"大樹藥局;スギ薬局","opening_hours":"09:00-22:00"},"geometry":{"type":"Point","coordinates":[121.568828,25.041213]}},{"type":"Feature","properties":{"id":"osm:node:4058518155","name":"永明藥局","category":"pharmacy"},"geometry":{"type":"Point","coordinates":[121.544807,24.99873]}},{"type":"Feature","properties":{"id":"osm:node:4058519114","name":"達隆藥局","category":"pharmacy"},"geometry":{"type":"Point","coordinates":[121.545176,24.998822]}},{"type":"Feature","properties":{"id":"osm:node:4078673410","name":"又又藥局","category":"pharmacy"},"geometry":{"type":"Point","coordinates":[121.555454,25.056027]}},{"type":"Feature","properties":{"id":"osm:node:4078673434","name":"綠之家藥局","category":"pharmacy"},"geometry":{"type":"Point","coordinates":[121.556269,25.056173]}},{"type":"Feature","properties":{"id":"osm:node:4085016850","name":"妮琪藥局","category":"pharmacy"},"geometry":{"type":"Point","coordinates":[121.534927,25.053083]}},{"type":"Feature","properties":{"id":"osm:node:4085141435","name":"杏一","category":"pharmacy"},"geometry":{"type":"Point","coordinates":[121.451942,24.996903]}},{"type":"Feature","properties":{"id":"osm:node:4085142312","name":"聯康藥局","category":"pharmacy"},"geometry":{"type":"Point","coordinates":[121.451764,24.996414]}},{"type":"Feature","properties":{"id":"osm:node:4118442361","name":"正康藥局","category":"pharmacy","name_en":"Zhengkang Pharmacy"},"geometry":{"type":"Point","coordinates":[121.514266,25.045067]}},{"type":"Feature","properties":{"id":"osm:node:4147351051","name":"心心健保藥局","category":"pharmacy"},"geometry":{"type":"Point","coordinates":[121.478342,25.017922]}},{"type":"Feature","properties":{"id":"osm:node:4149587181","name":"古亭健康人生藥局","category":"pharmacy"},"geometry":{"type":"Point","coordinates":[121.523706,25.025708]}},{"type":"Feature","properties":{"id":"osm:node:4198193214","name":"天安堂藥行","category":"pharmacy"},"geometry":{"type":"Point","coordinates":[121.534934,25.053497]}},{"type":"Feature","properties":{"id":"osm:node:4200642657","name":"健群藥局","category":"pharmacy"},"geometry":{"type":"Point","coordinates":[121.544846,24.997183]}},{"type":"Feature","properties":{"id":"osm:node:4205229640","name":"健全藥局","category":"pharmacy"},"geometry":{"type":"Point","coordinates":[121.544808,25.063233]}},{"type":"Feature","properties":{"id":"osm:node:4205229646","name":"博登藥局","category":"pharmacy"},"geometry":{"type":"Point","coordinates":[121.548061,25.080199]}},{"type":"Feature","properties":{"id":"osm:node:4205229667","name":"惠登健保藥局","category":"pharmacy"},"geometry":{"type":"Point","coordinates":[121.546136,25.056183]}},{"type":"Feature","properties":{"id":"osm:node:4236824160","name":"麗樺藥局","category":"pharmacy"},"geometry":{"type":"Point","coordinates":[121.529035,25.032274]}},{"type":"Feature","properties":{"id":"osm:node:4250044189","name":"高養生堂中藥行","category":"pharmacy","opening_hours":"Mo-Sa 10:00-21:00"},"geometry":{"type":"Point","coordinates":[121.492977,25.021059]}},{"type":"Feature","properties":{"id":"osm:node:4258235954","name":"晟揚骨科診所","category":"pharmacy"},"geometry":{"type":"Point","coordinates":[121.458654,24.992481]}},{"type":"Feature","properties":{"id":"osm:node:4258255075","name":"軒源藥局","category":"pharmacy"},"geometry":{"type":"Point","coordinates":[121.458897,24.992203]}},{"type":"Feature","properties":{"id":"osm:node:4269582559","name":"正傑健保藥局","category":"pharmacy"},"geometry":{"type":"Point","coordinates":[121.542514,25.048394]}},{"type":"Feature","properties":{"id":"osm:node:4282217990","name":"富康活力藥局","category":"pharmacy"},"geometry":{"type":"Point","coordinates":[121.545254,24.995256]}},{"type":"Feature","properties":{"id":"osm:node:4298912864","name":"杏隆藥局","category":"pharmacy"},"geometry":{"type":"Point","coordinates":[121.539509,25.001164]}},{"type":"Feature","properties":{"id":"osm:node:4307554221","name":"康賢藥局","category":"pharmacy"},"geometry":{"type":"Point","coordinates":[121.515242,25.114341]}},{"type":"Feature","properties":{"id":"osm:node:4307626646","name":"萬隆藥局","category":"pharmacy"},"geometry":{"type":"Point","coordinates":[121.539993,24.999974]}},{"type":"Feature","properties":{"id":"osm:node:4312392759","name":"杏佳醫師藥局","category":"pharmacy"},"geometry":{"type":"Point","coordinates":[121.592008,25.080321]}},{"type":"Feature","properties":{"id":"osm:node:4325606021","name":"幸福藥妝藥局","category":"pharmacy"},"geometry":{"type":"Point","coordinates":[121.494301,25.070819]}},{"type":"Feature","properties":{"id":"osm:node:4325693421","name":"中心藥局","category":"pharmacy"},"geometry":{"type":"Point","coordinates":[121.530277,25.016592]}},{"type":"Feature","properties":{"id":"osm:node:4325693451","name":"古亭藥局","category":"pharmacy"},"geometry":{"type":"Point","coordinates":[121.530118,25.01668]}},{"type":"Feature","properties":{"id":"osm:node:4325693911","name":"杏一藥局","category":"pharmacy"},"geometry":{"type":"Point","coordinates":[121.530077,25.016701]}},{"type":"Feature","properties":{"id":"osm:node:4325693916","name":"東華藥師藥局","category":"pharmacy"},"geometry":{"type":"Point","coordinates":[121.530041,25.01673]}},{"type":"Feature","properties":{"id":"osm:node:4325694215","name":"順發篸藥行","category":"pharmacy"},"geometry":{"type":"Point","coordinates":[121.544834,24.994625]}},{"type":"Feature","properties":{"id":"osm:node:4329768663","name":"仙瑩健保特約藥局","category":"pharmacy"},"geometry":{"type":"Point","coordinates":[121.547889,24.996858]}},{"type":"Feature","properties":{"id":"osm:node:4339639302","name":"厚德藥局","category":"pharmacy"},"geometry":{"type":"Point","coordinates":[121.489871,25.072599]}},{"type":"Feature","properties":{"id":"osm:node:4339639303","name":"福生西藥行","category":"pharmacy"},"geometry":{"type":"Point","coordinates":[121.494329,25.068849]}},{"type":"Feature","properties":{"id":"osm:node:4352732292","name":"生元藥行","category":"pharmacy","opening_hours":"Mo-Sa 08:30-20:30, Su 09:00-17:30"},"geometry":{"type":"Point","coordinates":[121.512466,25.054039]}},{"type":"Feature","properties":{"id":"osm:node:4360380429","name":"惠盈藥局","category":"pharmacy"},"geometry":{"type":"Point","coordinates":[121.54121,25.023065]}},{"type":"Feature","properties":{"id":"osm:node:4370094104","name":"佑全","category":"pharmacy"},"geometry":{"type":"Point","coordinates":[121.607806,25.072657]}},{"type":"Feature","properties":{"id":"osm:node:4379076965","name":"福興藥局","category":"pharmacy"},"geometry":{"type":"Point","coordinates":[121.55042,25.003465]}},{"type":"Feature","properties":{"id":"osm:node:4384257963","name":"三和藥局","category":"pharmacy"},"geometry":{"type":"Point","coordinates":[121.53974,24.993667]}},{"type":"Feature","properties":{"id":"osm:node:4384259026","name":"百康藥局","category":"pharmacy"},"geometry":{"type":"Point","coordinates":[121.556357,25.027505]}},{"type":"Feature","properties":{"id":"osm:node:4397232202","name":"達生中西藥行","category":"pharmacy"},"geometry":{"type":"Point","coordinates":[121.521721,25.057645]}},{"type":"Feature","properties":{"id":"osm:node:4406427591","name":"奕采藥局","category":"pharmacy"},"geometry":{"type":"Point","coordinates":[121.510949,24.997288]}},{"type":"Feature","properties":{"id":"osm:node:4416370282","name":"大樹藥局","category":"pharmacy","name_en":"Great Tree Pharmacy","brand":"大樹藥局"},"geometry":{"type":"Point","coordinates":[121.491246,25.069754]}},{"type":"Feature","properties":{"id":"osm:node:4417341790","name":"健康人生藥局","category":"pharmacy","opening_hours":"Mo-Su 10:00-22:30"},"geometry":{"type":"Point","coordinates":[121.540367,25.065958]}},{"type":"Feature","properties":{"id":"osm:node:4423091666","name":"出雲藥局","category":"pharmacy"},"geometry":{"type":"Point","coordinates":[121.495753,25.068895]}},{"type":"Feature","properties":{"id":"osm:node:4423128555","name":"純德蔘藥行","category":"pharmacy"},"geometry":{"type":"Point","coordinates":[121.495345,25.069631]}},{"type":"Feature","properties":{"id":"osm:node:4449757825","name":"春鄰藥局","category":"pharmacy"},"geometry":{"type":"Point","coordinates":[121.519679,25.050351]}},{"type":"Feature","properties":{"id":"osm:node:4449757833","name":"興康源健保藥局","category":"pharmacy","opening_hours":"Mo-Sa 11:00-19:00; Su off"},"geometry":{"type":"Point","coordinates":[121.521394,25.051419]}},{"type":"Feature","properties":{"id":"osm:node:4524344025","name":"均安藥局","category":"pharmacy"},"geometry":{"type":"Point","coordinates":[121.537779,24.98272]}},{"type":"Feature","properties":{"id":"osm:node:4524863596","name":"婕登藥局","category":"pharmacy"},"geometry":{"type":"Point","coordinates":[121.576602,25.050186]}},{"type":"Feature","properties":{"id":"osm:node:4524863626","name":"躍獅東東藥局","category":"pharmacy"},"geometry":{"type":"Point","coordinates":[121.540736,25.054748]}},{"type":"Feature","properties":{"id":"osm:node:4524863635","name":"躍獅安和藥局","category":"pharmacy"},"geometry":{"type":"Point","coordinates":[121.547084,25.024456]}},{"type":"Feature","properties":{"id":"osm:node:4524863861","name":"博登藥局","category":"pharmacy"},"geometry":{"type":"Point","coordinates":[121.54683,25.053539]}},{"type":"Feature","properties":{"id":"osm:node:4524863892","name":"美康健保藥局","category":"pharmacy"},"geometry":{"type":"Point","coordinates":[121.55852,25.058647]}},{"type":"Feature","properties":{"id":"osm:node:4524863987","name":"日藥本舖","category":"pharmacy","name_en":"jp medical","brand":"日藥本舖"},"geometry":{"type":"Point","coordinates":[121.550552,25.041403]}},{"type":"Feature","properties":{"id":"osm:node:4524863998","name":"永誠藥局","category":"pharmacy"},"geometry":{"type":"Point","coordinates":[121.553065,25.040019]}},{"type":"Feature","properties":{"id":"osm:node:4524863999","name":"康祥藥局","category":"pharmacy"},"geometry":{"type":"Point","coordinates":[121.553081,25.040229]}},{"type":"Feature","properties":{"id":"osm:node:4524864032","name":"展佑藥局","category":"pharmacy"},"geometry":{"type":"Point","coordinates":[121.531685,25.054679]}},{"type":"Feature","properties":{"id":"osm:node:4524864489","name":"昆明藥局","category":"pharmacy"},"geometry":{"type":"Point","coordinates":[121.50441,25.044727]}},{"type":"Feature","properties":{"id":"osm:node:4524864543","name":"東京晟藥局","category":"pharmacy"},"geometry":{"type":"Point","coordinates":[121.558779,25.006791]}},{"type":"Feature","properties":{"id":"osm:node:4538270119","name":"寶輝藥局","category":"pharmacy"},"geometry":{"type":"Point","coordinates":[121.540656,24.964813]}},{"type":"Feature","properties":{"id":"osm:node:4674829790","name":"明漢參藥號中藥行","category":"pharmacy","name_en":"MinHang","opening_hours":"Mo-Su 09:30-22:30"},"geometry":{"type":"Point","coordinates":[121.467553,24.997521]}},{"type":"Feature","properties":{"id":"osm:node:4733396645","name":"昇旺藥局","category":"pharmacy","cuisine":"regional"},"geometry":{"type":"Point","coordinates":[121.540131,24.973664]}},{"type":"Feature","properties":{"id":"osm:node:4793146023","name":"鄭克明漢方生活","category":"pharmacy"},"geometry":{"type":"Point","coordinates":[121.504431,25.045218]}},{"type":"Feature","properties":{"id":"osm:node:4798992021","name":"早安薬局","category":"pharmacy"},"geometry":{"type":"Point","coordinates":[121.539637,25.028646]}},{"type":"Feature","properties":{"id":"osm:node:4834782732","name":"再生藥局","category":"pharmacy","opening_hours":"10:00-21:15"},"geometry":{"type":"Point","coordinates":[121.54119,24.980993]}},{"type":"Feature","properties":{"id":"osm:node:4846801485","name":"喬治藥局","category":"pharmacy"},"geometry":{"type":"Point","coordinates":[121.461569,24.99614]}},{"type":"Feature","properties":{"id":"osm:node:4846801490","name":"躍獅國慶藥局","category":"pharmacy"},"geometry":{"type":"Point","coordinates":[121.462622,24.99635]}},{"type":"Feature","properties":{"id":"osm:node:4892276638","name":"協豐藥局","category":"pharmacy"},"geometry":{"type":"Point","coordinates":[121.511053,25.042131]}},{"type":"Feature","properties":{"id":"osm:node:4928425286","name":"滿順健保藥局","category":"pharmacy"},"geometry":{"type":"Point","coordinates":[121.534635,25.051448]}},{"type":"Feature","properties":{"id":"osm:node:4983984615","name":"優豐藥局","category":"pharmacy"},"geometry":{"type":"Point","coordinates":[121.524272,25.057934]}},{"type":"Feature","properties":{"id":"osm:node:5051738291","name":"永源藥局","category":"pharmacy"},"geometry":{"type":"Point","coordinates":[121.60203,25.003599]}},{"type":"Feature","properties":{"id":"osm:node:5108707189","name":"潤康藥局","category":"pharmacy"},"geometry":{"type":"Point","coordinates":[121.526541,24.998345]}},{"type":"Feature","properties":{"id":"osm:node:5108709471","name":"安誠藥局","category":"pharmacy"},"geometry":{"type":"Point","coordinates":[121.546933,24.99564]}},{"type":"Feature","properties":{"id":"osm:node:5108709473","name":"貴人堂蔘藥行","category":"pharmacy"},"geometry":{"type":"Point","coordinates":[121.543209,24.992008]}},{"type":"Feature","properties":{"id":"osm:node:5108743088","name":"錫東藥局","category":"pharmacy"},"geometry":{"type":"Point","coordinates":[121.537188,25.000792]}},{"type":"Feature","properties":{"id":"osm:node:5109347749","name":"師大藥局","category":"pharmacy"},"geometry":{"type":"Point","coordinates":[121.528538,25.022747]}},{"type":"Feature","properties":{"id":"osm:node:5109347807","name":"羅斯福中西藥局","category":"pharmacy"},"geometry":{"type":"Point","coordinates":[121.531258,25.019031]}},{"type":"Feature","properties":{"id":"osm:node:5109347820","name":"GNC","category":"pharmacy"},"geometry":{"type":"Point","coordinates":[121.531201,25.018078]}},{"type":"Feature","properties":{"id":"osm:node:5110245056","name":"躍獅南寧藥局","category":"pharmacy"},"geometry":{"type":"Point","coordinates":[121.517844,25.030557]}},{"type":"Feature","properties":{"id":"osm:node:5110245068","name":"元氣生活","category":"pharmacy"},"geometry":{"type":"Point","coordinates":[121.534634,25.034534]}},{"type":"Feature","properties":{"id":"osm:node:5110245072","name":"微笑藥師藥局","category":"pharmacy"},"geometry":{"type":"Point","coordinates":[121.534384,25.033945]}},{"type":"Feature","properties":{"id":"osm:node:5110269764","name":"弘元中西藥局","category":"pharmacy"},"geometry":{"type":"Point","coordinates":[121.533499,25.048306]}},{"type":"Feature","properties":{"id":"osm:node:5110348719","name":"唯康藥局","category":"pharmacy"},"geometry":{"type":"Point","coordinates":[121.556585,25.048254]}},{"type":"Feature","properties":{"id":"osm:node:5110348722","name":"立康大藥局","category":"pharmacy"},"geometry":{"type":"Point","coordinates":[121.558064,25.048039]}},{"type":"Feature","properties":{"id":"osm:node:5110488719","name":"春天連鎖藥局","category":"pharmacy"},"geometry":{"type":"Point","coordinates":[121.521595,25.060223]}},{"type":"Feature","properties":{"id":"osm:node:5110488974","name":"健明西藥房","category":"pharmacy"},"geometry":{"type":"Point","coordinates":[121.559706,24.988563]}},{"type":"Feature","properties":{"id":"osm:node:5110488989","name":"杏一","category":"pharmacy"},"geometry":{"type":"Point","coordinates":[121.557075,24.998873]}},{"type":"Feature","properties":{"id":"osm:node:5110489721","name":"惠濟中醫行","category":"pharmacy"},"geometry":{"type":"Point","coordinates":[121.52905,25.058854]}},{"type":"Feature","properties":{"id":"osm:node:5110489760","name":"仁一藥局","category":"pharmacy"},"geometry":{"type":"Point","coordinates":[121.525468,25.062307]}},{"type":"Feature","properties":{"id":"osm:node:5110489792","name":"六福藥局","category":"pharmacy"},"geometry":{"type":"Point","coordinates":[121.50608,25.045902]}},{"type":"Feature","properties":{"id":"osm:node:5110491041","name":"榮昌藥局","category":"pharmacy"},"geometry":{"type":"Point","coordinates":[121.524441,25.064642]}},{"type":"Feature","properties":{"id":"osm:node:5136753584","name":"偉安藥局","category":"pharmacy"},"geometry":{"type":"Point","coordinates":[121.503286,25.029648]}},{"type":"Feature","properties":{"id":"osm:node:5141132809","name":"博昱明峰大藥局","category":"pharmacy"},"geometry":{"type":"Point","coordinates":[121.630361,25.07085]}},{"type":"Feature","properties":{"id":"osm:node:5151455040","name":"安奕藥局","category":"pharmacy"},"geometry":{"type":"Point","coordinates":[121.500708,25.030893]}},{"type":"Feature","properties":{"id":"osm:node:5187753624","name":"長青連鎖藥局","category":"pharmacy","name_en":"Ever Green Ever Young","brand":"長青連鎖藥局"},"geometry":{"type":"Point","coordinates":[121.531632,25.108963]}},{"type":"Feature","properties":{"id":"osm:node:5189814421","name":"今欣藥局","category":"pharmacy"},"geometry":{"type":"Point","coordinates":[121.527361,25.119432]}},{"type":"Feature","properties":{"id":"osm:node:5201402321","name":"田倉藥局","category":"pharmacy"},"geometry":{"type":"Point","coordinates":[121.530182,25.11219]}},{"type":"Feature","properties":{"id":"osm:node:5201473107","name":"巧康藥局","category":"pharmacy","opening_hours":"Mo-Su 09:00-22:30"},"geometry":{"type":"Point","coordinates":[121.558548,24.981308]}},{"type":"Feature","properties":{"id":"osm:node:5205450723","name":"全民健康保險特約藥局","category":"pharmacy"},"geometry":{"type":"Point","coordinates":[121.525108,25.108867]}},{"type":"Feature","properties":{"id":"osm:node:5205494125","name":"明輝參藥行","category":"pharmacy"},"geometry":{"type":"Point","coordinates":[121.52569,25.110501]}},{"type":"Feature","properties":{"id":"osm:node:5207796921","name":"躍獅忠誠藥局","category":"pharmacy"},"geometry":{"type":"Point","coordinates":[121.531399,25.105936]}},{"type":"Feature","properties":{"id":"osm:node:5207800921","name":"石川藥師藥局","category":"pharmacy"},"geometry":{"type":"Point","coordinates":[121.531288,25.105927]}},{"type":"Feature","properties":{"id":"osm:node:5207819322","name":"家赫藥局","category":"pharmacy"},"geometry":{"type":"Point","coordinates":[121.53171,25.106141]}},{"type":"Feature","properties":{"id":"osm:node:5219060221","name":"天爵藥局","category":"pharmacy"},"geometry":{"type":"Point","coordinates":[121.527619,25.11427]}},{"type":"Feature","properties":{"id":"osm:node:5236189726","name":"春天連鎖藥局","category":"pharmacy"},"geometry":{"type":"Point","coordinates":[121.527466,25.107268]}},{"type":"Feature","properties":{"id":"osm:node:5236191124","name":"建芳藥局","category":"pharmacy"},"geometry":{"type":"Point","coordinates":[121.529573,25.108009]}},{"type":"Feature","properties":{"id":"osm:node:5236317726","name":"幸福連鎖藥局","category":"pharmacy"},"geometry":{"type":"Point","coordinates":[121.528399,25.108126]}},{"type":"Feature","properties":{"id":"osm:node:5242155822","name":"麗登藥師藥局","category":"pharmacy"},"geometry":{"type":"Point","coordinates":[121.526617,25.091197]}},{"type":"Feature","properties":{"id":"osm:node:5242177827","name":"啟宏藥局","category":"pharmacy"},"geometry":{"type":"Point","coordinates":[121.525638,25.091453]}},{"type":"Feature","properties":{"id":"osm:node:5242177829","name":"大東健保藥局","category":"pharmacy","opening_hours":"Mo-Sa 09:00-22:00; Su 09:00-18:00"},"geometry":{"type":"Point","coordinates":[121.525696,25.091267]}},{"type":"Feature","properties":{"id":"osm:node:5242619222","name":"家安健保藥局","category":"pharmacy"},"geometry":{"type":"Point","coordinates":[121.528758,25.111539]}},{"type":"Feature","properties":{"id":"osm:node:5242653821","name":"康是美","category":"pharmacy","name_en":"COSMED","brand":"康是美"},"geometry":{"type":"Point","coordinates":[121.528887,25.111027]}},{"type":"Feature","properties":{"id":"osm:node:5285474838","name":"大樹藥局","category":"pharmacy","name_en":"Great Tree Pharmacy","brand":"大樹藥局","opening_hours":"09:00-22:00"},"geometry":{"type":"Point","coordinates":[121.555118,25.000825]}},{"type":"Feature","properties":{"id":"osm:node:5286854371","name":"永原大藥局","category":"pharmacy"},"geometry":{"type":"Point","coordinates":[121.558557,24.998193]}},{"type":"Feature","properties":{"id":"osm:node:5293207814","name":"佑康大藥局","category":"pharmacy"},"geometry":{"type":"Point","coordinates":[121.518445,25.025077]}},{"type":"Feature","properties":{"id":"osm:node:5303090398","name":"尊生堂","category":"pharmacy"},"geometry":{"type":"Point","coordinates":[121.557254,25.034449]}},{"type":"Feature","properties":{"id":"osm:node:5493481727","name":"日藥本舖","category":"pharmacy","name_en":"jp medical","brand":"日藥本舖"},"geometry":{"type":"Point","coordinates":[121.525116,25.086298]}},{"type":"Feature","properties":{"id":"osm:node:5495173322","name":"德展蔘藥行","category":"pharmacy"},"geometry":{"type":"Point","coordinates":[121.525499,25.09139]}},{"type":"Feature","properties":{"id":"osm:node:5504491313","name":"萬隆藥局","category":"pharmacy"},"geometry":{"type":"Point","coordinates":[121.537962,25.002024]}},{"type":"Feature","properties":{"id":"osm:node:5504919528","name":"瑞安藥局","category":"pharmacy"},"geometry":{"type":"Point","coordinates":[121.539328,24.99509]}},{"type":"Feature","properties":{"id":"osm:node:5551950658","name":"麗泰藥局","category":"pharmacy"},"geometry":{"type":"Point","coordinates":[121.544011,25.028298]}},{"type":"Feature","properties":{"id":"osm:node:5569304650","name":"洪德昌蔘藥行","category":"pharmacy"},"geometry":{"type":"Point","coordinates":[121.578279,25.045251]}},{"type":"Feature","properties":{"id":"osm:node:5569304652","name":"松山大藥局","category":"pharmacy"},"geometry":{"type":"Point","coordinates":[121.578189,25.04525]}},{"type":"Feature","properties":{"id":"osm:node:5569304677","name":"躍獅永吉藥局","category":"pharmacy"},"geometry":{"type":"Point","coordinates":[121.580432,25.045197]}},{"type":"Feature","properties":{"id":"osm:node:5585775180","name":"立信藥局","category":"pharmacy"},"geometry":{"type":"Point","coordinates":[121.577993,25.041491]}},{"type":"Feature","properties":{"id":"osm:node:5585946806","name":"信義健康藥局","category":"pharmacy"},"geometry":{"type":"Point","coordinates":[121.578268,25.042814]}},{"type":"Feature","properties":{"id":"osm:node:5594811121","name":"春天藥妝","category":"pharmacy"},"geometry":{"type":"Point","coordinates":[121.519499,25.083666]}},{"type":"Feature","properties":{"id":"osm:node:5608373726","name":"茂盛蔘藥行","category":"pharmacy"},"geometry":{"type":"Point","coordinates":[121.523963,25.09704]}},{"type":"Feature","properties":{"id":"osm:node:5608398527","name":"宏生中西藥房","category":"pharmacy"},"geometry":{"type":"Point","coordinates":[121.523953,25.097084]}},{"type":"Feature","properties":{"id":"osm:node:5699174881","name":"大安健康人生藥局","category":"pharmacy"},"geometry":{"type":"Point","coordinates":[121.544873,25.033095]}},{"type":"Feature","properties":{"id":"osm:node:569951446","name":"仁康中西示範藥局","category":"pharmacy"},"geometry":{"type":"Point","coordinates":[121.569368,25.024508]}},{"type":"Feature","properties":{"id":"osm:node:5717534177","name":"德宇蔘藥行","category":"pharmacy"},"geometry":{"type":"Point","coordinates":[121.529471,25.03037]}},{"type":"Feature","properties":{"id":"osm:node:5721601502","name":"丁丁藥局","category":"pharmacy","name_en":"Tin Tin Drugstore","brand":"丁丁藥局","opening_hours":"09:00-22:45"},"geometry":{"type":"Point","coordinates":[121.592548,25.068255]}},{"type":"Feature","properties":{"id":"osm:node:5721931220","name":"丁丁藥局","category":"pharmacy","name_en":"Tin Tin Drugstore","brand":"丁丁藥局","opening_hours":"09:00-22:45"},"geometry":{"type":"Point","coordinates":[121.477594,25.005411]}},{"type":"Feature","properties":{"id":"osm:node:5839790180","name":"杏友藥局","category":"pharmacy"},"geometry":{"type":"Point","coordinates":[121.544397,25.028474]}},{"type":"Feature","properties":{"id":"osm:node:5839797913","name":"博昱連鎖大藥局","category":"pharmacy"},"geometry":{"type":"Point","coordinates":[121.545965,25.026737]}},{"type":"Feature","properties":{"id":"osm:node:5851984997","name":"正中藥局","category":"pharmacy"},"geometry":{"type":"Point","coordinates":[121.514161,25.068747]}},{"type":"Feature","properties":{"id":"osm:node:5851985002","name":"佳禾藥局","category":"pharmacy"},"geometry":{"type":"Point","coordinates":[121.515812,25.070644]}},{"type":"Feature","properties":{"id":"osm:node:5875366018","name":"宏安堂中藥房","category":"pharmacy"},"geometry":{"type":"Point","coordinates":[121.505872,25.042083]}},{"type":"Feature","properties":{"id":"osm:node:5889455570","name":"中山樂方藥局","category":"pharmacy"},"geometry":{"type":"Point","coordinates":[121.549605,25.036462]}},{"type":"Feature","properties":{"id":"osm:node:5964684931","name":"民生藥局","category":"pharmacy"},"geometry":{"type":"Point","coordinates":[121.530539,25.040615]}},{"type":"Feature","properties":{"id":"osm:node:6024267588","name":"躍獅竹圍藥局","category":"pharmacy"},"geometry":{"type":"Point","coordinates":[121.461683,25.137824]}},{"type":"Feature","properties":{"id":"osm:node:6024322528","name":"山村中藥行","category":"pharmacy"},"geometry":{"type":"Point","coordinates":[121.461297,25.137814]}},{"type":"Feature","properties":{"id":"osm:node:6050445297","name":"得安藥師藥局","category":"pharmacy"},"geometry":{"type":"Point","coordinates":[121.52664,25.088746]}},{"type":"Feature","properties":{"id":"osm:node:6051244967","name":"太和堂藥房","category":"pharmacy"},"geometry":{"type":"Point","coordinates":[121.525652,25.090235]}},{"type":"Feature","properties":{"id":"osm:node:6073661305","name":"明昌藥房","category":"pharmacy"},"geometry":{"type":"Point","coordinates":[121.524255,25.089979]}},{"type":"Feature","properties":{"id":"osm:node:6073931418","name":"永和堂藥房","category":"pharmacy"},"geometry":{"type":"Point","coordinates":[121.52439,25.090296]}},{"type":"Feature","properties":{"id":"osm:node:6095914120","name":"愛佳藥局","category":"pharmacy"},"geometry":{"type":"Point","coordinates":[121.521384,25.088563]}},{"type":"Feature","properties":{"id":"osm:node:6112447364","name":"和樹藥局","category":"pharmacy"},"geometry":{"type":"Point","coordinates":[121.522751,25.084439]}},{"type":"Feature","properties":{"id":"osm:node:6117536377","name":"盛康藥局","category":"pharmacy"},"geometry":{"type":"Point","coordinates":[121.521965,25.084575]}},{"type":"Feature","properties":{"id":"osm:node:6120888831","name":"聖賢藥局","category":"pharmacy"},"geometry":{"type":"Point","coordinates":[121.519785,25.090844]}},{"type":"Feature","properties":{"id":"osm:node:6131595740","name":"維康藥局","category":"pharmacy"},"geometry":{"type":"Point","coordinates":[121.520793,25.09187]}},{"type":"Feature","properties":{"id":"osm:node:6137454751","name":"屈臣氏","category":"pharmacy","name_en":"Watsons","brand":"屈臣氏"},"geometry":{"type":"Point","coordinates":[121.557283,25.04153]}},{"type":"Feature","properties":{"id":"osm:node:6176758343","name":"欣康藥局","category":"pharmacy"},"geometry":{"type":"Point","coordinates":[121.537206,24.974521]}},{"type":"Feature","properties":{"id":"osm:node:6188959125","name":"青苗","category":"pharmacy"},"geometry":{"type":"Point","coordinates":[121.662774,25.06722]}},{"type":"Feature","properties":{"id":"osm:node:6189925709","name":"好安心藥局","category":"pharmacy","name_en":"HaoAnXin Pharmacy"},"geometry":{"type":"Point","coordinates":[121.542792,25.02516]}},{"type":"Feature","properties":{"id":"osm:node:6210526810","name":"勝泰藥師藥局","category":"pharmacy"},"geometry":{"type":"Point","coordinates":[121.521174,25.102772]}},{"type":"Feature","properties":{"id":"osm:node:6249946231","name":"力康藥師藥局","category":"pharmacy"},"geometry":{"type":"Point","coordinates":[121.5619,25.029078]}},{"type":"Feature","properties":{"id":"osm:node:6326678485","name":"時春藥局","category":"pharmacy"},"geometry":{"type":"Point","coordinates":[121.519067,25.053505]}},{"type":"Feature","properties":{"id":"osm:node:6433456326","name":"新南大藥房","category":"pharmacy"},"geometry":{"type":"Point","coordinates":[121.512454,25.052385]}},{"type":"Feature","properties":{"id":"osm:node:6499700483","name":"專品藥局","category":"pharmacy"},"geometry":{"type":"Point","coordinates":[121.557719,25.03392]}},{"type":"Feature","properties":{"id":"osm:node:6499715204","name":"全國健保藥局","category":"pharmacy"},"geometry":{"type":"Point","coordinates":[121.554377,25.031739]}},{"type":"Feature","properties":{"id":"osm:node:6514349837","name":"專品藥局","category":"pharmacy"},"geometry":{"type":"Point","coordinates":[121.553155,25.05184]}},{"type":"Feature","properties":{"id":"osm:node:6568146960","name":"博荃藥局","category":"pharmacy"},"geometry":{"type":"Point","coordinates":[121.544798,25.050081]}},{"type":"Feature","properties":{"id":"osm:node:6654640243","name":"景豐西藥房","category":"pharmacy"},"geometry":{"type":"Point","coordinates":[121.547611,24.999418]}},{"type":"Feature","properties":{"id":"osm:node:6725457168","name":"崑崙中藥行","category":"pharmacy"},"geometry":{"type":"Point","coordinates":[121.541165,25.003532]}},{"type":"Feature","properties":{"id":"osm:node:6734330771","name":"天士藥局","category":"pharmacy"},"geometry":{"type":"Point","coordinates":[121.471272,25.082411]}},{"type":"Feature","properties":{"id":"osm:node:6735346030","name":"樂活處方簽藥局","category":"pharmacy"},"geometry":{"type":"Point","coordinates":[121.489706,25.063224]}},{"type":"Feature","properties":{"id":"osm:node:6865431291","name":"國泰藥師藥局","category":"pharmacy"},"geometry":{"type":"Point","coordinates":[121.51621,25.111092]}},{"type":"Feature","properties":{"id":"osm:node:6876041277","name":"健康家藥房","category":"pharmacy"},"geometry":{"type":"Point","coordinates":[121.548045,25.000097]}},{"type":"Feature","properties":{"id":"osm:node:7004130373","name":"吉星藥局","category":"pharmacy"},"geometry":{"type":"Point","coordinates":[121.515436,25.043538]}},{"type":"Feature","properties":{"id":"osm:node:7187435758","name":"佑全板橋四川藥局","category":"pharmacy"},"geometry":{"type":"Point","coordinates":[121.457279,24.997436]}},{"type":"Feature","properties":{"id":"osm:node:7191364611","name":"華信藥局","category":"pharmacy"},"geometry":{"type":"Point","coordinates":[121.479641,25.08605]}},{"type":"Feature","properties":{"id":"osm:node:7192629088","name":"杏昌藥局","category":"pharmacy"},"geometry":{"type":"Point","coordinates":[121.477839,25.084864]}},{"type":"Feature","properties":{"id":"osm:node:7195056319","name":"松展多利藥局","category":"pharmacy"},"geometry":{"type":"Point","coordinates":[121.479378,25.088087]}},{"type":"Feature","properties":{"id":"osm:node:7213007964","name":"靜園環保藥局","category":"pharmacy"},"geometry":{"type":"Point","coordinates":[121.542926,25.022535]}},{"type":"Feature","properties":{"id":"osm:node:7236241495","name":"舒博威藥局","category":"pharmacy"},"geometry":{"type":"Point","coordinates":[121.547042,24.999422]}},{"type":"Feature","properties":{"id":"osm:node:7255839178","name":"川秀藥局","category":"pharmacy"},"geometry":{"type":"Point","coordinates":[121.516657,25.118048]}},{"type":"Feature","properties":{"id":"osm:node:7279631010","name":"華粲藥局","category":"pharmacy"},"geometry":{"type":"Point","coordinates":[121.477975,25.084829]}},{"type":"Feature","properties":{"id":"osm:node:7279631011","name":"三鐵藥局","category":"pharmacy"},"geometry":{"type":"Point","coordinates":[121.479017,25.085288]}},{"type":"Feature","properties":{"id":"osm:node:7279631012","name":"宏祐藥局","category":"pharmacy"},"geometry":{"type":"Point","coordinates":[121.478498,25.088951]}},{"type":"Feature","properties":{"id":"osm:node:7279631013","name":"施藥局","category":"pharmacy"},"geometry":{"type":"Point","coordinates":[121.478737,25.085824]}},{"type":"Feature","properties":{"id":"osm:node:7279631014","name":"新信義藥局","category":"pharmacy"},"geometry":{"type":"Point","coordinates":[121.478274,25.086793]}},{"type":"Feature","properties":{"id":"osm:node:7279631015","name":"隆生藥局","category":"pharmacy"},"geometry":{"type":"Point","coordinates":[121.477021,25.08446]}},{"type":"Feature","properties":{"id":"osm:node:7279631018","name":"松柏藥局","category":"pharmacy"},"geometry":{"type":"Point","coordinates":[121.475688,25.081939]}},{"type":"Feature","properties":{"id":"osm:node:7279631019","name":"全佑藥局","category":"pharmacy"},"geometry":{"type":"Point","coordinates":[121.475685,25.08211]}},{"type":"Feature","properties":{"id":"osm:node:7279631020","name":"百分百藥局","category":"pharmacy"},"geometry":{"type":"Point","coordinates":[121.47395,25.082269]}},{"type":"Feature","properties":{"id":"osm:node:7279631021","name":"幸安藥局","category":"pharmacy"},"geometry":{"type":"Point","coordinates":[121.473879,25.082004]}},{"type":"Feature","properties":{"id":"osm:node:7279631022","name":"大政藥局","category":"pharmacy"},"geometry":{"type":"Point","coordinates":[121.47337,25.081891]}},{"type":"Feature","properties":{"id":"osm:node:7279631023","name":"微笑杏鄰藥局","category":"pharmacy"},"geometry":{"type":"Point","coordinates":[121.471337,25.081943]}},{"type":"Feature","properties":{"id":"osm:node:7279631024","name":"全家藥粧藥局","category":"pharmacy"},"geometry":{"type":"Point","coordinates":[121.469858,25.083618]}},{"type":"Feature","properties":{"id":"osm:node:7279631025","name":"廷升藥局","category":"pharmacy"},"geometry":{"type":"Point","coordinates":[121.469421,25.084878]}},{"type":"Feature","properties":{"id":"osm:node:7279631026","name":"萊康連鎖藥局","category":"pharmacy"},"geometry":{"type":"Point","coordinates":[121.469352,25.084959]}},{"type":"Feature","properties":{"id":"osm:node:7279631027","name":"常喜藥局","category":"pharmacy"},"geometry":{"type":"Point","coordinates":[121.469118,25.08522]}},{"type":"Feature","properties":{"id":"osm:node:7365963996","name":"聖美膚藥局","category":"pharmacy"},"geometry":{"type":"Point","coordinates":[121.496708,25.065703]}},{"type":"Feature","properties":{"id":"osm:node:7365964050","name":"小林健保藥局","category":"pharmacy","opening_hours":"Mo-Su 09:00-21:00"},"geometry":{"type":"Point","coordinates":[121.498669,25.066284]}},{"type":"Feature","properties":{"id":"osm:node:7368631855","name":"鴻泰健保藥局","category":"pharmacy"},"geometry":{"type":"Point","coordinates":[121.500873,25.06343]}},{"type":"Feature","properties":{"id":"osm:node:7368631861","name":"臻曜藥局","category":"pharmacy"},"geometry":{"type":"Point","coordinates":[121.500122,25.063148]}},{"type":"Feature","properties":{"id":"osm:node:7368962865","name":"穗安藥房","category":"pharmacy"},"geometry":{"type":"Point","coordinates":[121.498357,25.066823]}},{"type":"Feature","properties":{"id":"osm:node:7652736155","name":"保慶藥局","category":"pharmacy"},"geometry":{"type":"Point","coordinates":[121.512934,25.059299]}},{"type":"Feature","properties":{"id":"osm:node:7682149834","name":"三銘大藥局","category":"pharmacy"},"geometry":{"type":"Point","coordinates":[121.50991,25.05575]}},{"type":"Feature","properties":{"id":"osm:node:7689995449","name":"維春藥局","category":"pharmacy"},"geometry":{"type":"Point","coordinates":[121.540897,24.983056]}},{"type":"Feature","properties":{"id":"osm:node:7716183536","name":"西湖藥局","category":"pharmacy","opening_hours":"Mo-Sa 09:30-21:00"},"geometry":{"type":"Point","coordinates":[121.569262,25.082199]}},{"type":"Feature","properties":{"id":"osm:node:7731649052","name":"中泰藥局","category":"pharmacy"},"geometry":{"type":"Point","coordinates":[121.542875,25.054718]}},{"type":"Feature","properties":{"id":"osm:node:7731649056","name":"長泰蔘藥行","category":"pharmacy"},"geometry":{"type":"Point","coordinates":[121.543038,25.054712]}},{"type":"Feature","properties":{"id":"osm:node:7732638682","name":"杏一藥局","category":"pharmacy"},"geometry":{"type":"Point","coordinates":[121.522271,25.040641]}},{"type":"Feature","properties":{"id":"osm:node:7787823104","name":"杏一藥局","category":"pharmacy"},"geometry":{"type":"Point","coordinates":[121.540617,25.028576]}},{"type":"Feature","properties":{"id":"osm:node:7791617607","name":"杏友藥局","category":"pharmacy"},"geometry":{"type":"Point","coordinates":[121.544628,25.028499]}},{"type":"Feature","properties":{"id":"osm:node:7881321075","name":"躍獅京華藥局","category":"pharmacy"},"geometry":{"type":"Point","coordinates":[121.559528,25.051723]}},{"type":"Feature","properties":{"id":"osm:node:8018193994","name":"廣和藥師藥局","category":"pharmacy"},"geometry":{"type":"Point","coordinates":[121.476715,25.016952]}},{"type":"Feature","properties":{"id":"osm:node:8195481558","name":"微笑生活藥局","category":"pharmacy","opening_hours":"Mo-Fr 09:00-21:00; Sa 09:00-13:00; Su off"},"geometry":{"type":"Point","coordinates":[121.540407,24.976573]}},{"type":"Feature","properties":{"id":"osm:node:8272809179","name":"中力藥局","category":"pharmacy"},"geometry":{"type":"Point","coordinates":[121.515581,25.043549]}},{"type":"Feature","properties":{"id":"osm:node:8280854490","name":"上海聯合藥房","category":"pharmacy"},"geometry":{"type":"Point","coordinates":[121.512653,25.042174]}},{"type":"Feature","properties":{"id":"osm:node:8280854491","name":"合泰大藥局","category":"pharmacy"},"geometry":{"type":"Point","coordinates":[121.512784,25.042173]}},{"type":"Feature","properties":{"id":"osm:node:8290322581","name":"OK藥師藥局","category":"pharmacy"},"geometry":{"type":"Point","coordinates":[121.543412,25.056167]}},{"type":"Feature","properties":{"id":"osm:node:8290322583","name":"康林藥局","category":"pharmacy"},"geometry":{"type":"Point","coordinates":[121.543772,25.056163]}},{"type":"Feature","properties":{"id":"osm:node:8290322587","name":"長青藥局","category":"pharmacy"},"geometry":{"type":"Point","coordinates":[121.541843,25.056182]}},{"type":"Feature","properties":{"id":"osm:node:8301473884","name":"埔墘藥局","category":"pharmacy"},"geometry":{"type":"Point","coordinates":[121.476953,25.017432]}},{"type":"Feature","properties":{"id":"osm:node:8301473888","name":"皇安藥局","category":"pharmacy"},"geometry":{"type":"Point","coordinates":[121.477239,25.017585]}},{"type":"Feature","properties":{"id":"osm:node:8301473898","name":"樂心藥局","category":"pharmacy"},"geometry":{"type":"Point","coordinates":[121.476898,25.017016]}},{"type":"Feature","properties":{"id":"osm:node:8383628408","name":"長頸鹿藥師藥局","category":"pharmacy"},"geometry":{"type":"Point","coordinates":[121.518322,25.02954]}},{"type":"Feature","properties":{"id":"osm:node:8410741327","name":"松本清","category":"pharmacy","name_en":"Matsumoto Kiyoshi","brand":"松本清"},"geometry":{"type":"Point","coordinates":[121.605933,25.052763]}},{"type":"Feature","properties":{"id":"osm:node:843415680","name":"杏一醫療用品","category":"pharmacy","name_en":"MedFirst","brand":"杏一醫療用品","opening_hours":"08:00-22:00"},"geometry":{"type":"Point","coordinates":[121.584864,25.045506]}},{"type":"Feature","properties":{"id":"osm:node:843419165","name":"勝安藥局","category":"pharmacy"},"geometry":{"type":"Point","coordinates":[121.621103,25.039515]}},{"type":"Feature","properties":{"id":"osm:node:870621696","name":"People","category":"pharmacy"},"geometry":{"type":"Point","coordinates":[121.63213,25.069723]}},{"type":"Feature","properties":{"id":"osm:node:8769364947","name":"杏泰藥師健保藥局","category":"pharmacy"},"geometry":{"type":"Point","coordinates":[121.477038,25.025925]}},{"type":"Feature","properties":{"id":"osm:node:8772843171","name":"大福藥局超商","category":"pharmacy"},"geometry":{"type":"Point","coordinates":[121.479996,25.023239]}},{"type":"Feature","properties":{"id":"osm:node:8776487274","name":"美康健保藥局","category":"pharmacy"},"geometry":{"type":"Point","coordinates":[121.496173,25.061817]}},{"type":"Feature","properties":{"id":"osm:node:8788227663","name":"德一藥局","category":"pharmacy"},"geometry":{"type":"Point","coordinates":[121.478506,25.018026]}},{"type":"Feature","properties":{"id":"osm:node:8788497108","name":"祥泰藥局","category":"pharmacy","opening_hours":"Mo-Fr 13:00-26:00; Sa 15:00-26:00; Su off"},"geometry":{"type":"Point","coordinates":[121.52507,25.051442]}},{"type":"Feature","properties":{"id":"osm:node:8805664061","name":"椿萱藥局","category":"pharmacy"},"geometry":{"type":"Point","coordinates":[121.54045,24.975894]}},{"type":"Feature","properties":{"id":"osm:node:8813868885","name":"大川藥局","category":"pharmacy"},"geometry":{"type":"Point","coordinates":[121.475092,25.016202]}},{"type":"Feature","properties":{"id":"osm:node:8823518483","name":"湯明藥局","category":"pharmacy"},"geometry":{"type":"Point","coordinates":[121.479001,25.018675]}},{"type":"Feature","properties":{"id":"osm:node:8872456820","name":"北一藥師藥局","category":"pharmacy","opening_hours":"Mo-Sa 09:30-21:30; Su off"},"geometry":{"type":"Point","coordinates":[121.54275,24.976229]}},{"type":"Feature","properties":{"id":"osm:node:8915492248","name":"丁丁藥局","category":"pharmacy","name_en":"Tin Tin Drugstore","brand":"丁丁藥局","opening_hours":"09:00-22:50"},"geometry":{"type":"Point","coordinates":[121.491139,25.073921]}},{"type":"Feature","properties":{"id":"osm:node:8926155438","name":"晟安藥局","category":"pharmacy"},"geometry":{"type":"Point","coordinates":[121.590173,25.085938]}},{"type":"Feature","properties":{"id":"osm:node:9229352497","name":"杏一藥局","category":"pharmacy"},"geometry":{"type":"Point","coordinates":[121.460447,25.001819]}},{"type":"Feature","properties":{"id":"osm:node:9229352498","name":"大樹藥局","category":"pharmacy","name_en":"Great Tree Pharmacy","brand":"大樹藥局"},"geometry":{"type":"Point","coordinates":[121.460283,25.001794]}},{"type":"Feature","properties":{"id":"osm:node:9229352500","name":"萬壽專業藥局","category":"pharmacy"},"geometry":{"type":"Point","coordinates":[121.459818,25.002532]}},{"type":"Feature","properties":{"id":"osm:node:9385907784","name":"永明藥局","category":"pharmacy"},"geometry":{"type":"Point","coordinates":[121.453385,25.049357]}},{"type":"Feature","properties":{"id":"osm:node:9410315995","name":"金美藥局","category":"pharmacy","opening_hours":"Mo-Sa 09:00-12:00,16:00-21:30"},"geometry":{"type":"Point","coordinates":[121.541667,24.98201]}},{"type":"Feature","properties":{"id":"osm:node:9410315998","name":"世明藥局","category":"pharmacy","opening_hours":"Mo-Sa 08:30-22:00; Su off"},"geometry":{"type":"Point","coordinates":[121.541757,24.981596]}},{"type":"Feature","properties":{"id":"osm:node:9413227023","name":"唯安藥局","category":"pharmacy"},"geometry":{"type":"Point","coordinates":[121.491619,25.083527]}},{"type":"Feature","properties":{"id":"osm:node:9413227033","name":"晨星藥局","category":"pharmacy"},"geometry":{"type":"Point","coordinates":[121.491426,25.084052]}},{"type":"Feature","properties":{"id":"osm:node:9425872044","name":"藥比藥局","category":"pharmacy"},"geometry":{"type":"Point","coordinates":[121.48773,25.05125]}},{"type":"Feature","properties":{"id":"osm:node:9428651525","name":"龍門藥局","category":"pharmacy"},"geometry":{"type":"Point","coordinates":[121.499608,25.073202]}},{"type":"Feature","properties":{"id":"osm:node:9428782933","name":"聯鑫藥師藥局","category":"pharmacy"},"geometry":{"type":"Point","coordinates":[121.495434,25.070061]}},{"type":"Feature","properties":{"id":"osm:node:9431630971","name":"佑全三重正義藥局","category":"pharmacy"},"geometry":{"type":"Point","coordinates":[121.496191,25.068531]}},{"type":"Feature","properties":{"id":"osm:node:9431631217","name":"躍獅欣欣藥局","category":"pharmacy"},"geometry":{"type":"Point","coordinates":[121.49595,25.069138]}},{"type":"Feature","properties":{"id":"osm:node:9434060577","name":"博安藥局","category":"pharmacy"},"geometry":{"type":"Point","coordinates":[121.498223,25.061181]}},{"type":"Feature","properties":{"id":"osm:node:9444013309","name":"大樹藥局","category":"pharmacy","name_en":"Great Tree Pharmacy","brand":"大樹藥局"},"geometry":{"type":"Point","coordinates":[121.476224,25.090608]}},{"type":"Feature","properties":{"id":"osm:node:9514606528","name":"義和藥局","category":"pharmacy"},"geometry":{"type":"Point","coordinates":[121.490873,25.072063]}},{"type":"Feature","properties":{"id":"osm:node:9514659838","name":"南星藥房","category":"pharmacy"},"geometry":{"type":"Point","coordinates":[121.492902,25.060191]}},{"type":"Feature","properties":{"id":"osm:node:9516224738","name":"杏一","category":"pharmacy"},"geometry":{"type":"Point","coordinates":[121.49149,25.060046]}},{"type":"Feature","properties":{"id":"osm:node:9516224805","name":"誠泰藥師藥局","category":"pharmacy"},"geometry":{"type":"Point","coordinates":[121.492684,25.060445]}},{"type":"Feature","properties":{"id":"osm:node:9520337790","name":"守仁堂","category":"pharmacy"},"geometry":{"type":"Point","coordinates":[121.51834,25.093071]}},{"type":"Feature","properties":{"id":"osm:node:9522095350","name":"江村健保藥局","category":"pharmacy"},"geometry":{"type":"Point","coordinates":[121.495265,25.061651]}},{"type":"Feature","properties":{"id":"osm:node:9523798383","name":"杏一","category":"pharmacy"},"geometry":{"type":"Point","coordinates":[121.489256,25.052714]}},{"type":"Feature","properties":{"id":"osm:node:9523808723","name":"榮康藥局","category":"pharmacy"},"geometry":{"type":"Point","coordinates":[121.48864,25.051308]}},{"type":"Feature","properties":{"id":"osm:node:9526483327","name":"生光藥局","category":"pharmacy"},"geometry":{"type":"Point","coordinates":[121.541166,25.041374]}},{"type":"Feature","properties":{"id":"osm:node:9565124392","name":"凱一藥局","category":"pharmacy"},"geometry":{"type":"Point","coordinates":[121.450121,24.986254]}},{"type":"Feature","properties":{"id":"osm:node:9610069278","name":"安心藥局","category":"pharmacy"},"geometry":{"type":"Point","coordinates":[121.568542,25.042653]}},{"type":"Feature","properties":{"id":"osm:node:9688184757","name":"新進發大藥局","category":"pharmacy"},"geometry":{"type":"Point","coordinates":[121.477784,25.027054]}},{"type":"Feature","properties":{"id":"osm:node:9688184766","name":"寶元蔘藥行","category":"pharmacy"},"geometry":{"type":"Point","coordinates":[121.477068,25.026902]}},{"type":"Feature","properties":{"id":"osm:node:9702276250","name":"樂齡藥師藥局","category":"pharmacy","opening_hours":"Mo-Su 09:00-21:00"},"geometry":{"type":"Point","coordinates":[121.590871,25.08645]}},{"type":"Feature","properties":{"id":"osm:node:9702277155","name":"泰成藥局","category":"pharmacy","opening_hours":"Mo-Sa 09:00-21:00"},"geometry":{"type":"Point","coordinates":[121.589903,25.086874]}},{"type":"Feature","properties":{"id":"osm:node:9707475851","name":"台化藥局","category":"pharmacy"},"geometry":{"type":"Point","coordinates":[121.517549,25.011947]}},{"type":"Feature","properties":{"id":"osm:node:9707475853","name":"維康醫療用品","category":"pharmacy"},"geometry":{"type":"Point","coordinates":[121.517942,25.012064]}},{"type":"Feature","properties":{"id":"osm:node:9709480251","name":"活力健康藥妝藥局","category":"pharmacy"},"geometry":{"type":"Point","coordinates":[121.506187,25.02793]}},{"type":"Feature","properties":{"id":"osm:node:9713631606","name":"日森人文藥局","category":"pharmacy"},"geometry":{"type":"Point","coordinates":[121.498797,25.035414]}},{"type":"Feature","properties":{"id":"osm:node:9717834312","name":"杏一","category":"pharmacy","opening_hours":"Mo-Fr 09:00-21:00; Sa-Su 09:00-18:00"},"geometry":{"type":"Point","coordinates":[121.507663,25.034563]}},{"type":"Feature","properties":{"id":"osm:node:9717863340","name":"國杏藥師示範藥局","category":"pharmacy"},"geometry":{"type":"Point","coordinates":[121.507855,25.034868]}},{"type":"Feature","properties":{"id":"osm:node:9717863362","name":"和平藥局","category":"pharmacy"},"geometry":{"type":"Point","coordinates":[121.506372,25.035038]}},{"type":"Feature","properties":{"id":"osm:node:9725205229","name":"躍獅藥局","category":"pharmacy"},"geometry":{"type":"Point","coordinates":[121.507408,25.034801]}},{"type":"Feature","properties":{"id":"osm:node:9734414604","name":"視美藥局","category":"pharmacy","opening_hours":"Mo-Sa 10:00-20:00"},"geometry":{"type":"Point","coordinates":[121.542365,25.061638]}},{"type":"Feature","properties":{"id":"osm:node:9734464964","name":"專品藥局","category":"pharmacy"},"geometry":{"type":"Point","coordinates":[121.540896,25.061275]}},{"type":"Feature","properties":{"id":"osm:node:9744939057","name":"大樹藥局","category":"pharmacy","name_en":"Great Tree Pharmacy","brand":"大樹藥局"},"geometry":{"type":"Point","coordinates":[121.476778,25.030654]}},{"type":"Feature","properties":{"id":"osm:node:9756938133","name":"長春堂蔘藥行","category":"pharmacy"},"geometry":{"type":"Point","coordinates":[121.524254,25.026738]}},{"type":"Feature","properties":{"id":"osm:node:9756938136","name":"嘉仁藥房","category":"pharmacy"},"geometry":{"type":"Point","coordinates":[121.524732,25.027095]}},{"type":"Feature","properties":{"id":"osm:node:9765983611","name":"皇興藥師藥局","category":"pharmacy"},"geometry":{"type":"Point","coordinates":[121.56209,24.989027]}},{"type":"Feature","properties":{"id":"osm:node:9775314366","name":"康倍藥局","category":"pharmacy"},"geometry":{"type":"Point","coordinates":[121.54201,24.971438]}},{"type":"Feature","properties":{"id":"osm:node:9776303090","name":"富康活力藥局","category":"pharmacy"},"geometry":{"type":"Point","coordinates":[121.539565,24.972884]}},{"type":"Feature","properties":{"id":"osm:node:9776303092","name":"美康健保藥局","category":"pharmacy"},"geometry":{"type":"Point","coordinates":[121.539728,24.972792]}},{"type":"Feature","properties":{"id":"osm:node:9781235590","name":"王藥局","category":"pharmacy"},"geometry":{"type":"Point","coordinates":[121.454335,25.049897]}},{"type":"Feature","properties":{"id":"osm:node:9781235591","name":"南益中藥行","category":"pharmacy"},"geometry":{"type":"Point","coordinates":[121.45418,25.049972]}},{"type":"Feature","properties":{"id":"osm:node:9800543154","name":"大誠藥局","category":"pharmacy"},"geometry":{"type":"Point","coordinates":[121.473818,25.002026]}},{"type":"Feature","properties":{"id":"osm:node:9800543156","name":"瑞發藥局","category":"pharmacy"},"geometry":{"type":"Point","coordinates":[121.474058,25.002269]}},{"type":"Feature","properties":{"id":"osm:node:9800543158","name":"順儷連鎖藥局 民享店","category":"pharmacy"},"geometry":{"type":"Point","coordinates":[121.47411,25.002635]}},{"type":"Feature","properties":{"id":"osm:node:9800543159","name":"順元堂參藥行","category":"pharmacy"},"geometry":{"type":"Point","coordinates":[121.474102,25.002123]}},{"type":"Feature","properties":{"id":"osm:node:9800543160","name":"進安中藥行","category":"pharmacy"},"geometry":{"type":"Point","coordinates":[121.474313,25.001839]}},{"type":"Feature","properties":{"id":"osm:node:9821522016","name":"大吉藥局","category":"pharmacy"},"geometry":{"type":"Point","coordinates":[121.54516,24.969759]}},{"type":"Feature","properties":{"id":"osm:node:9850794448","name":"泰生堂參藥行","category":"pharmacy"},"geometry":{"type":"Point","coordinates":[121.510153,25.045876]}},{"type":"Feature","properties":{"id":"osm:node:9871694765","name":"大欣藥局","category":"pharmacy"},"geometry":{"type":"Point","coordinates":[121.454629,24.982991]}},{"type":"Feature","properties":{"id":"osm:node:9871703866","name":"杏一藥局","category":"pharmacy"},"geometry":{"type":"Point","coordinates":[121.453222,24.984946]}},{"type":"Feature","properties":{"id":"osm:node:9871773741","name":"大樹藥局","category":"pharmacy","name_en":"Great Tree Pharmacy","brand":"大樹藥局","opening_hours":"09:00-22:00"},"geometry":{"type":"Point","coordinates":[121.455305,24.982042]}},{"type":"Feature","properties":{"id":"osm:node:9932969710","name":"華傳綜合大藥局","category":"pharmacy"},"geometry":{"type":"Point","coordinates":[121.454994,25.015171]}},{"type":"Feature","properties":{"id":"osm:node:9944209848","name":"忠安生藥局","category":"pharmacy"},"geometry":{"type":"Point","coordinates":[121.483684,25.024204]}},{"type":"Feature","properties":{"id":"osm:node:9944209859","name":"神昌蔘藥行","category":"pharmacy"},"geometry":{"type":"Point","coordinates":[121.483837,25.024039]}},{"type":"Feature","properties":{"id":"osm:node:9957482181","name":"恩達藥局","category":"pharmacy"},"geometry":{"type":"Point","coordinates":[121.497507,25.035673]}},{"type":"Feature","properties":{"id":"osm:node:9969488527","name":"大峰藥師藥局","category":"pharmacy"},"geometry":{"type":"Point","coordinates":[121.474067,25.023138]}},{"type":"Feature","properties":{"id":"osm:node:9976424504","name":"艾米力藥師藥局","category":"pharmacy"},"geometry":{"type":"Point","coordinates":[121.503437,25.029457]}},{"type":"Feature","properties":{"id":"osm:way:204256043","name":"躍獅連鎖藥局宏宜分店","category":"pharmacy"},"geometry":{"type":"Point","coordinates":[121.509828,25.113007]}},{"type":"Feature","properties":{"id":"osm:way:370150206","name":"丁丁藥局","category":"pharmacy","name_en":"Tin Tin Drugstore","brand":"丁丁藥局","opening_hours":"09:00-22:45"},"geometry":{"type":"Point","coordinates":[121.462363,25.091939]}},{"type":"Feature","properties":{"id":"osm:way:396410861","name":"快安藥局","category":"pharmacy","opening_hours":"Mo-Su 09:00-23:00"},"geometry":{"type":"Point","coordinates":[121.51453,25.053481]}},{"type":"Feature","properties":{"id":"osm:way:396410891","name":"建祥藥局","category":"pharmacy","opening_hours":"Mo-Su 09:30-24:00"},"geometry":{"type":"Point","coordinates":[121.515127,25.054817]}},{"type":"Feature","properties":{"id":"osm:way:484170028","name":"杏安樂局","category":"pharmacy"},"geometry":{"type":"Point","coordinates":[121.593775,25.049646]}}]}