{"type":"FeatureCollection","features":[{"type":"Feature","properties":{"id":"osm:node:10567137482","name":"台北市政府警察局刑事警察大隊女勤組","category":"police"},"geometry":{"type":"Point","coordinates":[121.508602,25.05335]}},{"type":"Feature","properties":{"id":"osm:node:11049327157","name":"海山派出所","category":"police"},"geometry":{"type":"Point","coordinates":[121.470078,25.011372]}},{"type":"Feature","properties":{"id":"osm:node:1195384271","name":"東社派出所","category":"police","opening_hours":"24/7"},"geometry":{"type":"Point","coordinates":[121.551479,25.056749]}},{"type":"Feature","properties":{"id":"osm:node:12405180636","name":"信義交通分隊","category":"police"},"geometry":{"type":"Point","coordinates":[121.567456,25.033221]}},{"type":"Feature","properties":{"id":"osm:node:12407595789","name":"臺北市警察局少年警察隊","category":"police"},"geometry":{"type":"Point","coordinates":[121.574191,25.033084]}},{"type":"Feature","properties":{"id":"osm:node:12484139194","name":"福德街派出所","category":"police"},"geometry":{"type":"Point","coordinates":[121.581794,25.037611]}},{"type":"Feature","properties":{"id":"osm:node:13088892511","name":"三民派出所","category":"police"},"geometry":{"type":"Point","coordinates":[121.461183,25.085504]}},{"type":"Feature","properties":{"id":"osm:node:14055528092","name":"板橋派出所","category":"police"},"geometry":{"type":"Point","coordinates":[121.45682,25.010954]}},{"type":"Feature","properties":{"id":"osm:node:1662428733","name":"長青派出所","category":"police"},"geometry":{"type":"Point","coordinates":[121.605536,25.11116]}},{"type":"Feature","properties":{"id":"osm:node:1839317298","name":"台北市捷運警察隊第三分隊","category":"police"},"geometry":{"type":"Point","coordinates":[121.566519,25.082495]}},{"type":"Feature","properties":{"id":"osm:node:1839477017","name":"芝山岩派出所","category":"police"},"geometry":{"type":"Point","coordinates":[121.537837,25.10107]}},{"type":"Feature","properties":{"id":"osm:node:1929984671","name":"仁愛路派出所","category":"police"},"geometry":{"type":"Point","coordinates":[121.522689,25.038952]}},{"type":"Feature","properties":{"id":"osm:node:1963001357","name":"景安派出所","category":"police","name_en":"Jing'an Police Station"},"geometry":{"type":"Point","coordinates":[121.50261,24.990425]}},{"type":"Feature","properties":{"id":"osm:node:1996967326","name":"永福派出所","category":"police"},"geometry":{"type":"Point","coordinates":[121.552336,25.118427]}},{"type":"Feature","properties":{"id":"osm:node:2062547638","name":"山仔后派出所","category":"police"},"geometry":{"type":"Point","coordinates":[121.546394,25.13736]}},{"type":"Feature","properties":{"id":"osm:node:2111807679","name":"成洲派出所","category":"police"},"geometry":{"type":"Point","coordinates":[121.451625,25.101393]}},{"type":"Feature","properties":{"id":"osm:node:2172963453","name":"民有派出所","category":"police"},"geometry":{"type":"Point","coordinates":[121.548032,25.061773]}},{"type":"Feature","properties":{"id":"osm:node:2207974945","name":"重陽派出所","category":"police"},"geometry":{"type":"Point","coordinates":[121.488052,25.089314]}},{"type":"Feature","properties":{"id":"osm:node:2218996603","name":"江陵派出所","category":"police"},"geometry":{"type":"Point","coordinates":[121.541775,24.978676]}},{"type":"Feature","properties":{"id":"osm:node:2269585355","name":"青年路派出所","category":"police"},"geometry":{"type":"Point","coordinates":[121.502481,25.022005]}},{"type":"Feature","properties":{"id":"osm:node:2383851107","name":"華江派出所","category":"police"},"geometry":{"type":"Point","coordinates":[121.493159,25.034276]}},{"type":"Feature","properties":{"id":"osm:node:2395210299","name":"新莊派出所 (臨時廳舍)","category":"police","opening_hours":"24/7"},"geometry":{"type":"Point","coordinates":[121.464585,25.040553]}},{"type":"Feature","properties":{"id":"osm:node:2456412694","name":"長安東路派出所","category":"police"},"geometry":{"type":"Point","coordinates":[121.54053,25.04844]}},{"type":"Feature","properties":{"id":"osm:node:2514705886","name":"港墘派出所","category":"police"},"geometry":{"type":"Point","coordinates":[121.576805,25.078796]}},{"type":"Feature","properties":{"id":"osm:node:2529516240","name":"復興派出所","category":"police"},"geometry":{"type":"Point","coordinates":[121.547035,24.986774]}},{"type":"Feature","properties":{"id":"osm:node:2536763052","name":"三民派出所","category":"police"},"geometry":{"type":"Point","coordinates":[121.562776,25.05913]}},{"type":"Feature","properties":{"id":"osm:node:2536763128","name":"中原派出所","category":"police"},"geometry":{"type":"Point","coordinates":[121.488302,25.007621]}},{"type":"Feature","properties":{"id":"osm:node:2536763153","name":"中和派出所","category":"police"},"geometry":{"type":"Point","coordinates":[121.502433,24.999722]}},{"type":"Feature","properties":{"id":"osm:node:2536763202","name":"中崙派出所","category":"police"},"geometry":{"type":"Point","coordinates":[121.552514,25.051116]}},{"type":"Feature","properties":{"id":"osm:node:2536763213","name":"中正橋派出所","category":"police"},"geometry":{"type":"Point","coordinates":[121.515847,25.016436]}},{"type":"Feature","properties":{"id":"osm:node:2536763226","name":"中港派出所","category":"police"},"geometry":{"type":"Point","coordinates":[121.451898,25.046619]}},{"type":"Feature","properties":{"id":"osm:node:2536763231","name":"中興橋派出所","category":"police"},"geometry":{"type":"Point","coordinates":[121.490161,25.050485]}},{"type":"Feature","properties":{"id":"osm:node:2536763372","name":"二重派出所","category":"police"},"geometry":{"type":"Point","coordinates":[121.475918,25.047525]}},{"type":"Feature","properties":{"id":"osm:node:2536763375","name":"五分埔派出所","category":"police"},"geometry":{"type":"Point","coordinates":[121.575846,25.045664]}},{"type":"Feature","properties":{"id":"osm:node:2536763387","name":"五工派出所","category":"police"},"geometry":{"type":"Point","coordinates":[121.457771,25.063309]}},{"type":"Feature","properties":{"id":"osm:node:2536763506","name":"六張犁派出所","category":"police"},"geometry":{"type":"Point","coordinates":[121.555142,25.02364]}},{"type":"Feature","properties":{"id":"osm:node:2536763746","name":"厚德派出所","category":"police"},"geometry":{"type":"Point","coordinates":[121.491976,25.07347]}},{"type":"Feature","properties":{"id":"osm:node:2536763866","name":"同德派出所","category":"police"},"geometry":{"type":"Point","coordinates":[121.585658,25.046067]}},{"type":"Feature","properties":{"id":"osm:node:2536763885","name":"吳興街派出所","category":"police"},"geometry":{"type":"Point","coordinates":[121.563919,25.026552]}},{"type":"Feature","properties":{"id":"osm:node:2536764029","name":"員山派出所","category":"police"},"geometry":{"type":"Point","coordinates":[121.480919,24.998252]}},{"type":"Feature","properties":{"id":"osm:node:2536764103","name":"國光派出所","category":"police"},"geometry":{"type":"Point","coordinates":[121.470832,25.002575]}},{"type":"Feature","properties":{"id":"osm:node:2536764153","name":"大同派出所","category":"police"},"geometry":{"type":"Point","coordinates":[121.496432,25.056551]}},{"type":"Feature","properties":{"id":"osm:node:2536764167","name":"大屯派出所","category":"police"},"geometry":{"type":"Point","coordinates":[121.493321,25.145567]}},{"type":"Feature","properties":{"id":"osm:node:2536764211","name":"大有派出所","category":"police"},"geometry":{"type":"Point","coordinates":[121.47554,25.070316]}},{"type":"Feature","properties":{"id":"osm:node:2536764293","name":"大理街派出所","category":"police"},"geometry":{"type":"Point","coordinates":[121.498362,25.034478]}},{"type":"Feature","properties":{"id":"osm:node:2536764337","name":"天母派出所","category":"police"},"geometry":{"type":"Point","coordinates":[121.53299,25.12504]}},{"type":"Feature","properties":{"id":"osm:node:2536764517","name":"康定路派出所","category":"police"},"geometry":{"type":"Point","coordinates":[121.50044,25.035041]}},{"type":"Feature","properties":{"id":"osm:node:2536764521","name":"康寧派出所","category":"police"},"geometry":{"type":"Point","coordinates":[121.597513,25.081167]}},{"type":"Feature","properties":{"id":"osm:node:2536764524","name":"康樂派出所","category":"police"},"geometry":{"type":"Point","coordinates":[121.618283,25.07037]}},{"type":"Feature","properties":{"id":"osm:node:2536764528","name":"廈門街派出所","category":"police","opening_hours":"24/7"},"geometry":{"type":"Point","coordinates":[121.517701,25.025813]}},{"type":"Feature","properties":{"id":"osm:node:2536764582","name":"延平派出所","category":"police"},"geometry":{"type":"Point","coordinates":[121.461418,25.081842]}},{"type":"Feature","properties":{"id":"osm:node:2536764598","name":"建國派出所","category":"police"},"geometry":{"type":"Point","coordinates":[121.535995,25.067995]}},{"type":"Feature","properties":{"id":"osm:node:2536764609","name":"建成派出所","category":"police"},"geometry":{"type":"Point","coordinates":[121.517326,25.05275]}},{"type":"Feature","properties":{"id":"osm:node:2536764716","name":"復興派出所","category":"police"},"geometry":{"type":"Point","coordinates":[121.668196,25.090796]}},{"type":"Feature","properties":{"id":"osm:node:2536764875","name":"慈福派出所","category":"police"},"geometry":{"type":"Point","coordinates":[121.487185,25.082247]}},{"type":"Feature","properties":{"id":"osm:node:2536764911","name":"指南派出所","category":"police"},"geometry":{"type":"Point","coordinates":[121.577911,24.987289]}},{"type":"Feature","properties":{"id":"osm:node:2536764948","name":"文德派出所","category":"police"},"geometry":{"type":"Point","coordinates":[121.578917,25.066597]}},{"type":"Feature","properties":{"id":"osm:node:2536764961","name":"文聖派出所","category":"police","name_en":"Wensheng Police Station"},"geometry":{"type":"Point","coordinates":[121.477242,25.026827]}},{"type":"Feature","properties":{"id":"osm:node:2536765019","name":"新生派出所","category":"police"},"geometry":{"type":"Point","coordinates":[121.508036,25.015793]}},{"type":"Feature","properties":{"id":"osm:node:2536765217","name":"龍山機動派出所","category":"police"},"geometry":{"type":"Point","coordinates":[121.503865,25.037854]}},{"type":"Feature","properties":{"id":"osm:node:2536765310","name":"更寮派出所","category":"police"},"geometry":{"type":"Point","coordinates":[121.45842,25.077924]}},{"type":"Feature","properties":{"id":"osm:node:2536765328","name":"木新派出所","category":"police"},"geometry":{"type":"Point","coordinates":[121.567281,24.982431]}},{"type":"Feature","properties":{"id":"osm:node:2536765340","name":"東園街派出所","category":"police"},"geometry":{"type":"Point","coordinates":[121.498209,25.022413]}},{"type":"Feature","properties":{"id":"osm:node:2536765381","name":"東湖派出所","category":"police"},"geometry":{"type":"Point","coordinates":[121.613015,25.06741]}},{"type":"Feature","properties":{"id":"osm:node:2536765392","name":"松山派出所","category":"police","name_en":"Songshan Police Station"},"geometry":{"type":"Point","coordinates":[121.57726,25.049765]}},{"type":"Feature","properties":{"id":"osm:node:2536765463","name":"民族路派出所","category":"police"},"geometry":{"type":"Point","coordinates":[121.513508,25.068788]}},{"type":"Feature","properties":{"id":"osm:node:2536765465","name":"民權一派出所","category":"police"},"geometry":{"type":"Point","coordinates":[121.527951,25.059889]}},{"type":"Feature","properties":{"id":"osm:node:2536765471","name":"民生西路派出所","category":"police","opening_hours":"24/7"},"geometry":{"type":"Point","coordinates":[121.512034,25.059453]}},{"type":"Feature","properties":{"id":"osm:node:2536765490","name":"永和派出所","category":"police"},"geometry":{"type":"Point","coordinates":[121.514525,25.006228]}},{"type":"Feature","properties":{"id":"osm:node:2536765510","name":"江翠派出所","category":"police","name_en":"Jiangcui Police Station"},"geometry":{"type":"Point","coordinates":[121.470043,25.030229]}},{"type":"Feature","properties":{"id":"osm:node:2536765520","name":"泉州街派出所","category":"police"},"geometry":{"type":"Point","coordinates":[121.512173,25.02423]}},{"type":"Feature","properties":{"id":"osm:node:2536765547","name":"清水派出所","category":"police","name_en":"Qingshui Police Station"},"geometry":{"type":"Point","coordinates":[121.458883,24.981294]}},{"type":"Feature","properties":{"id":"osm:node:2536765571","name":"溪山派出所","category":"police"},"geometry":{"type":"Point","coordinates":[121.584532,25.119695]}},{"type":"Feature","properties":{"id":"osm:node:2536765584","name":"潭美派出所","category":"police"},"geometry":{"type":"Point","coordinates":[121.58157,25.055283]}},{"type":"Feature","properties":{"id":"osm:node:2536765595","name":"烘內派出所","category":"police"},"geometry":{"type":"Point","coordinates":[121.64676,25.088444]}},{"type":"Feature","properties":{"id":"osm:node:2536765731","name":"石牌派出所","category":"police"},"geometry":{"type":"Point","coordinates":[121.512499,25.109887]}},{"type":"Feature","properties":{"id":"osm:node:2536765803","name":"福德街派出所","category":"police"},"geometry":{"type":"Point","coordinates":[121.576111,25.038529]}},{"type":"Feature","properties":{"id":"osm:node:2536765829","name":"竹圍派出所","category":"police","opening_hours":"24/7"},"geometry":{"type":"Point","coordinates":[121.459794,25.137442]}},{"type":"Feature","properties":{"id":"osm:node:2536765875","name":"臥龍街派出所","category":"police"},"geometry":{"type":"Point","coordinates":[121.551938,25.017935]}},{"type":"Feature","properties":{"id":"osm:node:2536766027","name":"萬芳派出所","category":"police"},"geometry":{"type":"Point","coordinates":[121.566797,25.002247]}},{"type":"Feature","properties":{"id":"osm:node:2536766033","name":"蘆洲派出所","category":"police"},"geometry":{"type":"Point","coordinates":[121.47273,25.081951]}},{"type":"Feature","properties":{"id":"osm:node:2536766039","name":"蘭雅派出所","category":"police"},"geometry":{"type":"Point","coordinates":[121.524751,25.106648]}},{"type":"Feature","properties":{"id":"osm:node:2536766055","name":"西湖派出所","category":"police","opening_hours":"24/7"},"geometry":{"type":"Point","coordinates":[121.569311,25.079111]}},{"type":"Feature","properties":{"id":"osm:node:2536766128","name":"金城派出所","category":"police"},"geometry":{"type":"Point","coordinates":[121.463519,24.984087]}},{"type":"Feature","properties":{"id":"osm:node:2536766149","name":"長安派出所","category":"police"},"geometry":{"type":"Point","coordinates":[121.668124,25.077534]}},{"type":"Feature","properties":{"id":"osm:node:2536766152","name":"長春路派出所","category":"police"},"geometry":{"type":"Point","coordinates":[121.536029,25.054627]}},{"type":"Feature","properties":{"id":"osm:node:2536766172","name":"關渡派出所","category":"police"},"geometry":{"type":"Point","coordinates":[121.465971,25.122992]}},{"type":"Feature","properties":{"id":"osm:node:2536766187","name":"集賢派出所","category":"police"},"geometry":{"type":"Point","coordinates":[121.481594,25.084811]}},{"type":"Feature","properties":{"id":"osm:node:2536766219","name":"頭前派出所","category":"police"},"geometry":{"type":"Point","coordinates":[121.465797,25.048249]}},{"type":"Feature","properties":{"id":"osm:node:2536766341","name":"龍源派出所","category":"police"},"geometry":{"type":"Point","coordinates":[121.451354,25.132349]}},{"type":"Feature","properties":{"id":"osm:node:2598094444","name":"文山二分局警備隊","category":"police"},"geometry":{"type":"Point","coordinates":[121.541114,24.992675]}},{"type":"Feature","properties":{"id":"osm:node:2598094449","name":"景美派出所","category":"police"},"geometry":{"type":"Point","coordinates":[121.541059,24.992688]}},{"type":"Feature","properties":{"id":"osm:node:2598708681","name":"南海路派出所","category":"police"},"geometry":{"type":"Point","coordinates":[121.513963,25.032035]}},{"type":"Feature","properties":{"id":"osm:node:2599899100","name":"文林派出所","category":"police"},"geometry":{"type":"Point","coordinates":[121.526599,25.090616]}},{"type":"Feature","properties":{"id":"osm:node:2608102228","name":"忠孝西路派出所","category":"police"},"geometry":{"type":"Point","coordinates":[121.517415,25.045113]}},{"type":"Feature","properties":{"id":"osm:node:2778765726","name":"汐止交通分隊","category":"police"},"geometry":{"type":"Point","coordinates":[121.660173,25.068429]}},{"type":"Feature","properties":{"id":"osm:node:2952382795","name":"新生南路派出所","category":"police"},"geometry":{"type":"Point","coordinates":[121.534073,25.037671]}},{"type":"Feature","properties":{"id":"osm:node:3157650600","name":"南港派出所","category":"police"},"geometry":{"type":"Point","coordinates":[121.607082,25.054898]}},{"type":"Feature","properties":{"id":"osm:node:3353592628","name":"三張犁派出所","category":"police"},"geometry":{"type":"Point","coordinates":[121.567982,25.03321]}},{"type":"Feature","properties":{"id":"osm:node:3417501614","name":"錦和派出所","category":"police"},"geometry":{"type":"Point","coordinates":[121.495704,24.993739]}},{"type":"Feature","properties":{"id":"osm:node:3823837121","name":"莒光民防中隊","category":"police"},"geometry":{"type":"Point","coordinates":[121.504223,25.032471]}},{"type":"Feature","properties":{"id":"osm:node:3835834094","name":"後港派出所","category":"police"},"geometry":{"type":"Point","coordinates":[121.51801,25.087325]}},{"type":"Feature","properties":{"id":"osm:node:3881369161","name":"社子派出所","category":"police"},"geometry":{"type":"Point","coordinates":[121.505556,25.089598]}},{"type":"Feature","properties":{"id":"osm:node:3929888459","name":"義交中正二中隊","category":"police"},"geometry":{"type":"Point","coordinates":[121.528536,25.011969]}},{"type":"Feature","properties":{"id":"osm:node:4031296858","name":"民防義警協勤中心","category":"police"},"geometry":{"type":"Point","coordinates":[121.529989,25.043423]}},{"type":"Feature","properties":{"id":"osm:node:4043621675","name":"義勇警察大隊","category":"police"},"geometry":{"type":"Point","coordinates":[121.504316,25.02985]}},{"type":"Feature","properties":{"id":"osm:node:4078673436","name":"臺北市警局保安警察大隊","category":"police"},"geometry":{"type":"Point","coordinates":[121.559692,25.056711]}},{"type":"Feature","properties":{"id":"osm:node:4548084885","name":"保七總隊","category":"police","name_en":"The Seventh Special Police Corps"},"geometry":{"type":"Point","coordinates":[121.539603,25.007393]}},{"type":"Feature","properties":{"id":"osm:node:4596786945","name":"敦化南路派出所","category":"police"},"geometry":{"type":"Point","coordinates":[121.543983,25.038918]}},{"type":"Feature","properties":{"id":"osm:node:4777315497","name":"交通大隊大安分隊","category":"police"},"geometry":{"type":"Point","coordinates":[121.535694,25.035168]}},{"type":"Feature","properties":{"id":"osm:node:4927497171","name":"士林分局交通分隊","category":"police"},"geometry":{"type":"Point","coordinates":[121.518039,25.08726]}},{"type":"Feature","properties":{"id":"osm:node:5110348792","name":"玉成派出所","category":"police","name_en":"Yucheng Police Station"},"geometry":{"type":"Point","coordinates":[121.594791,25.055136]}},{"type":"Feature","properties":{"id":"osm:node:5110489275","name":"捷運警察隊","category":"police"},"geometry":{"type":"Point","coordinates":[121.518852,25.049326]}},{"type":"Feature","properties":{"id":"osm:node:5110489725","name":"民防協勤中心","category":"police"},"geometry":{"type":"Point","coordinates":[121.527931,25.060251]}},{"type":"Feature","properties":{"id":"osm:node:5780708961","name":"寧夏派出所","category":"police"},"geometry":{"type":"Point","coordinates":[121.5155,25.059383]}},{"type":"Feature","properties":{"id":"osm:node:5798395805","name":"木柵派出所","category":"police"},"geometry":{"type":"Point","coordinates":[121.563533,24.988713]}},{"type":"Feature","properties":{"id":"osm:node:5799464932","name":"積穗派出所","category":"police"},"geometry":{"type":"Point","coordinates":[121.480057,25.004835]}},{"type":"Feature","properties":{"id":"osm:node:5814597460","name":"秀朗派出所","category":"police"},"geometry":{"type":"Point","coordinates":[121.521118,25.003733]}},{"type":"Feature","properties":{"id":"osm:node:6795607647","name":"臺北市警察局婦幼警察隊","category":"police"},"geometry":{"type":"Point","coordinates":[121.574386,25.033081]}},{"type":"Feature","properties":{"id":"osm:node:6843922254","name":"中正橋派出所","category":"police"},"geometry":{"type":"Point","coordinates":[121.525266,25.002923]}},{"type":"Feature","properties":{"id":"osm:node:8922564127","name":"碧潭派出所","category":"police","name_en":"Bitan Police Station"},"geometry":{"type":"Point","coordinates":[121.541765,24.967488]}},{"type":"Feature","properties":{"id":"osm:node:8922564129","name":"文山第二分局交通分隊","category":"police"},"geometry":{"type":"Point","coordinates":[121.546885,25.000011]}},{"type":"Feature","properties":{"id":"osm:node:8922564130","name":"交通警察大隊直屬第一分隊","category":"police"},"geometry":{"type":"Point","coordinates":[121.534924,25.013563]}},{"type":"Feature","properties":{"id":"osm:node:9030568079","name":"龍山派出所","category":"police"},"geometry":{"type":"Point","coordinates":[121.49957,25.038627]}},{"type":"Feature","properties":{"id":"osm:node:9340816091","name":"中山一派出所","category":"police"},"geometry":{"type":"Point","coordinates":[121.521433,25.049986]}},{"type":"Feature","properties":{"id":"osm:node:995692085","name":"安和路派出所","category":"police"},"geometry":{"type":"Point","coordinates":[121.552226,25.032947]}},{"type":"Feature","properties":{"id":"osm:relation:18481130","name":"內政部警政署","category":"police","name_en":"National Police Agency, MOI"},"geometry":{"type":"Point","coordinates":[121.522703,25.045834]}},{"type":"Feature","properties":{"id":"osm:relation:4630263","name":"保一總隊石牌營區","category":"police"},"geometry":{"type":"Point","coordinates":[121.516283,25.120407]}},{"type":"Feature","properties":{"id":"osm:relation:4648690","name":"海巡署金馬澎分署","category":"police","name_en":"Coast Guard Administration Kinmen-Matsu-Penghu Branch"},"geometry":{"type":"Point","coordinates":[121.518536,24.989594]}},{"type":"Feature","properties":{"id":"osm:relation:5254548","name":"萬盛山莊","category":"police"},"geometry":{"type":"Point","coordinates":[121.539854,25.007265]}},{"type":"Feature","properties":{"id":"osm:relation:5461056","name":"海洋委員會海巡署","category":"police","name_en":"Coast Guard Administration"},"geometry":{"type":"Point","coordinates":[121.558463,24.995187]}},{"type":"Feature","properties":{"id":"osm:relation:6016261","name":"保二總隊","category":"police"},"geometry":{"type":"Point","coordinates":[121.515535,24.991652]}},{"type":"Feature","properties":{"id":"osm:relation:6086700","name":"海洋委員會海巡署教育訓練測考中心","category":"police"},"geometry":{"type":"Point","coordinates":[121.556081,25.018137]}},{"type":"Feature","properties":{"id":"osm:relation:6087569","name":"警政署警察機械修理廠","category":"police"},"geometry":{"type":"Point","coordinates":[121.554922,25.018301]}},{"type":"Feature","properties":{"id":"osm:relation:7540571","name":"新北市政府警察局警犬隊","category":"police"},"geometry":{"type":"Point","coordinates":[121.492466,24.989067]}},{"type":"Feature","properties":{"id":"osm:way:1002545266","name":"南港派出所","category":"police"},"geometry":{"type":"Point","coordinates":[121.61465,25.06101]}},{"type":"Feature","properties":{"id":"osm:way:1050624644","name":"介壽路派出所","category":"police"},"geometry":{"type":"Point","coordinates":[121.51546,25.04]}},{"type":"Feature","properties":{"id":"osm:way:1086120719","name":"永福派出所","category":"police"},"geometry":{"type":"Point","coordinates":[121.481273,25.076596]}},{"type":"Feature","properties":{"id":"osm:way:1112436111","name":"石碇分駐所","category":"police"},"geometry":{"type":"Point","coordinates":[121.660783,24.991135]}},{"type":"Feature","properties":{"id":"osm:way:1146880090","name":"永明派出所","category":"police"},"geometry":{"type":"Point","coordinates":[121.516947,25.117956]}},{"type":"Feature","properties":{"id":"osm:way:1152676712","name":"新北市政府警察局海山分局","category":"police","name_en":"Haishan Precinct, New Taipei City Police Department","opening_hours":"24/7"},"geometry":{"type":"Point","coordinates":[121.470126,25.011462]}},{"type":"Feature","properties":{"id":"osm:way:1189482911","name":"新海派出所","category":"police"},"geometry":{"type":"Point","coordinates":[121.459903,25.023946]}},{"type":"Feature","properties":{"id":"osm:way:1299666009","name":"永和分局裁決室","category":"police"},"geometry":{"type":"Point","coordinates":[121.519951,25.009279]}},{"type":"Feature","properties":{"id":"osm:way:1299666010","name":"永和分局採尿室","category":"police"},"geometry":{"type":"Point","coordinates":[121.519959,25.009163]}},{"type":"Feature","properties":{"id":"osm:way:1299666014","name":"雙和調查站","category":"police"},"geometry":{"type":"Point","coordinates":[121.519701,25.008639]}},{"type":"Feature","properties":{"id":"osm:way:1341054224","name":"信義分局","category":"police","name_en":"Xinyi Police Precinct"},"geometry":{"type":"Point","coordinates":[121.567681,25.033209]}},{"type":"Feature","properties":{"id":"osm:way:1341337585","name":"臺北市警察局少年/婦幼警察隊","category":"police"},"geometry":{"type":"Point","coordinates":[121.574283,25.033072]}},{"type":"Feature","properties":{"id":"osm:way:1349519871","name":"中山二派出所","category":"police","name_en":"chungshan_2nd_police_station"},"geometry":{"type":"Point","coordinates":[121.524314,25.056183]}},{"type":"Feature","properties":{"id":"osm:way:1350841317","name":"調查局中和調查園區","category":"police","name_en":"MJIB Zhonghe Investigation Park"},"geometry":{"type":"Point","coordinates":[121.498178,25.004376]}},{"type":"Feature","properties":{"id":"osm:way:1545482747","name":"臺北市警察局中正第一分局","category":"police"},"geometry":{"type":"Point","coordinates":[121.522646,25.039053]}},{"type":"Feature","properties":{"id":"osm:way:1547383483","name":"安康派出所","category":"police","name_en":"Ankang Police Station","opening_hours":"24/7"},"geometry":{"type":"Point","coordinates":[121.514473,24.963682]}},{"type":"Feature","properties":{"id":"osm:way:182492320","name":"南勢派出所","category":"police"},"geometry":{"type":"Point","coordinates":[121.507918,24.986547]}},{"type":"Feature","properties":{"id":"osm:way:201716208","name":"崁腳派出所","category":"police"},"geometry":{"type":"Point","coordinates":[121.650781,25.160456]}},{"type":"Feature","properties":{"id":"osm:way:211627121","name":"安平派出所","category":"police","name_en":"Anping Police Station"},"geometry":{"type":"Point","coordinates":[121.511246,24.999973]}},{"type":"Feature","properties":{"id":"osm:way:226828762","name":"奇岩派出所","category":"police"},"geometry":{"type":"Point","coordinates":[121.507975,25.127647]}},{"type":"Feature","properties":{"id":"osm:way:237121381","name":"臺北市警察局萬華分局警備隊","category":"police","opening_hours":"24/7"},"geometry":{"type":"Point","coordinates":[121.501909,25.040631]}},{"type":"Feature","properties":{"id":"osm:way:245622029","name":"保安警察第六總隊","category":"police","name_en":"Special Police Sixth Headquarters, National Police Agency"},"geometry":{"type":"Point","coordinates":[121.515562,25.032776]}},{"type":"Feature","properties":{"id":"osm:way:247678987","name":"羅斯福路派出所","category":"police"},"geometry":{"type":"Point","coordinates":[121.538047,25.010963]}},{"type":"Feature","properties":{"id":"osm:way:262353908","name":"平等駐在所","category":"police"},"geometry":{"type":"Point","coordinates":[121.576457,25.131218]}},{"type":"Feature","properties":{"id":"osm:way:265935416","name":"交通警察大隊","category":"police","name_en":"Traffic Division"},"geometry":{"type":"Point","coordinates":[121.511135,25.035069]}},{"type":"Feature","properties":{"id":"osm:way:271409702","name":"博愛路派出所","category":"police"},"geometry":{"type":"Point","coordinates":[121.509973,25.044315]}},{"type":"Feature","properties":{"id":"osm:way:284788656","name":"內湖派出所","category":"police","opening_hours":"24/7"},"geometry":{"type":"Point","coordinates":[121.590133,25.082152]}},{"type":"Feature","properties":{"id":"osm:way:296974822","name":"西門町派出所","category":"police"},"geometry":{"type":"Point","coordinates":[121.502731,25.045138]}},{"type":"Feature","properties":{"id":"osm:way:297828753","name":"得和派出所","category":"police"},"geometry":{"type":"Point","coordinates":[121.520095,24.997059]}},{"type":"Feature","properties":{"id":"osm:way:301902791","name":"大湖派出所","category":"police"},"geometry":{"type":"Point","coordinates":[121.601384,25.084042]}},{"type":"Feature","properties":{"id":"osm:way:306352011","name":"翠山派出所","category":"police"},"geometry":{"type":"Point","coordinates":[121.560226,25.108079]}},{"type":"Feature","properties":{"id":"osm:way:307155341","name":"重慶北路派出所","category":"police"},"geometry":{"type":"Point","coordinates":[121.51343,25.075364]}},{"type":"Feature","properties":{"id":"osm:way:307670172","name":"莒光派出所","category":"police"},"geometry":{"type":"Point","coordinates":[121.502773,25.031038]}},{"type":"Feature","properties":{"id":"osm:way:308417780","name":"臺北市政府警察局外事服務站","category":"police"},"geometry":{"type":"Point","coordinates":[121.526132,25.090744]}},{"type":"Feature","properties":{"id":"osm:way:314360384","name":"和平東路派出所","category":"police"},"geometry":{"type":"Point","coordinates":[121.530516,25.026687]}},{"type":"Feature","properties":{"id":"osm:way:315409883","name":"興華派出所","category":"police"},"geometry":{"type":"Point","coordinates":[121.502136,25.204661]}},{"type":"Feature","properties":{"id":"osm:way:317463437","name":"信義派出所","category":"police"},"geometry":{"type":"Point","coordinates":[121.462052,24.991248]}},{"type":"Feature","properties":{"id":"osm:way:317751638","name":"後埔派出所","category":"police","name_en":"Houpu Police Station"},"geometry":{"type":"Point","coordinates":[121.460877,25.00462]}},{"type":"Feature","properties":{"id":"osm:way:327127212","name":"光明派出所","category":"police"},"geometry":{"type":"Point","coordinates":[121.504323,25.137362]}},{"type":"Feature","properties":{"id":"osm:way:330745381","name":"公園派出所","category":"police"},"geometry":{"type":"Point","coordinates":[121.548673,25.148826]}},{"type":"Feature","properties":{"id":"osm:way:332875500","name":"萬盛派出所","category":"police","name_en":"Wangsheng Police Station"},"geometry":{"type":"Point","coordinates":[121.53904,25.003887]}},{"type":"Feature","properties":{"id":"osm:way:334880748","name":"大直派出所","category":"police"},"geometry":{"type":"Point","coordinates":[121.54413,25.079473]}},{"type":"Feature","properties":{"id":"osm:way:343397422","name":"舊莊派出所","category":"police"},"geometry":{"type":"Point","coordinates":[121.622512,25.038497]}},{"type":"Feature","properties":{"id":"osm:way:347411637","name":"忠孝東路派出所","category":"police"},"geometry":{"type":"Point","coordinates":[121.527101,25.043633]}},{"type":"Feature","properties":{"id":"osm:way:359202853","name":"警察通訊所","category":"police"},"geometry":{"type":"Point","coordinates":[121.539431,25.007564]}},{"type":"Feature","properties":{"id":"osm:way:360092086","name":"延平派出所","category":"police"},"geometry":{"type":"Point","coordinates":[121.511732,25.052225]}},{"type":"Feature","properties":{"id":"osm:way:374912754","name":"竹子湖派出所","category":"police"},"geometry":{"type":"Point","coordinates":[121.540289,25.167556]}},{"type":"Feature","properties":{"id":"osm:way:378476627","name":"思源街派出所","category":"police"},"geometry":{"type":"Point","coordinates":[121.53194,25.015107]}},{"type":"Feature","properties":{"id":"osm:way:381708690","name":"陽明山警察隊","category":"police"},"geometry":{"type":"Point","coordinates":[121.547019,25.156151]}},{"type":"Feature","properties":{"id":"osm:way:399421231","name":"保七總隊刑事警察大隊","category":"police"},"geometry":{"type":"Point","coordinates":[121.538137,25.154904]}},{"type":"Feature","properties":{"id":"osm:way:420085016","name":"興隆派出所","category":"police"},"geometry":{"type":"Point","coordinates":[121.551237,25.001481]}},{"type":"Feature","properties":{"id":"osm:way:445344872","name":"臺北市政府警察局萬華分局","category":"police"},"geometry":{"type":"Point","coordinates":[121.499458,25.038695]}},{"type":"Feature","properties":{"id":"osm:way:447245358","name":"南昌路派出所","category":"police"},"geometry":{"type":"Point","coordinates":[121.516587,25.032334]}},{"type":"Feature","properties":{"id":"osm:way:452299046","name":"圓山派出所","category":"police"},"geometry":{"type":"Point","coordinates":[121.52365,25.072928]}},{"type":"Feature","properties":{"id":"osm:way:456206432","name":"新北市政府警察局三重分局","category":"police"},"geometry":{"type":"Point","coordinates":[121.489973,25.059178]}},{"type":"Feature","properties":{"id":"osm:way:462960456","name":"大橋派出所","category":"police"},"geometry":{"type":"Point","coordinates":[121.510859,25.063305]}},{"type":"Feature","properties":{"id":"osm:way:487416600","name":"長泰派出所","category":"police"},"geometry":{"type":"Point","coordinates":[121.497262,25.070839]}},{"type":"Feature","properties":{"id":"osm:way:502065279","name":"汐止派出所","category":"police"},"geometry":{"type":"Point","coordinates":[121.660158,25.068474]}},{"type":"Feature","properties":{"id":"osm:way:515405609","name":"木柵分隊","category":"police"},"geometry":{"type":"Point","coordinates":[121.596178,24.998827]}},{"type":"Feature","properties":{"id":"osm:way:527538838","name":"航空警察局台北分局","category":"police"},"geometry":{"type":"Point","coordinates":[121.554132,25.063093]}},{"type":"Feature","properties":{"id":"osm:way:527687890","name":"空中勤務總隊第一大隊第一隊","category":"police"},"geometry":{"type":"Point","coordinates":[121.54933,25.063861]}},{"type":"Feature","properties":{"id":"osm:way:530323123","name":"新北市刑警大隊警犬隊","category":"police"},"geometry":{"type":"Point","coordinates":[121.64076,25.076958]}},{"type":"Feature","properties":{"id":"osm:way:539433329","name":"社后派出所","category":"police"},"geometry":{"type":"Point","coordinates":[121.633559,25.063836]}},{"type":"Feature","properties":{"id":"osm:way:541805771","name":"國家公園駐警隊","category":"police"},"geometry":{"type":"Point","coordinates":[121.538665,25.15463]}},{"type":"Feature","properties":{"id":"osm:way:542931822","name":"民防管制中心","category":"police"},"geometry":{"type":"Point","coordinates":[121.529902,25.089926]}},{"type":"Feature","properties":{"id":"osm:way:545257558","name":"國道警察局石碇分隊","category":"police"},"geometry":{"type":"Point","coordinates":[121.644648,25.01088]}},{"type":"Feature","properties":{"id":"osm:way:545261861","name":"楓子林派出所","category":"police"},"geometry":{"type":"Point","coordinates":[121.642509,25.009847]}},{"type":"Feature","properties":{"id":"osm:way:545337686","name":"國道警察局石碇分隊","category":"police"},"geometry":{"type":"Point","coordinates":[121.644895,25.010899]}},{"type":"Feature","properties":{"id":"osm:way:545470334","name":"深坑分駐所","category":"police"},"geometry":{"type":"Point","coordinates":[121.615266,25.001418]}},{"type":"Feature","properties":{"id":"osm:way:547582746","name":"三重派出所","category":"police","name_en":"Sanchong Police Substation","opening_hours":"24/7"},"geometry":{"type":"Point","coordinates":[121.502258,25.064049]}},{"type":"Feature","properties":{"id":"osm:way:548077595","name":"秀山派出所","category":"police"},"geometry":{"type":"Point","coordinates":[121.526049,24.990499]}},{"type":"Feature","properties":{"id":"osm:way:580668668","name":"國道警察局第一大隊汐止分隊","category":"police"},"geometry":{"type":"Point","coordinates":[121.664293,25.079578]}},{"type":"Feature","properties":{"id":"osm:way:580668670","name":"國道警察局第一大隊汐止分隊","category":"police"},"geometry":{"type":"Point","coordinates":[121.663742,25.079319]}},{"type":"Feature","properties":{"id":"osm:way:580668673","name":"國道警察局第一大隊汐止分隊","category":"police"},"geometry":{"type":"Point","coordinates":[121.66409,25.079503]}},{"type":"Feature","properties":{"id":"osm:way:602345837","name":"西園路派出所","category":"police"},"geometry":{"type":"Point","coordinates":[121.495758,25.0282]}},{"type":"Feature","properties":{"id":"osm:way:603753998","name":"安和派出所","category":"police"},"geometry":{"type":"Point","coordinates":[121.51738,24.979964]}},{"type":"Feature","properties":{"id":"osm:way:621951050","name":"西門町機動派出所","category":"police"},"geometry":{"type":"Point","coordinates":[121.507292,25.042041]}},{"type":"Feature","properties":{"id":"osm:way:645500034","name":"新北市刑事警察大隊","category":"police"},"geometry":{"type":"Point","coordinates":[121.475957,25.00114]}},{"type":"Feature","properties":{"id":"osm:way:646382963","name":"光明派出所","category":"police","name_en":"Guangming Police Station","opening_hours":"24/7"},"geometry":{"type":"Point","coordinates":[121.487247,25.060796]}},{"type":"Feature","properties":{"id":"osm:way:684191017","name":"中和分局偵查隊","category":"police"},"geometry":{"type":"Point","coordinates":[121.477607,25.001612]}},{"type":"Feature","properties":{"id":"osm:way:818862611","name":"瑞安街派出所","category":"police"},"geometry":{"type":"Point","coordinates":[121.545023,25.031177]}},{"type":"Feature","properties":{"id":"osm:way:825152866","name":"昌平派出所","category":"police","name_en":"Changping Police Station","opening_hours":"24/7"},"geometry":{"type":"Point","coordinates":[121.454831,25.056989]}},{"type":"Feature","properties":{"id":"osm:way:863312057","name":"第一公路警察大隊濱江小隊","category":"police"},"geometry":{"type":"Point","coordinates":[121.532926,25.07397]}},{"type":"Feature","properties":{"id":"osm:way:912206190","name":"水源派出所","category":"police"},"geometry":{"type":"Point","coordinates":[121.47807,25.185858]}},{"type":"Feature","properties":{"id":"osm:way:947762001","name":"埔墘派出所","category":"police"},"geometry":{"type":"Point","coordinates":[121.479618,25.018642]}}]}