{"type":"FeatureCollection","features":[{"type":"Feature","properties":{"id":"osm:node:10094980740","name":"中和秀山郵局","category":"post_office","nameEn":"Zhonghe Xiushan Post Office","opening_hours":"Mo-Fr 08:30-17:00","address":"235081新北市中和區自立路147號","phone":"+886 2 2946 5278","website":"https://www.post.gov.tw/"},"geometry":{"type":"Point","coordinates":[121.522579,24.993156]}},{"type":"Feature","properties":{"id":"osm:node:10917747793","name":"順豐速運 SF Express","category":"post_office","nameEn":"SF Express","brand":"順豐速運 SF Express"},"geometry":{"type":"Point","coordinates":[121.518471,25.05887]}},{"type":"Feature","properties":{"id":"osm:node:11049327136","name":"板橋海山郵局","category":"post_office","nameEn":"Banqiao Haishan Post Office","opening_hours":"Mo-Fr 08:30-17:00","address":"220071新北市板橋區漢生東路171號","phone":"+886 2 2955 5800;+886 2 8951 9786","website":"https://www.post.gov.tw/"},"geometry":{"type":"Point","coordinates":[121.469499,25.012275]}},{"type":"Feature","properties":{"id":"osm:node:11127163087","name":"中和民富街郵局","category":"post_office","nameEn":"Zhonghe Minfu Street Post Office","opening_hours":"Mo-Fr 08:30-17:00","address":"235008新北市中和區中山路三段110號","phone":"+886 2 2225 0253","website":"https://www.post.gov.tw/"},"geometry":{"type":"Point","coordinates":[121.476687,25.006494]}},{"type":"Feature","properties":{"id":"osm:node:11394206069","name":"台鐵台北車站行李託運中心","category":"post_office","nameEn":"Taipei Station Baggage Service Center","opening_hours":"Mo-Su 08:00-20:00","address":"臺北市中正區北平西路100號","phone":"+886 2 2314 1223"},"geometry":{"type":"Point","coordinates":[121.518914,25.047411]}},{"type":"Feature","properties":{"id":"osm:node:11594010651","name":"土城平和郵局","category":"post_office","nameEn":"Tucheng Pinghe Post Office","opening_hours":"Mo-Fr 08:30-17:00","address":"236620新北市土城區金城路三段185號","phone":"+886 2 2265 9556;+886 2 2266 8983","website":"https://www.post.gov.tw/"},"geometry":{"type":"Point","coordinates":[121.469577,24.988963]}},{"type":"Feature","properties":{"id":"osm:node:12067710149","name":"故宮郵局","category":"post_office","nameEn":"National Palace Museum Post Office","opening_hours":"Tu-Su 09:00-17:00","address":"111001臺北市士林區至善路二段221號","phone":"+886 2 2881 8410","website":"https://www.post.gov.tw/"},"geometry":{"type":"Point","coordinates":[121.54877,25.102171]}},{"type":"Feature","properties":{"id":"osm:node:12252008001","name":"松山機場郵局","category":"post_office","nameEn":"Songshan Airport Post Office","opening_hours":"Mo-Fr 08:30-17:00; Sa 09:00-12:00","address":"105008臺北市松山區敦化北路340之9號","phone":"+886 2 2713 3365","website":"https://www.post.gov.tw/"},"geometry":{"type":"Point","coordinates":[121.551002,25.063777]}},{"type":"Feature","properties":{"id":"osm:node:13103590839","name":"土城青雲郵局","category":"post_office","nameEn":"Tucheng Qingyun Post Office","opening_hours":"Mo-Fr 08:30-17:00","address":"236202新北市土城區金城路二段249號","phone":"+886 2 2266 7380","website":"https://www.post.gov.tw/"},"geometry":{"type":"Point","coordinates":[121.458388,24.984645]}},{"type":"Feature","properties":{"id":"osm:node:13508179728","name":"臺大郵局","category":"post_office","nameEn":"National Taiwan University Post Office","opening_hours":"Mo-Fr 08:30-17:30","address":"106319臺北市大安區羅斯福路四段1號","phone":"+886 2 2363 3435","website":"https://www.post.gov.tw/","wheelchair":"no"},"geometry":{"type":"Point","coordinates":[121.537776,25.014328]}},{"type":"Feature","properties":{"id":"osm:node:14003859463","name":"三重二重埔郵局","category":"post_office","nameEn":"Sanchong Erchongpu Post Office","opening_hours":"Mo-Fr 08:30-17:30","address":"241552新北市三重區光復路一段140號","phone":"+886 2 2995 0040","website":"https://www.post.gov.tw/"},"geometry":{"type":"Point","coordinates":[121.471865,25.052751]}},{"type":"Feature","properties":{"id":"osm:node:14003859464","name":"三重溪尾街郵局","category":"post_office","nameEn":"Sanchong Xiwei Street Post Office","opening_hours":"Mo-Fr 08:30-17:30; Sa 09:00-12:00","address":"241080新北市三重區溪尾街112號","phone":"+886 2 2287 8272","website":"https://www.post.gov.tw/"},"geometry":{"type":"Point","coordinates":[121.48944,25.079016]}},{"type":"Feature","properties":{"id":"osm:node:14003859465","name":"三重中正路郵局","category":"post_office","nameEn":"Sanchong Zhongzheng Road Post Office","opening_hours":"Mo-Fr 08:30-17:00","address":"241567新北市三重區三民街213號","phone":"+886 2 2989 8903","website":"https://www.post.gov.tw/"},"geometry":{"type":"Point","coordinates":[121.48141,25.066308]}},{"type":"Feature","properties":{"id":"osm:node:14003859466","name":"三重五常郵局","category":"post_office","nameEn":"Sanchong Wuchang Post Office","opening_hours":"Mo-Fr 08:30-17:00","address":"241077新北市三重區仁義街168號","phone":"+886 2 8985 0166","website":"https://www.post.gov.tw/"},"geometry":{"type":"Point","coordinates":[121.496976,25.081095]}},{"type":"Feature","properties":{"id":"osm:node:14003859467","name":"蘆洲光華路郵局","category":"post_office","nameEn":"Luzhou Guanghua Road Post Office","opening_hours":"Mo-Fr 08:30-17:00","address":"247028新北市蘆洲區光華路108號","phone":"+886 2 2281 5221","website":"https://www.post.gov.tw/"},"geometry":{"type":"Point","coordinates":[121.467262,25.082685]}},{"type":"Feature","properties":{"id":"osm:node:14003859468","name":"蘆洲中原路郵局","category":"post_office","nameEn":"Luzhou Zhongyuan Road Post Office","opening_hours":"Mo-Fr 08:30-17:30; Sa 09:00-12:00","address":"247023新北市蘆洲區長安街225號","phone":"+886 2 2285 3560","website":"https://www.post.gov.tw/"},"geometry":{"type":"Point","coordinates":[121.459423,25.082663]}},{"type":"Feature","properties":{"id":"osm:node:14003859469","name":"蘆洲民族路郵局","category":"post_office","nameEn":"Luzhou Minzu Road Post Office","opening_hours":"Mo-Fr 08:30-17:00","address":"247003新北市蘆洲區民族路271號1樓","phone":"+886 2 2288 6362","website":"https://www.post.gov.tw/"},"geometry":{"type":"Point","coordinates":[121.475953,25.0907]}},{"type":"Feature","properties":{"id":"osm:node:14003859470","name":"新莊中港郵局","category":"post_office","nameEn":"Xinzhuang Zhonggang Post Office","opening_hours":"Mo-Fr 08:30-17:00","address":"242044新北市新莊區復興路二段22號","phone":"+886 2 2992 2786","website":"https://www.post.gov.tw/"},"geometry":{"type":"Point","coordinates":[121.454299,25.043936]}},{"type":"Feature","properties":{"id":"osm:node:14003859471","name":"新莊化成路郵局","category":"post_office","nameEn":"Xinzhuang Huacheng Road Post Office","opening_hours":"Mo-Fr 08:30-17:30","address":"242040新北市新莊區化成路87號","phone":"+886 2 2991 4718","website":"https://www.post.gov.tw/"},"geometry":{"type":"Point","coordinates":[121.465393,25.046586]}},{"type":"Feature","properties":{"id":"osm:node:14003859473","name":"新莊思源路郵局","category":"post_office","nameEn":"Xinzhuang Siyuan Road Post Office","opening_hours":"Mo-Fr 08:30-17:00","address":"242034新北市新莊區思源路402號","phone":"+886 2 2992 2649","website":"https://www.post.gov.tw/"},"geometry":{"type":"Point","coordinates":[121.460251,25.053023]}},{"type":"Feature","properties":{"id":"osm:node:14003859476","name":"五股郵局","category":"post_office","nameEn":"Wugu Post Office","opening_hours":"Mo-Fr 08:30-18:00; Sa 09:00-12:00","address":"248501新北市五股區成泰路三段541號","phone":"+886 2 8295 1026","website":"https://www.post.gov.tw/"},"geometry":{"type":"Point","coordinates":[121.451623,25.101641]}},{"type":"Feature","properties":{"id":"osm:node:14004615722","name":"汐止樟樹灣郵局","category":"post_office","nameEn":"Xizhi Zhangshuwan Post Office","opening_hours":"Mo-Fr 08:30-17:00","address":"221006新北市汐止區大同路一段322號","phone":"+886 2 2641 8422","website":"https://www.post.gov.tw/"},"geometry":{"type":"Point","coordinates":[121.637498,25.058714]}},{"type":"Feature","properties":{"id":"osm:node:14004615723","name":"汐止翠柏郵局","category":"post_office","nameEn":"Xizhi Cuibo Post Office","opening_hours":"Tu-Fr 09:00-11:00; We off","address":"221039新北市汐止區永春一路5號","phone":"+886 2 2645 1457","website":"https://www.post.gov.tw/"},"geometry":{"type":"Point","coordinates":[121.602398,25.11233]}},{"type":"Feature","properties":{"id":"osm:node:14004615726","name":"新店寶橋郵局","category":"post_office","nameEn":"Xindian Baoqiao Post Office","opening_hours":"Mo-Fr 08:30-17:00","address":"231029新北市新店區寶中路94之2號1樓","phone":"+886 2 2914 4585","website":"https://www.post.gov.tw/"},"geometry":{"type":"Point","coordinates":[121.548808,24.980032]}},{"type":"Feature","properties":{"id":"osm:node:14004615728","name":"新店中華路郵局","category":"post_office","nameEn":"Xindian Zhonghua Road Post Office","opening_hours":"Mo-Fr 09:00-12:30,13:30-17:00; Tu,Th off","address":"231005新北市新店區中華路74號","phone":"+886 2 2912 0115","website":"https://www.post.gov.tw/"},"geometry":{"type":"Point","coordinates":[121.538757,24.970036]}},{"type":"Feature","properties":{"id":"osm:node:14004615729","name":"石碇郵局","category":"post_office","nameEn":"Shiding Post Office","opening_hours":"Mo-Fr 08:30-12:00,13:00-16:30","address":"223002新北市石碇區碇坪路一段78之80號","phone":"+886 2 2663 1833","website":"https://www.post.gov.tw/"},"geometry":{"type":"Point","coordinates":[121.657499,24.99132]}},{"type":"Feature","properties":{"id":"osm:node:14006501466","name":"板橋站前郵局","category":"post_office","nameEn":"Banqiao Railway Station Front Post Office","opening_hours":"Mo-Fr 08:30-17:30; Sa 09:00-12:00","address":"220052新北市板橋區府中路16號","phone":"+886 2 2969 9837;+886 2 2968 6876","website":"https://www.post.gov.tw/"},"geometry":{"type":"Point","coordinates":[121.460129,25.009822]}},{"type":"Feature","properties":{"id":"osm:node:14006501467","name":"板橋中正路郵局","category":"post_office","nameEn":"Banqiao Zhongzheng Road Post Office","opening_hours":"Mo-Fr 08:30-17:00","address":"220048新北市板橋區中正路35號","phone":"+886 2 2967 6806;+886 2 2960 6245","website":"https://www.post.gov.tw/"},"geometry":{"type":"Point","coordinates":[121.456096,25.01309]}},{"type":"Feature","properties":{"id":"osm:node:14006501468","name":"板橋新海郵局","category":"post_office","nameEn":"Banqiao Xinhai Post Office","opening_hours":"Mo-Fr 08:30-17:00","address":"220812新北市板橋區裕民街135號","phone":"+886 2 2256 7944","website":"https://www.post.gov.tw/"},"geometry":{"type":"Point","coordinates":[121.459025,25.027221]}},{"type":"Feature","properties":{"id":"osm:node:14006501469","name":"板橋港尾郵局","category":"post_office","nameEn":"Banqiao Gangwei Post Office","opening_hours":"Mo-Fr 08:30-17:00","address":"220036新北市板橋區中正路332號","phone":"+886 2 2968 9213","website":"https://www.post.gov.tw/"},"geometry":{"type":"Point","coordinates":[121.454469,25.022267]}},{"type":"Feature","properties":{"id":"osm:node:14006501470","name":"板橋漢生郵局","category":"post_office","nameEn":"Banqiao Hansheng Post Office","opening_hours":"Mo-Fr 08:30-17:00","address":"220042新北市板橋區國光路205號","phone":"+886 2 2256 1119","website":"https://www.post.gov.tw/"},"geometry":{"type":"Point","coordinates":[121.461934,25.018675]}},{"type":"Feature","properties":{"id":"osm:node:14006501480","name":"永和永貞郵局","category":"post_office","nameEn":"Yonghe Yongzhen Post Office","opening_hours":"Mo-Fr 08:30-17:00","address":"234014新北市永和區自由街53號","phone":"+886 2 2923 3714","website":"https://www.post.gov.tw/"},"geometry":{"type":"Point","coordinates":[121.513832,25.005619]}},{"type":"Feature","properties":{"id":"osm:node:14014671402","name":"臺北龍口郵局","category":"post_office","nameEn":"Taipei Longkou Post Office","opening_hours":"Mo-Fr 08:30-17:00","address":"100062臺北市中正區和平西路二段68號","phone":"+886 2 2309 9158;+886 2 2303 4060","website":"https://www.post.gov.tw/"},"geometry":{"type":"Point","coordinates":[121.511518,25.029088]}},{"type":"Feature","properties":{"id":"osm:node:14014671403","name":"臺北中正堂郵局","category":"post_office","nameEn":"Taipei Chiang Kai-Shek Memorial Hall Post Office","opening_hours":"Mo-Fr 09:00-17:00","address":"100012臺北市中正區中山南路21號","phone":"+886 2 2394 2715","website":"https://www.post.gov.tw/"},"geometry":{"type":"Point","coordinates":[121.522105,25.034798]}},{"type":"Feature","properties":{"id":"osm:node:14014671404","name":"臺大醫院郵局","category":"post_office","nameEn":"National Taiwan University Hospital Post Office","opening_hours":"Mo-Fr 08:30-17:00","address":"100225臺北市中正區中山南路7號","phone":"+886 2 2397 3983","website":"https://www.post.gov.tw/"},"geometry":{"type":"Point","coordinates":[121.519013,25.040613]}},{"type":"Feature","properties":{"id":"osm:node:14014671405","name":"臺北中聯郵局","category":"post_office","nameEn":"Taipei Zhonglian Post Office","opening_hours":"Mo-Fr 08:30-17:00","address":"100218臺北市中正區徐州路5號地下1樓","phone":"+886 2 2356 6485","website":"https://www.post.gov.tw/"},"geometry":{"type":"Point","coordinates":[121.519493,25.042307]}},{"type":"Feature","properties":{"id":"osm:node:14014671406","name":"臺北市府郵局","category":"post_office","nameEn":"Taipei City Government Post Office","opening_hours":"Mo-Fr 08:30-17:30","address":"110204臺北市信義區市府路1號地下2樓","phone":"+886 2 2720 0690;+886 2 2720 9930","website":"https://www.post.gov.tw/"},"geometry":{"type":"Point","coordinates":[121.564507,25.037663]}},{"type":"Feature","properties":{"id":"osm:node:14014671407","name":"臺北吳興郵局","category":"post_office","nameEn":"Taipei Wuxing Post Office","opening_hours":"Mo-Fr 08:30-17:30; Sa 09:00-12:00","address":"110017臺北市信義區莊敬路418號之1","phone":"+886 2 2720 0060;+886 2 2722 3543","website":"https://www.post.gov.tw/"},"geometry":{"type":"Point","coordinates":[121.566346,25.026933]}},{"type":"Feature","properties":{"id":"osm:node:14014671408","name":"臺北逸仙郵局","category":"post_office","nameEn":"Taipei Yixian Post Office","opening_hours":"Mo-Fr 08:30-17:30","address":"110054臺北市信義區逸仙路46號","phone":"+886 2 2729 0135;+886 2 2720 8917","website":"https://www.post.gov.tw/"},"geometry":{"type":"Point","coordinates":[121.561727,25.040353]}},{"type":"Feature","properties":{"id":"osm:node:14014671409","name":"南港富康郵局","category":"post_office","nameEn":"Nangang Fukang Post Office","opening_hours":"Mo-Fr 08:30-17:00","address":"115021臺北市南港區研究院路一段99之3號","phone":"+886 2 2783 7204","website":"https://www.post.gov.tw/"},"geometry":{"type":"Point","coordinates":[121.616508,25.052253]}},{"type":"Feature","properties":{"id":"osm:node:14014671411","name":"臺北信維郵局","category":"post_office","nameEn":"Taipei Xinwei Post Office","opening_hours":"Mo-Fr 08:30-17:30; Sa 09:00-12:00","address":"106096臺北市大安區信義路四段101號","phone":"+886 2 2707 7130;+886 2 2708 3670","website":"https://www.post.gov.tw/"},"geometry":{"type":"Point","coordinates":[121.547335,25.033494]}},{"type":"Feature","properties":{"id":"osm:node:14022240236","name":"臺北台塑郵局","category":"post_office","nameEn":"Taipei Taisu Post Office","opening_hours":"Mo-Fr 08:30-18:00","address":"105017臺北市松山區民生東路四段54之2號","phone":"+886 2 2719 3473","website":"https://www.post.gov.tw/"},"geometry":{"type":"Point","coordinates":[121.55097,25.057329]}},{"type":"Feature","properties":{"id":"osm:node:14022240237","name":"士林天母郵局","category":"post_office","nameEn":"Shilin Tianmu Post Office","opening_hours":"Mo-Fr 08:30-17:00; Sa 09:00-12:00","address":"111029臺北市士林區中山北路七段130號","phone":"+886 2 2871 8271;+886 2 2873 5072","website":"https://www.post.gov.tw/"},"geometry":{"type":"Point","coordinates":[121.532144,25.122556]}},{"type":"Feature","properties":{"id":"osm:node:14022240238","name":"士林蘭雅郵局","category":"post_office","nameEn":"Shilin Lanya Post Office","opening_hours":"Mo-Fr 08:30-17:30","address":"111020臺北市士林區忠誠路一段52號","phone":"+886 2 2832 6924","website":"https://www.post.gov.tw/"},"geometry":{"type":"Point","coordinates":[121.526829,25.104637]}},{"type":"Feature","properties":{"id":"osm:node:14022240239","name":"士林芝山郵局","category":"post_office","nameEn":"Shilin Zhishan Post Office","opening_hours":"Mo-Fr 08:30-17:00","address":"111026臺北市士林區德行東路258號","phone":"+886 2 2836 3191","website":"https://www.post.gov.tw/"},"geometry":{"type":"Point","coordinates":[121.534337,25.109607]}},{"type":"Feature","properties":{"id":"osm:node:14022240240","name":"士林名山里郵局","category":"post_office","nameEn":"Shilin Mingshanli Post Office","opening_hours":"Mo-Fr 08:30-17:00","address":"111021臺北市士林區至誠路二段70號","phone":"+886 2 2838 6703","website":"https://www.post.gov.tw/"},"geometry":{"type":"Point","coordinates":[121.528271,25.10173]}},{"type":"Feature","properties":{"id":"osm:node:14022240241","name":"臺北大龍峒郵局","category":"post_office","nameEn":"Taipei Dalongtong Post Office","opening_hours":"Mo-Fr 08:30-17:00","address":"103250臺北市大同區重慶北路三段338號","phone":"+886 2 2597 5098;+886 2 2586 0105","website":"https://www.post.gov.tw/"},"geometry":{"type":"Point","coordinates":[121.513611,25.07607]}},{"type":"Feature","properties":{"id":"osm:node:14022240242","name":"臺北保安郵局","category":"post_office","nameEn":"Taipei Bao-an Post Office","opening_hours":"Mo-Fr 08:30-17:00","address":"103261臺北市大同區重慶北路二段183號","phone":"+886 2 2553 9692","website":"https://www.post.gov.tw/"},"geometry":{"type":"Point","coordinates":[121.513761,25.059909]}},{"type":"Feature","properties":{"id":"osm:node:14022240243","name":"內湖東湖郵局","category":"post_office","nameEn":"Neihu Donghu Post Office","opening_hours":"Mo-Fr 08:30-17:30","address":"114054臺北市內湖區康樂街16號","phone":"+886 2 2633 3525;+886 2 2632 3853","website":"https://www.post.gov.tw/"},"geometry":{"type":"Point","coordinates":[121.617908,25.06822]}},{"type":"Feature","properties":{"id":"osm:node:14022240244","name":"內湖三總郵局","category":"post_office","nameEn":"Neihu Tri-Service General Hospital Post Office","opening_hours":"Mo-Fr 08:30-17:00","address":"114202臺北市內湖區成功路二段325號2樓","phone":"+886 2 8791 2867","website":"https://www.post.gov.tw/"},"geometry":{"type":"Point","coordinates":[121.592418,25.072053]}},{"type":"Feature","properties":{"id":"osm:node:14022240245","name":"北投郵局","category":"post_office","nameEn":"Beitou Post Office","opening_hours":"Mo-Fr 08:30-18:00; Sa 09:00-12:00","address":"112006臺北市北投區光明路165號","phone":"+886 2 2891 2420","website":"https://www.post.gov.tw/"},"geometry":{"type":"Point","coordinates":[121.502761,25.135519]}},{"type":"Feature","properties":{"id":"osm:node:14022240246","name":"北投榮總郵局","category":"post_office","nameEn":"Beitou Veterans General Hospital Post Office","opening_hours":"Mo-Fr 09:00-17:00","address":"112201臺北市北投區石牌路二段201號","phone":"+886 2 2872 6742","website":"https://www.post.gov.tw/"},"geometry":{"type":"Point","coordinates":[121.519581,25.119627]}},{"type":"Feature","properties":{"id":"osm:node:14046309686","name":"臺灣科大郵局","category":"post_office","opening_hours":"Mo-Fr 08:30-17:00","address":"106335臺北市大安區基隆路四段43號"},"geometry":{"type":"Point","coordinates":[121.542487,25.013874]}},{"type":"Feature","properties":{"id":"osm:node:1413143357","name":"板橋莒光郵局","category":"post_office","nameEn":"Banqiao Juguang Post Office","opening_hours":"Mo-Fr 08:30-17:30; Sa 09:00-12:00","address":"220005新北市板橋區莒光路213號","phone":"+886 2 2251 6574;+886 2 2250 1955","website":"https://www.post.gov.tw/"},"geometry":{"type":"Point","coordinates":[121.474258,25.022986]}},{"type":"Feature","properties":{"id":"osm:node:1438069715","name":"中研院郵局","category":"post_office","nameEn":"Academia Sinica Post Office","opening_hours":"Mo-Fr 08:30-17:30; Sa 09:00-12:00","address":"115024臺北市南港區研究院路二段108號","phone":"+886 2 2782 3553;+886 2 2788 0823","website":"https://www.post.gov.tw/"},"geometry":{"type":"Point","coordinates":[121.616496,25.042823]}},{"type":"Feature","properties":{"id":"osm:node:1483506674","name":"臺北龍江路郵局","category":"post_office","nameEn":"Taipei Longjiang Road Post Office","opening_hours":"Mo-Fr 08:30-17:00","address":"104262臺北市中山區龍江路335號","phone":"+886 2 2501 6754","website":"https://www.post.gov.tw/"},"geometry":{"type":"Point","coordinates":[121.54108,25.06324]}},{"type":"Feature","properties":{"id":"osm:node:1686583629","name":"文山萬盛郵局","category":"post_office","nameEn":"Wenshan Wansheng Post Office","opening_hours":"Mo-Fr 08:30-17:00","address":"116059臺北市文山區汀州路四段88號","phone":"+886 2 2932 0183","website":"https://www.post.gov.tw/","wheelchair":"yes"},"geometry":{"type":"Point","coordinates":[121.53647,25.008046]}},{"type":"Feature","properties":{"id":"osm:node:1702066508","name":"新店五峰郵局","category":"post_office","nameEn":"Xindian Wufeng Post Office","opening_hours":"Mo-Fr 08:30-17:00","address":"231022新北市新店區中正路35號","phone":"+886 2 2916 0300","website":"https://www.post.gov.tw/"},"geometry":{"type":"Point","coordinates":[121.545009,24.969553]}},{"type":"Feature","properties":{"id":"osm:node:1716390527","name":"臺灣科大郵局","category":"post_office","nameEn":"National Taiwan University of Science and Technology Post Office","opening_hours":"Mo-Fr 08:30-17:00","address":"106335臺北市大安區基隆路四段43號","phone":"+886 2 2733 1071","website":"https://www.post.gov.tw/"},"geometry":{"type":"Point","coordinates":[121.542728,25.013768]}},{"type":"Feature","properties":{"id":"osm:node:1716390558","name":"文山興隆路郵局","category":"post_office","nameEn":"Wenshan Xinglong Rd. Post Office","opening_hours":"Mo-Fr 08:30-17:00","address":"116071臺北市文山區興隆路二段171號","phone":"+886 2 2935 7813;+886 2 2931 8476","website":"https://www.post.gov.tw/"},"geometry":{"type":"Point","coordinates":[121.549021,25.000727]}},{"type":"Feature","properties":{"id":"osm:node:1720009095","name":"臺北北安郵局","category":"post_office","nameEn":"Taipei Bei-an Post Office","opening_hours":"Mo-Fr 08:30-17:00","address":"104247臺北市中山區北安路630巷10號","phone":"+886 2 2532 9100;+886 2 2532 0537","website":"https://www.post.gov.tw/"},"geometry":{"type":"Point","coordinates":[121.549786,25.08264]}},{"type":"Feature","properties":{"id":"osm:node:1787108154","name":"內湖文德郵局","category":"post_office","nameEn":"Neihu Wende Post Office","opening_hours":"Mo-Fr 08:30-17:30; Sa 09:00-12:00","address":"114035臺北市內湖區文德路26號","phone":"+886 2 2797 3893;+886 2 2627 0039","website":"https://www.post.gov.tw/"},"geometry":{"type":"Point","coordinates":[121.579721,25.078288]}},{"type":"Feature","properties":{"id":"osm:node:1832696278","name":"臺北陽明交大郵局","category":"post_office","nameEn":"Taipei National Yang Ming Chiao Tung University Post Office","opening_hours":"Mo-Fr 09:00-17:00","address":"112304臺北市北投區立農街二段155號","phone":"+886 2 2821 6416","website":"https://www.post.gov.tw/","wheelchair":"yes"},"geometry":{"type":"Point","coordinates":[121.513953,25.119158]}},{"type":"Feature","properties":{"id":"osm:node:1837858946","name":"內湖西湖郵局","category":"post_office","nameEn":"Neihu Xihu Post Office","opening_hours":"Mo-Fr 08:30-17:30","address":"114004臺北市內湖區內湖路一段331號","phone":"+886 2 2798 7290;+886 2 2799 1342","website":"https://www.post.gov.tw/"},"geometry":{"type":"Point","coordinates":[121.568328,25.08229]}},{"type":"Feature","properties":{"id":"osm:node:1893420004","name":"臺北復興橋郵局","category":"post_office","nameEn":"Taipei Fuxing Bridge Post Office","opening_hours":"Mo-Fr 08:30-17:30","address":"100009臺北市中正區忠孝西路一段1號","phone":"+886 2 2311 4421","website":"https://www.post.gov.tw/"},"geometry":{"type":"Point","coordinates":[121.519343,25.046014]}},{"type":"Feature","properties":{"id":"osm:node:1929979425","name":"臺北仁杭郵局","category":"post_office","nameEn":"Taipei Renhang Post Office","opening_hours":"Mo-Fr 08:30-17:00","address":"100020臺北市中正區杭州南路一段24號1樓","phone":"+886 2 2395 5573","website":"https://www.post.gov.tw/"},"geometry":{"type":"Point","coordinates":[121.52478,25.037763]}},{"type":"Feature","properties":{"id":"osm:node:1941587639","name":"南港昆陽郵局","category":"post_office","nameEn":"Nangang kunyangPost Office","opening_hours":"Mo-Fr 08:30-17:30; Sa 09:00-12:00","address":"115008臺北市南港區忠孝東路六段400、402、404、406號","phone":"+886 2 2651 4945","website":"https://www.post.gov.tw/"},"geometry":{"type":"Point","coordinates":[121.592689,25.049905]}},{"type":"Feature","properties":{"id":"osm:node:1963001362","name":"中和大華郵局","category":"post_office","nameEn":"Zhonghe Dahua Post Office","opening_hours":"Mo-Fr 08:30-17:00","address":"235046新北市中和區中興街132號","phone":"+886 2 2245 4264","website":"https://www.post.gov.tw/"},"geometry":{"type":"Point","coordinates":[121.499822,24.992299]}},{"type":"Feature","properties":{"id":"osm:node:1964093878","name":"臺北松江路郵局","category":"post_office","nameEn":"Taipei Songjiang Road Post Office","opening_hours":"Mo-Fr 08:30-18:00; Sa 09:00-12:00","address":"104223臺北市中山區松江路366號","phone":"+886 2 2521 6681;+886 2 2561 8954","website":"https://www.post.gov.tw/","wheelchair":"yes"},"geometry":{"type":"Point","coordinates":[121.532958,25.062039]}},{"type":"Feature","properties":{"id":"osm:node:2069521751","name":"永和郵局","category":"post_office","nameEn":"Yonghe Post Office","opening_hours":"Mo-Fr 08:30-18:00; Sa 09:00-12:00","address":"234016新北市永和區中興街1號","phone":"+886 2 2232 9702;+886 2 2232 9700","website":"https://www.post.gov.tw/"},"geometry":{"type":"Point","coordinates":[121.515369,25.012271]}},{"type":"Feature","properties":{"id":"osm:node:2086704513","name":"南港富康郵局","category":"post_office","opening_hours":"Mo-Fr 08:00-17:00; PH,Sa-Su off","address":"臺北市南港區研究院路一段44號","phone":"+886 2 2783 7204"},"geometry":{"type":"Point","coordinates":[121.616181,25.053545]}},{"type":"Feature","properties":{"id":"osm:node:2111807682","name":"五股郵局","category":"post_office"},"geometry":{"type":"Point","coordinates":[121.45155,25.101174]}},{"type":"Feature","properties":{"id":"osm:node:2122373338","name":"臺北師大郵局","category":"post_office","nameEn":"Taipei Normal University Post Office","opening_hours":"Mo-Fr 08:30-17:00","address":"106308臺北市大安區和平東路一段162號","phone":"+886 2 2363 5053","website":"https://www.post.gov.tw/","wheelchair":"no"},"geometry":{"type":"Point","coordinates":[121.528272,25.026031]}},{"type":"Feature","properties":{"id":"osm:node:2143411212","name":"北投文化郵局","category":"post_office","nameEn":"Beitou Wenhua Post Office","opening_hours":"Mo-Fr 08:30-17:00","address":"112013臺北市北投區文化三路8號","phone":"+886 2 2891 0330","website":"https://www.post.gov.tw/","wheelchair":"limited"},"geometry":{"type":"Point","coordinates":[121.497528,25.137346]}},{"type":"Feature","properties":{"id":"osm:node:2157315945","name":"臺北長春路郵局","category":"post_office","nameEn":"Taipei Changchun Road Post Office","opening_hours":"Mo-Fr 08:30-18:00; Sa 09:00-12:00","address":"104288臺北市中山區長春路129號之2","phone":"+886 2 2521 6967;+886 2 2537 3821","website":"https://www.post.gov.tw/"},"geometry":{"type":"Point","coordinates":[121.53063,25.054978]}},{"type":"Feature","properties":{"id":"osm:node:2158953452","name":"臺北建北郵局","category":"post_office","nameEn":"Taipei Jianbei Post Office","opening_hours":"Mo-Fr 08:30-17:30","address":"104282臺北市中山區建國北路二段33號","phone":"+886 2 2502 0944;+886 2 2504 1943","website":"https://www.post.gov.tw/"},"geometry":{"type":"Point","coordinates":[121.537269,25.054989]}},{"type":"Feature","properties":{"id":"osm:node:2174319390","name":"臺北體育場郵局","category":"post_office","nameEn":"Taipei Stadium Post Office","opening_hours":"Mo-Fr 08:30-17:30","address":"105039臺北市松山區南京東路三段346號","phone":"+886 2 2752 5760;+886 2 2781 9214","website":"https://www.post.gov.tw/"},"geometry":{"type":"Point","coordinates":[121.548077,25.051494]}},{"type":"Feature","properties":{"id":"osm:node:2185729694","name":"臺北光華郵局","category":"post_office","nameEn":"Taipei Guanghua Post Office","opening_hours":"Mo-Fr 08:30-17:30","address":"106236臺北市大安區新生北路一段7之2號","phone":"+886 2 2741 0600;+886 2 2731 5570","website":"https://www.post.gov.tw/"},"geometry":{"type":"Point","coordinates":[121.533154,25.045104]}},{"type":"Feature","properties":{"id":"osm:node:2311690803","name":"新店檳榔路郵局","category":"post_office","nameEn":"Xindian Binlang Road Post Office","opening_hours":"Mo-Fr 08:30-17:30; Sa 09:00-12:00","address":"231031新北市新店區北新路一段273號","phone":"+886 2 2911 4400;+886 2 2913 6997","website":"https://www.post.gov.tw/"},"geometry":{"type":"Point","coordinates":[121.540919,24.966724]}},{"type":"Feature","properties":{"id":"osm:node:2336800891","name":"北投奇岩郵局","category":"post_office","nameEn":"Beitou Qiyan Post Office","opening_hours":"Mo-Fr 08:30-17:00","address":"112005臺北市北投區公館路271號","phone":"+886 2 2892 8444","website":"https://www.post.gov.tw/"},"geometry":{"type":"Point","coordinates":[121.507671,25.12517]}},{"type":"Feature","properties":{"id":"osm:node:2384485297","name":"臺北民生郵局","category":"post_office","nameEn":"Taipei Minsheng Post Office","opening_hours":"Mo-Fr 08:30-18:00; Sa 09:00-12:00","address":"105065臺北市松山區民生東路五段191號","phone":"+886 2 2766 2575;+886 2 2764 4790","website":"https://www.post.gov.tw/","wheelchair":"yes"},"geometry":{"type":"Point","coordinates":[121.565706,25.05922]}},{"type":"Feature","properties":{"id":"osm:node:2387050854","name":"北投一德郵局","category":"post_office","nameEn":"Beitou Yide Post Office","opening_hours":"Mo-Fr 08:30-17:00","address":"112019臺北市北投區中央北路四段529號","phone":"+886 2 2892 1518","website":"https://www.post.gov.tw/"},"geometry":{"type":"Point","coordinates":[121.467886,25.127815]}},{"type":"Feature","properties":{"id":"osm:node:2391869843","name":"陽明山郵局","category":"post_office","nameEn":"Yangming-shan Post Office","opening_hours":"Mo-Fr 08:30-17:00","address":"112091臺北市北投區紗帽路139之1號","phone":"+886 2 2861 6151;+886 2 2861 6171","website":"https://www.post.gov.tw/"},"geometry":{"type":"Point","coordinates":[121.546094,25.151177]}},{"type":"Feature","properties":{"id":"osm:node:2410061386","name":"新莊昌盛郵局","category":"post_office","nameEn":"Xinzhuang Changsheng Post Office","opening_hours":"Mo-Fr 08:30-17:00","address":"242018新北市新莊區中華路二段160號","phone":"+886 2 2276 2561","website":"https://www.post.gov.tw/"},"geometry":{"type":"Point","coordinates":[121.453487,25.051228]}},{"type":"Feature","properties":{"id":"osm:node:2415942440","name":"臺北安和郵局","category":"post_office","nameEn":"Taipei Anhe Post Office","opening_hours":"Mo-Fr 08:30-18:00","address":"106228臺北市大安區安和路二段61、63號","phone":"+886 2 2704 9228;+886 2 2708 5519","website":"https://www.post.gov.tw/"},"geometry":{"type":"Point","coordinates":[121.552613,25.03079]}},{"type":"Feature","properties":{"id":"osm:node:2418674188","name":"臺北成功郵局","category":"post_office","nameEn":"Taipei Chenggong Post Office","opening_hours":"Mo-Fr 08:30-18:00; Sa 09:00-12:00","address":"106247臺北市大安區四維路198巷38弄12號","phone":"+886 2 2704 3862;+886 2 2708 1087","website":"https://www.post.gov.tw/","wheelchair":"limited"},"geometry":{"type":"Point","coordinates":[121.545462,25.026472]}},{"type":"Feature","properties":{"id":"osm:node:2419488004","name":"臺北杭南郵局","category":"post_office","nameEn":"Taipei Hangnan Post Office","opening_hours":"Mo-Fr 08:30-17:30","address":"100023臺北市中正區杭州南路一段23號之3","phone":"+886 2 2393 8719","website":"https://www.post.gov.tw/"},"geometry":{"type":"Point","coordinates":[121.526458,25.042146]}},{"type":"Feature","properties":{"id":"osm:node:2435260174","name":"內湖週美郵局","category":"post_office","nameEn":"Neihu Zhoumei Post Office","opening_hours":"Mo-Fr 08:30-17:00","address":"114026臺北市內湖區新明路380巷4弄4號","phone":"+886 2 2791 0759","website":"https://www.post.gov.tw/"},"geometry":{"type":"Point","coordinates":[121.580026,25.055118]}},{"type":"Feature","properties":{"id":"osm:node:2490691711","name":"臺北中崙郵局","category":"post_office","nameEn":"Taipei Zhonglun Post Office","opening_hours":"Mo-Fr 08:30-17:30; Sa 09:00-12:00","address":"104102臺北市中山區復興北路40號","phone":"+886 2 2771 1401;+886 2 2772 5405","website":"https://www.post.gov.tw/","wheelchair":"yes"},"geometry":{"type":"Point","coordinates":[121.543727,25.049299]}},{"type":"Feature","properties":{"id":"osm:node:2490691939","name":"臺北長安郵局","category":"post_office","nameEn":"Taipei Chang-an Post Office","opening_hours":"Mo-Fr 08:30-17:30","address":"104297臺北市中山區長安東路二段97號","phone":"+886 2 2506 8771;+886 2 2515 0399","website":"https://www.post.gov.tw/"},"geometry":{"type":"Point","coordinates":[121.534879,25.048539]}},{"type":"Feature","properties":{"id":"osm:node:2526023591","name":"臺北金南郵局","category":"post_office","nameEn":"Taipei Jinnan Post Office","opening_hours":"Mo-Fr 08:30-17:30; Sa 09:00-12:00","address":"106201臺北市大安區愛國東路216號","phone":"+886 2 2394 0804","website":"https://www.post.gov.tw/"},"geometry":{"type":"Point","coordinates":[121.524598,25.031776]}},{"type":"Feature","properties":{"id":"osm:node:2569338737","name":"臺北中山郵局","category":"post_office","nameEn":"Taipei Zhongshan Post Office","opening_hours":"Mo-Fr 08:30-17:30","address":"104202臺北市中山區中山北路一段142號","phone":"+886 2 2542 6403;+886 2 2542 5934","website":"https://www.post.gov.tw/","wheelchair":"yes"},"geometry":{"type":"Point","coordinates":[121.522103,25.051492]}},{"type":"Feature","properties":{"id":"osm:node:2591374717","name":"臺北南海郵局","category":"post_office","nameEn":"Taipei Nanhai Post Office","opening_hours":"Mo-Fr 08:30-17:30; Sa 09:00-12:00","address":"100056臺北市中正區重慶南路二段43號","phone":"+886 2 2396 3142;+886 2 2321 4189","website":"https://www.post.gov.tw/"},"geometry":{"type":"Point","coordinates":[121.514738,25.031777]}},{"type":"Feature","properties":{"id":"osm:node:2595513778","name":"臺北六張犁郵局","category":"post_office","nameEn":"Taipei Liuzhangli Post Office","opening_hours":"Mo-Fr 08:30-17:30","address":"106224臺北市大安區和平東路三段208號","phone":"+886 2 2733 5532;+886 2 2733 0262","website":"https://www.post.gov.tw/","wheelchair":"limited"},"geometry":{"type":"Point","coordinates":[121.553962,25.022769]}},{"type":"Feature","properties":{"id":"osm:node:2598512983","name":"文山萬芳郵局","category":"post_office","nameEn":"Wenshan Wanfang Post Office","opening_hours":"Mo-Fr 08:30-17:00","address":"116080臺北市文山區興隆路三段178、180號","phone":"+886 2 2230 5857","website":"https://www.post.gov.tw/"},"geometry":{"type":"Point","coordinates":[121.55876,24.997993]}},{"type":"Feature","properties":{"id":"osm:node:2604214928","name":"臺北法院郵局","category":"post_office","nameEn":"Taipei District Court Post Office","opening_hours":"Mo-Fr 08:30-17:30","address":"100205臺北市中正區博愛路127號","phone":"+886 2 2331 4925;+886 2 2311 3025","website":"https://www.post.gov.tw/","wheelchair":"limited"},"geometry":{"type":"Point","coordinates":[121.51131,25.037641]}},{"type":"Feature","properties":{"id":"osm:node:2609618848","name":"國史館郵局","category":"post_office","nameEn":"Academia Historica Post Office","opening_hours":"Mo-Fr 08:30-17:30","address":"100006臺北市中正區博愛路168號之1","phone":"+886 2 2331 0962;+886 2 2311 7879","website":"https://www.post.gov.tw/","wheelchair":"limited"},"geometry":{"type":"Point","coordinates":[121.511023,25.039578]}},{"type":"Feature","properties":{"id":"osm:node:2613505811","name":"臺北南門郵局","category":"post_office","nameEn":"Taipei Nanmen Post Office","opening_hours":"Mo-Fr 08:30-17:00","address":"100214臺北市中正區廣州街2號","phone":"+886 2 2331 6433","website":"https://www.post.gov.tw/"},"geometry":{"type":"Point","coordinates":[121.510487,25.0347]}},{"type":"Feature","properties":{"id":"osm:node:2614723140","name":"內湖大湖郵局","category":"post_office","nameEn":"Neihu Dahu Post Office","opening_hours":"Mo-Fr 08:30-17:00","address":"114041臺北市內湖區大湖街166巷2號","phone":"+886 2 2792 6045","website":"https://www.post.gov.tw/"},"geometry":{"type":"Point","coordinates":[121.600637,25.084238]}},{"type":"Feature","properties":{"id":"osm:node:2617027490","name":"新店十四份郵局","category":"post_office","nameEn":"Xindian Shisifen Post Office","opening_hours":"Mo-Fr 08:30-17:00","address":"231045新北市新店區安民街206號","phone":"+886 2 2211 2584","website":"https://www.post.gov.tw/"},"geometry":{"type":"Point","coordinates":[121.517326,24.971936]}},{"type":"Feature","properties":{"id":"osm:node:2617040584","name":"新店頂城郵局","category":"post_office","nameEn":"Xindian Dingcheng Post Office","opening_hours":"Mo-Fr 08:30-17:00","address":"231052新北市新店區安康路一段50之1號","phone":"+886 2 2211 8791","website":"https://www.post.gov.tw/"},"geometry":{"type":"Point","coordinates":[121.5297,24.961469]}},{"type":"Feature","properties":{"id":"osm:node:2618719426","name":"臺北小南門郵局","category":"post_office","nameEn":"Taipei Siaonanmen Post Office","opening_hours":"Mo-Fr 08:30-17:00","address":"100213臺北市中正區廣州街15號","phone":"+886 2 2375 9856","website":"https://www.post.gov.tw/"},"geometry":{"type":"Point","coordinates":[121.508027,25.035834]}},{"type":"Feature","properties":{"id":"osm:node:2619670686","name":"南港同德郵局","category":"post_office","nameEn":"Nangang Tongde Post Office","opening_hours":"Mo-Fr 08:30-17:00","address":"115006臺北市南港區同德路85巷2號","phone":"+886 2 2653 4350;+886 2 2786 8549","website":"https://www.post.gov.tw/"},"geometry":{"type":"Point","coordinates":[121.585547,25.046239]}},{"type":"Feature","properties":{"id":"osm:node:2619922124","name":"臺北北門郵局","category":"post_office","nameEn":"Taipei Beimen Post Office","opening_hours":"Mo-Fr 08:30-21:00; Sa 09:00-12:00","address":"100003臺北市中正區忠孝西路一段120號1樓","phone":"+886 2 2361 5752;+886 2 2381 3135","website":"https://www.post.gov.tw/"},"geometry":{"type":"Point","coordinates":[121.511454,25.047305]}},{"type":"Feature","properties":{"id":"osm:node:2619922127","name":"臺北重南郵局","category":"post_office","nameEn":"Taipei Chongnan Post Office","opening_hours":"Mo-Fr 08:30-17:00","address":"10044臺北市中正區忠孝西路一段120號1樓","phone":"+886 2 2331 3075","website":"https://www.post.gov.tw/"},"geometry":{"type":"Point","coordinates":[121.511417,25.046302]}},{"type":"Feature","properties":{"id":"osm:node:2624433713","name":"北投尊賢郵局","category":"post_office","nameEn":"Beitou Zunxian Post Office","opening_hours":"Mo-Fr 08:30-17:00","address":"112036臺北市北投區尊賢街247之4號","phone":"+886 2 2821 5141","website":"https://www.post.gov.tw/","wheelchair":"yes"},"geometry":{"type":"Point","coordinates":[121.506745,25.117573]}},{"type":"Feature","properties":{"id":"osm:node:2625563524","name":"新店永安郵局","category":"post_office","nameEn":"Xindian Yong-an Post Office","opening_hours":"Mo-Fr 08:30-17:00","address":"231057新北市新店區安和路三段57號","phone":"+886 2 2944 2541","website":"https://www.post.gov.tw/"},"geometry":{"type":"Point","coordinates":[121.51783,24.982877]}},{"type":"Feature","properties":{"id":"osm:node:2625635002","name":"中和南勢角郵局","category":"post_office","nameEn":"Zhonghe Nanshijiao Post Office","opening_hours":"Mo-Fr 08:30-17:30; Sa 09:00-12:00","address":"235056新北市中和區景新街442號","phone":"+886 2 2942 1652;+886 2 2949 9308","website":"https://www.post.gov.tw/"},"geometry":{"type":"Point","coordinates":[121.513156,24.988085]}},{"type":"Feature","properties":{"id":"osm:node:2653070922","name":"南港軟體園區郵局","category":"post_office","nameEn":"Nangang Software Park Post Office","opening_hours":"Mo-Fr 08:30-17:30","address":"115603臺北市南港區園區街3之2號H棟1樓","phone":"+886 2 2785 5033","website":"https://www.post.gov.tw/","wheelchair":"yes"},"geometry":{"type":"Point","coordinates":[121.611971,25.056486]}},{"type":"Feature","properties":{"id":"osm:node:2680612320","name":"臺北正義郵局","category":"post_office","nameEn":"Taipei Zhengyi Post Office","opening_hours":"Mo-Fr 08:30-17:00","address":"106238臺北市大安區忠孝東路三段150、152、154號","phone":"+886 2 2778 2422;+886 2 2752 8005","website":"https://www.post.gov.tw/"},"geometry":{"type":"Point","coordinates":[121.538184,25.041438]}},{"type":"Feature","properties":{"id":"osm:node:2723465313","name":"八里龍形郵局","category":"post_office","nameEn":"Bali Longxing Post Office","opening_hours":"Mo-Fr 08:30-17:00","address":"249007新北市八里區龍形二街7號","phone":"+886 2 2618 6468","website":"https://www.post.gov.tw/"},"geometry":{"type":"Point","coordinates":[121.450573,25.131135]}},{"type":"Feature","properties":{"id":"osm:node:2727091031","name":"立法院郵局","category":"post_office","nameEn":"Legislative Yuan Post Office","opening_hours":"Mo-Fr 08:30-17:30","address":"100222臺北市中正區濟南路一段1號","phone":"+886 2 2391 7844;+886 2 2321 9814","website":"https://www.post.gov.tw/"},"geometry":{"type":"Point","coordinates":[121.519906,25.043239]}},{"type":"Feature","properties":{"id":"osm:node:2773021192","name":"汐止龍安郵局","category":"post_office","nameEn":"Xizhi Longan Post Office","opening_hours":"Mo-Fr 08:30-17:00","address":"221030新北市汐止區龍安路42號","phone":"+886 2 2642 6626","website":"https://www.post.gov.tw/"},"geometry":{"type":"Point","coordinates":[121.654317,25.063724]}},{"type":"Feature","properties":{"id":"osm:node:2784760881","name":"板橋南雅郵局","category":"post_office","nameEn":"Banqiao Nanya Post Office","opening_hours":"Mo-Fr 08:30-17:00","address":"220054新北市板橋區南雅南路一段123號","phone":"+886 2 2966 4716","website":"https://www.post.gov.tw/"},"geometry":{"type":"Point","coordinates":[121.455305,25.004676]}},{"type":"Feature","properties":{"id":"osm:node:2839793665","name":"新店大坪林郵局","category":"post_office","nameEn":"Xindian Dapinglin Post Office","opening_hours":"Mo-Fr 08:30-17:00","address":"231007新北市新店區北新路三段116號","phone":"+886 2 2911 2892;+886 2 2918 9045","website":"https://www.post.gov.tw/"},"geometry":{"type":"Point","coordinates":[121.541776,24.981524]}},{"type":"Feature","properties":{"id":"osm:node:2866153501","name":"中和興南郵局","category":"post_office","nameEn":"Zhonghe Xingnan Post Office","opening_hours":"Mo-Fr 08:30-17:00","address":"235058新北市中和區南山路320巷7號","phone":"+886 2 8943 1756","website":"https://www.post.gov.tw/"},"geometry":{"type":"Point","coordinates":[121.507655,24.986465]}},{"type":"Feature","properties":{"id":"osm:node:2887583315","name":"臺北延壽郵局","category":"post_office","nameEn":"Taipei Yanshou Post Office","opening_hours":"Mo-Fr 08:30-17:00","address":"105015臺北市松山區民生東路五段12號","phone":"+886 2 2756 7232;+886 2 2768 3079","website":"https://www.post.gov.tw/","wheelchair":"yes"},"geometry":{"type":"Point","coordinates":[121.556003,25.058181]}},{"type":"Feature","properties":{"id":"osm:node:2924918298","name":"中和泰和街郵局","category":"post_office","nameEn":"Zhonghe Taihe Street Post Office","opening_hours":"Mo-Fr 08:30-18:00; Sa 09:00-12:00","address":"235070新北市中和區泰和街6號","phone":"+886 2 2249 3114;+886 2 2249 3550","website":"https://www.post.gov.tw/"},"geometry":{"type":"Point","coordinates":[121.499858,25.001243]}},{"type":"Feature","properties":{"id":"osm:node:2938451291","name":"新店中央郵局","category":"post_office","nameEn":"Xindian Jhongyang Post Office","opening_hours":"Mo-Fr 08:30-17:00","address":"231015新北市新店區中央路232號","phone":"+886 2 2219 5162","website":"https://www.post.gov.tw/"},"geometry":{"type":"Point","coordinates":[121.529281,24.972758]}},{"type":"Feature","properties":{"id":"osm:node:2949647950","name":"臺北圓山郵局","category":"post_office","nameEn":"Taipei Yuanshan Post Office","opening_hours":"Mo-Fr 08:30-17:30","address":"104231臺北市中山區林森北路573號","phone":"+886 2 2592 1606","website":"https://www.post.gov.tw/"},"geometry":{"type":"Point","coordinates":[121.525796,25.064993]}},{"type":"Feature","properties":{"id":"osm:node:2958048931","name":"淡江大學郵局","category":"post_office","nameEn":"Tamkang University Post Office","opening_hours":"Mo-Fr 08:30-17:00","address":"251301新北市淡水區英專路151號","phone":"+886 2 2622 6674","website":"https://www.post.gov.tw/","wheelchair":"yes"},"geometry":{"type":"Point","coordinates":[121.450217,25.174581]}},{"type":"Feature","properties":{"id":"osm:node:2961305548","name":"深坑郵局","category":"post_office","nameEn":"Shenkeng Post Office","opening_hours":"Mo-Fr 08:30-17:00","address":"222004新北市深坑區北深路三段30號","phone":"+886 2 2662 1005","website":"https://www.post.gov.tw/"},"geometry":{"type":"Point","coordinates":[121.609158,25.001287]}},{"type":"Feature","properties":{"id":"osm:node:2962740700","name":"臺北永吉郵局","category":"post_office","nameEn":"Taipei Yongji Post Office","opening_hours":"Mo-Fr 08:30-17:30","address":"110068臺北市信義區永吉路168號1樓","phone":"+886 2 2768 4410;+886 2 2762 0461","website":"https://www.post.gov.tw/"},"geometry":{"type":"Point","coordinates":[121.571192,25.045421]}},{"type":"Feature","properties":{"id":"osm:node:2967019264","name":"紅樹林郵局","category":"post_office"},"geometry":{"type":"Point","coordinates":[121.459516,25.154931]}},{"type":"Feature","properties":{"id":"osm:node:3024920805","name":"南港福德郵局","category":"post_office","nameEn":"Nangang Fude Post Office","opening_hours":"Mo-Fr 08:30-17:00","address":"115005臺北市南港區福德街314、316號","phone":"+886 2 2785 1709","website":"https://www.post.gov.tw/","wheelchair":"yes"},"geometry":{"type":"Point","coordinates":[121.587751,25.039402]}},{"type":"Feature","properties":{"id":"osm:node:3048826447","name":"士林社子郵局","category":"post_office","nameEn":"Shilin Shezi Post Office","opening_hours":"Mo-Fr 08:30-17:30","address":"111064臺北市士林區延平北路五段150號","phone":"+886 2 2812 2884;+886 2 2812 1072","website":"https://www.post.gov.tw/"},"geometry":{"type":"Point","coordinates":[121.510442,25.082402]}},{"type":"Feature","properties":{"id":"osm:node:3076885839","name":"臺北中山堂郵局","category":"post_office","nameEn":"Taipei Jhong-Shan Hall Post Office","opening_hours":"Mo-Fr 08:30-17:00","address":"100005臺北市中正區中華路一段53號","phone":"+886 2 2314 8490","website":"https://www.post.gov.tw/"},"geometry":{"type":"Point","coordinates":[121.509051,25.043045]}},{"type":"Feature","properties":{"id":"osm:node:3192386004","name":"行政院郵局","category":"post_office","nameEn":"Executive Yuan Post Office","opening_hours":"Mo-Fr 08:30-17:00","address":"100235臺北市中正區北平東路2號","phone":"+886 2 2321 4874","website":"https://www.post.gov.tw/"},"geometry":{"type":"Point","coordinates":[121.521612,25.046697]}},{"type":"Feature","properties":{"id":"osm:node:3195524164","name":"臺北松山郵局","category":"post_office","nameEn":"Taipei Songshan Post Office","opening_hours":"Mo-Fr 08:30-17:30","address":"105057臺北市松山區八德路四段626號","phone":"+886 2 2767 4928;+886 2 8787 9193","website":"https://www.post.gov.tw/"},"geometry":{"type":"Point","coordinates":[121.574189,25.049824]}},{"type":"Feature","properties":{"id":"osm:node:3232531955","name":"內湖康寧郵局","category":"post_office","nameEn":"Neihu Kangning Post Office","opening_hours":"Mo-Fr 08:30-17:00","address":"114046臺北市內湖區康寧路三段22號之1","phone":"+886 2 2633 4746","website":"https://www.post.gov.tw/"},"geometry":{"type":"Point","coordinates":[121.607787,25.07226]}},{"type":"Feature","properties":{"id":"osm:node:3255434658","name":"臺北光武郵局","category":"post_office","nameEn":"Taipei Guangwu Post Office","opening_hours":"Mo-Fr 08:30-17:30; Sa 09:00-12:00","address":"106233臺北市大安區大安路一段52巷16號","phone":"+886 2 2781 6693;+886 2 2721 1634","website":"https://www.post.gov.tw/"},"geometry":{"type":"Point","coordinates":[121.54545,25.042959]}},{"type":"Feature","properties":{"id":"osm:node:3270313863","name":"臺北東門郵局","category":"post_office","nameEn":"Taipei Dongmen Post Office","opening_hours":"Mo-Fr 08:30-17:30; Sa 09:00-12:00","address":"100016臺北市中正區信義路二段163號","phone":"+886 2 2394 7576;+886 2 2321 4679","website":"https://www.post.gov.tw/"},"geometry":{"type":"Point","coordinates":[121.528899,25.034088]}},{"type":"Feature","properties":{"id":"osm:node:3311203216","name":"中和連城路郵局","category":"post_office","nameEn":"Zhonghe Liancheng Road Post Office","opening_hours":"Mo-Fr 08:30-17:00","address":"235038新北市中和區連城路192之1號","phone":"+886 2 2249 4358","website":"https://www.post.gov.tw/"},"geometry":{"type":"Point","coordinates":[121.492096,24.996819]}},{"type":"Feature","properties":{"id":"osm:node:3355968893","name":"汐止建成路郵局","category":"post_office","nameEn":"Xizhi Jiancheng Road Post Office","opening_hours":"Mo-Fr 08:30-17:00","address":"221683新北市汐止區建成路58號","phone":"+886 2 8691 5658","website":"https://www.post.gov.tw/"},"geometry":{"type":"Point","coordinates":[121.663487,25.073213]}},{"type":"Feature","properties":{"id":"osm:node:3417098714","name":"臺北三張犁郵局","category":"post_office","nameEn":"Taipei Sanzhangli Post Office","opening_hours":"Mo-Fr 08:30-17:30; Sa 09:00-12:00","address":"106231臺北市大安區信義路四段337號","phone":"+886 2 2709 6837;+886 2 2701 5196","website":"https://www.post.gov.tw/"},"geometry":{"type":"Point","coordinates":[121.556432,25.033301]}},{"type":"Feature","properties":{"id":"osm:node:3417501615","name":"中和中正路郵局","category":"post_office","nameEn":"Zhonghe Zhongzheng Road Post Office","opening_hours":"Mo-Fr 08:30-17:00","address":"235603新北市中和區中正路277號1樓","phone":"+886 2 2245 5356","website":"https://www.post.gov.tw/"},"geometry":{"type":"Point","coordinates":[121.495346,24.993657]}},{"type":"Feature","properties":{"id":"osm:node:3443026803","name":"板橋江翠郵局","category":"post_office","nameEn":"Banqiao Jiangcui Post Office","opening_hours":"Mo-Fr 08:30-17:30; Sa 09:00-12:00","address":"220021新北市板橋區仁化街40之1號","phone":"+886 2 2253 4928;+886 2 2250 2481","website":"https://www.post.gov.tw/"},"geometry":{"type":"Point","coordinates":[121.475044,25.031487]}},{"type":"Feature","properties":{"id":"osm:node:3480446642","name":"中和宜安郵局","category":"post_office","nameEn":"Zhonghe Yi-an Post Office","opening_hours":"Mo-Fr 08:30-17:00","address":"235071新北市中和區宜安路99號","phone":"+886 2 2941 4979","website":"https://www.post.gov.tw/"},"geometry":{"type":"Point","coordinates":[121.510474,24.997604]}},{"type":"Feature","properties":{"id":"osm:node:3480453640","name":"永和中正路郵局","category":"post_office","nameEn":"Yonghe Zhongzheng Road Post Office","opening_hours":"Mo-Fr 08:30-17:30; Sa 09:00-12:00","address":"234043新北市永和區中正路91號","phone":"+886 2 8943 3227;+886 2 8943 3230","website":"https://www.post.gov.tw/","wheelchair":"yes"},"geometry":{"type":"Point","coordinates":[121.515219,24.997212]}},{"type":"Feature","properties":{"id":"osm:node:3525860450","name":"土城清水郵局","category":"post_office","nameEn":"Tucheng Qingshuei Post Office","opening_hours":"Mo-Fr 08:30-17:30; Sa 09:00-12:00","address":"236013新北市土城區青雲路228、230號","phone":"+886 2 2261 2430;+886 2 2260 2989","website":"https://www.post.gov.tw/","wheelchair":"yes"},"geometry":{"type":"Point","coordinates":[121.458929,24.980933]}},{"type":"Feature","properties":{"id":"osm:node:3540982892","name":"中和中山路郵局","category":"post_office","nameEn":"Zhonghe Zhongshan Road Post Office","opening_hours":"Mo-Fr 08:30-17:30; Sa 09:00-12:00","address":"235026新北市中和區中山路二段362號","phone":"+886 2 2240 0278","website":"https://www.post.gov.tw/"},"geometry":{"type":"Point","coordinates":[121.492424,25.002915]}},{"type":"Feature","properties":{"id":"osm:node:3541200993","name":"臺北民權郵局","category":"post_office","nameEn":"Taipei Minquan Post Office","opening_hours":"Mo-Fr 08:30-17:30","address":"104226臺北市中山區民權西路22號","phone":"+886 2 2571 6241;+886 2 2563 8027","website":"https://www.post.gov.tw/","wheelchair":"yes"},"geometry":{"type":"Point","coordinates":[121.521739,25.062539]}},{"type":"Feature","properties":{"id":"osm:node:3541337393","name":"臺北火車站郵局","category":"post_office","nameEn":"Taipei Railway Station Post Office","opening_hours":"Mo-Fr 08:30-18:00; Sa 09:00-12:00","address":"100230臺北市中正區北平西路3號","phone":"+886 2 2311 4239","website":"https://www.post.gov.tw/","wheelchair":"yes"},"geometry":{"type":"Point","coordinates":[121.517667,25.047165]}},{"type":"Feature","properties":{"id":"osm:node:3578768373","name":"新北市政府郵局","category":"post_office","nameEn":"NewTaipei City Government Post Office","opening_hours":"Mo-Fr 08:30-17:30","address":"220242新北市板橋區中山路一段161號B1","phone":"+886 2 8964 5399","website":"https://www.post.gov.tw/","wheelchair":"yes"},"geometry":{"type":"Point","coordinates":[121.465373,25.012343]}},{"type":"Feature","properties":{"id":"osm:node:3629279712","name":"文山萬美街郵局","category":"post_office","nameEn":"Wenshan Wanmei Street Post Office","opening_hours":"Mo-Fr 08:30-17:00","address":"116025臺北市文山區萬美街一段51號","phone":"+886 2 2230 8803","website":"https://www.post.gov.tw/"},"geometry":{"type":"Point","coordinates":[121.568483,25.002254]}},{"type":"Feature","properties":{"id":"osm:node:3664043369","name":"臺北雙連郵局","category":"post_office","nameEn":"Taipei Shuanglian Post Office","opening_hours":"Mo-Fr 08:30-17:30","address":"104418臺北市中山區中山北路二段96號","phone":"+886 2 2541 4332;+886 2 2523 6846","website":"https://www.post.gov.tw/","wheelchair":"yes"},"geometry":{"type":"Point","coordinates":[121.522511,25.059541]}},{"type":"Feature","properties":{"id":"osm:node:3678904017","name":"南港後山埤郵局","category":"post_office","nameEn":"Nangang Houshanpi Post Office","opening_hours":"Mo-Fr 08:30-17:00","address":"115025臺北市南港區忠孝東路五段994號","phone":"+886 2 2786 7814","website":"https://www.post.gov.tw/"},"geometry":{"type":"Point","coordinates":[121.582766,25.04497]}},{"type":"Feature","properties":{"id":"osm:node:3687855601","name":"五股褒仔寮郵局","category":"post_office","nameEn":"Wugu Baozailiao Post Office","opening_hours":"Mo-Fr 08:30-17:00","address":"248501新北市五股區中興路一段5號","phone":"+886 2 2988 7489","website":"https://www.post.gov.tw/"},"geometry":{"type":"Point","coordinates":[121.469552,25.072171]}},{"type":"Feature","properties":{"id":"osm:node:3699809362","name":"台北郵局第五郵政代辦所","category":"post_office"},"geometry":{"type":"Point","coordinates":[121.512027,25.049929]}},{"type":"Feature","properties":{"id":"osm:node:3706804630","name":"內湖北勢湖郵局","category":"post_office","nameEn":"Neihu Beishihu Post Office Post Office","opening_hours":"Mo-Fr 08:30-17:00","address":"114061臺北市內湖區內湖路一段91巷2之1號","phone":"+886 2 2799 4021","website":"https://www.post.gov.tw/"},"geometry":{"type":"Point","coordinates":[121.561535,25.084724]}},{"type":"Feature","properties":{"id":"osm:node:3706824983","name":"臺北樂群二路郵局","category":"post_office","nameEn":"Taipei Lequn 2nd Road Post Office","opening_hours":"Mo-Fr 08:30-17:00","address":"104252臺北市中山區樂群二路147號","phone":"+886 2 8502 3327","website":"https://www.post.gov.tw/"},"geometry":{"type":"Point","coordinates":[121.557312,25.080156]}},{"type":"Feature","properties":{"id":"osm:node:3712942720","name":"中和國光街郵局","category":"post_office","nameEn":"Zhonghe Guoguang Street Post Office","opening_hours":"Mo-Fr 08:30-17:00","address":"235012新北市中和區國光街159號1樓","phone":"+886 2 2953 0456","website":"https://www.post.gov.tw/"},"geometry":{"type":"Point","coordinates":[121.468617,25.001144]}},{"type":"Feature","properties":{"id":"osm:node:3798721495","name":"北投文林郵局","category":"post_office","nameEn":"Beitou Wenlin Post Office","opening_hours":"Mo-Fr 08:30-17:00","address":"112047臺北市北投區文林北路96號","phone":"+886 2 2827 3044","website":"https://www.post.gov.tw/"},"geometry":{"type":"Point","coordinates":[121.517715,25.105562]}},{"type":"Feature","properties":{"id":"osm:node:3820884766","name":"北投關渡郵局","category":"post_office","nameEn":"Beitou Guandu Post Office","opening_hours":"Mo-Fr 08:30-17:00","address":"112020臺北市北投區知行路293巷9弄11號","phone":"+886 2 2858 1260","website":"https://www.post.gov.tw/"},"geometry":{"type":"Point","coordinates":[121.46691,25.121555]}},{"type":"Feature","properties":{"id":"osm:node:3820884951","name":"北投豐年郵局","category":"post_office","nameEn":"Beitou Fengnian Post Office","opening_hours":"Mo-Fr 08:30-17:00","address":"112018臺北市北投區中央北路二段329號","phone":"+886 2 2893 3596","website":"https://www.post.gov.tw/","wheelchair":"yes"},"geometry":{"type":"Point","coordinates":[121.489245,25.138305]}},{"type":"Feature","properties":{"id":"osm:node:3822530527","name":"北投山腳郵局","category":"post_office","nameEn":"Beitou Shanjiao Post Office","opening_hours":"Mo-Fr 08:30-17:00","address":"112015臺北市北投區中和街408號","phone":"+886 2 2891 1520","website":"https://www.post.gov.tw/"},"geometry":{"type":"Point","coordinates":[121.498154,25.143698]}},{"type":"Feature","properties":{"id":"osm:node:3835324082","name":"臺北迪化街郵局","category":"post_office","nameEn":"Taipei Dihua Street Post Office","opening_hours":"Mo-Fr 08:30-17:30","address":"103210臺北市大同區迪化街一段38號","phone":"+886 2 2556 0519;+886 2 2556 0631","website":"https://www.post.gov.tw/"},"geometry":{"type":"Point","coordinates":[121.510008,25.054805]}},{"type":"Feature","properties":{"id":"osm:node:3835341589","name":"文山木新郵局","category":"post_office","nameEn":"Wenshan Muxin Post Office","opening_hours":"Mo-Fr 08:30-17:00","address":"116019臺北市文山區木新路三段329號","phone":"+886 2 2936 0439;+886 2 2938 6373","website":"https://www.post.gov.tw/"},"geometry":{"type":"Point","coordinates":[121.556292,24.980462]}},{"type":"Feature","properties":{"id":"osm:node:3939158380","name":"臺北西松郵局","category":"post_office","nameEn":"Taipei Xisong Post Office","opening_hours":"Mo-Fr 08:30-17:30","address":"105063臺北市松山區南京東路五段311號","phone":"+886 2 2769 7535;+886 2 2768 2358","website":"https://www.post.gov.tw/"},"geometry":{"type":"Point","coordinates":[121.566625,25.051574]}},{"type":"Feature","properties":{"id":"osm:node:4000887383","name":"士林社新里郵局","category":"post_office","nameEn":"Shilin Shexinli Post Office","opening_hours":"Mo-Fr 08:30-17:00","address":"111068臺北市士林區延平北路六段197號","phone":"+886 2 2811 9944;+886 2 2812 1099","website":"https://www.post.gov.tw/"},"geometry":{"type":"Point","coordinates":[121.505819,25.089375]}},{"type":"Feature","properties":{"id":"osm:node:4043621628","name":"臺北青年郵局","category":"post_office","nameEn":"Taipei Qingnian Post Office","opening_hours":"Mo-Fr 08:30-17:00; Sa 09:00-12:00","address":"108050臺北市萬華區國興路34、36、38號","phone":"+886 2 2309 8054","website":"https://www.post.gov.tw/"},"geometry":{"type":"Point","coordinates":[121.507943,25.024835]}},{"type":"Feature","properties":{"id":"osm:node:4112067184","name":"北投舊北投郵局","category":"post_office","nameEn":"Beitou Former-Beitou Post Office","opening_hours":"Mo-Fr 08:30-17:00","address":"112058臺北市北投區中央南路一段201號","phone":"+886 2 2891 3104","website":"https://www.post.gov.tw/"},"geometry":{"type":"Point","coordinates":[121.501292,25.128479]}},{"type":"Feature","properties":{"id":"osm:node:4130879626","name":"國防部郵局","category":"post_office","nameEn":"Ministry of National Defense Post Office","opening_hours":"Mo-Fr 09:00-17:00","address":"104237臺北市中山區北安路409號","phone":"+886 2 8509 9866","website":"https://www.post.gov.tw/"},"geometry":{"type":"Point","coordinates":[121.540884,25.082877]}},{"type":"Feature","properties":{"id":"osm:node:4149458766","name":"臺北大直郵局","category":"post_office","nameEn":"Taipei Dazhi Post Office","opening_hours":"Mo-Fr 08:30-17:00","address":"104244臺北市中山區北安路518巷14弄18、20號","phone":"+886 2 2533 4543","website":"https://www.post.gov.tw/"},"geometry":{"type":"Point","coordinates":[121.545497,25.078968]}},{"type":"Feature","properties":{"id":"osm:node:4149587180","name":"臺北古亭郵局","category":"post_office","nameEn":"Taipei Guting Post Office","opening_hours":"Mo-Fr 08:30-17:30","address":"100038臺北市中正區南昌路二段232號","phone":"+886 2 2367 2165;+886 2 2368 2923","website":"https://www.post.gov.tw/","wheelchair":"no"},"geometry":{"type":"Point","coordinates":[121.524653,25.0236]}},{"type":"Feature","properties":{"id":"osm:node:4205230076","name":"臺北興安郵局","category":"post_office","nameEn":"Taipei Xing-an Post Office","opening_hours":"Mo-Fr 08:30-17:30","address":"104112臺北市中山區復興北路210、212號","phone":"+886 2 2504 3662","website":"https://www.post.gov.tw/"},"geometry":{"type":"Point","coordinates":[121.543844,25.05641]}},{"type":"Feature","properties":{"id":"osm:node:4206641653","name":"東吳大學郵局","category":"post_office","nameEn":"Soochow University Post Office","opening_hours":"Mo-Fr 08:30-17:00","address":"111002臺北市士林區臨溪路70號","phone":"+886 2 2881 5624","website":"https://www.post.gov.tw/","wheelchair":"yes"},"geometry":{"type":"Point","coordinates":[121.546233,25.094138]}},{"type":"Feature","properties":{"id":"osm:node:4233184577","name":"新店中正郵局","category":"post_office","nameEn":"Xindian Binlang Road Post Office","opening_hours":"Mo-Fr 08:30-17:30; Sa 09:00-12:00","address":"231031新北市新店區中正路253號","phone":"+886 2 2915 0640;+886 2 2912 4736","website":"https://www.post.gov.tw/"},"geometry":{"type":"Point","coordinates":[121.538872,24.973369]}},{"type":"Feature","properties":{"id":"osm:node:4233184578","name":"新店水尾郵局","category":"post_office","nameEn":"Xindian Shuiwei Post Office","opening_hours":"Mo-Fr 08:30-17:00","address":"231021新北市新店區中正路493之5號","phone":"+886 2 2218 0146","website":"https://www.post.gov.tw/"},"geometry":{"type":"Point","coordinates":[121.533578,24.983045]}},{"type":"Feature","properties":{"id":"osm:node:4293261215","name":"政大郵局","category":"post_office","nameEn":"National Chengchi University Post Office","opening_hours":"Mo-Fr 09:00-12:30","address":"116011臺北市文山區指南路二段64號","phone":"+886 2 2938 7146","website":"https://www.post.gov.tw/"},"geometry":{"type":"Point","coordinates":[121.571823,24.981511]}},{"type":"Feature","properties":{"id":"osm:node:4307554229","name":"北投石牌郵局","category":"post_office","nameEn":"Beitou Shipai Post Office","opening_hours":"Mo-Fr 08:30-17:00; Sa 09:00-12:00","address":"112063臺北市北投區石牌路二段93之2號","phone":"+886 2 2821 4449","website":"https://www.post.gov.tw/"},"geometry":{"type":"Point","coordinates":[121.516351,25.117345]}},{"type":"Feature","properties":{"id":"osm:node:4325694177","name":"自助郵局","category":"post_office"},"geometry":{"type":"Point","coordinates":[121.57876,25.035902]}},{"type":"Feature","properties":{"id":"osm:node:4325694198","name":"臺北永春郵局","category":"post_office","nameEn":"Taipei Yongchun Post Office","opening_hours":"Mo-Fr 08:30-17:30; Sa 09:00-12:00","address":"110028臺北市信義區忠孝東路五段464、466號","phone":"+886 2 8788 1850;+886 2 2722 7960","website":"https://www.post.gov.tw/"},"geometry":{"type":"Point","coordinates":[121.576703,25.040671]}},{"type":"Feature","properties":{"id":"osm:node:4326916793","name":"三重忠孝路郵局","category":"post_office","nameEn":"Sanchong Zhongxiao Road Post Office","opening_hours":"Mo-Fr 08:30-17:30","address":"241036新北市三重區忠孝路一段6之2號","phone":"+886 2 2980 0119","website":"https://www.post.gov.tw/"},"geometry":{"type":"Point","coordinates":[121.492269,25.071617]}},{"type":"Feature","properties":{"id":"osm:node:4326924100","name":"三重介壽路郵局","category":"post_office","nameEn":"Sanchong Jieshou Road Post Office","opening_hours":"Mo-Fr 08:30-17:00","address":"241051新北市三重區介壽路5號","phone":"+886 2 2976 2385","website":"https://www.post.gov.tw/"},"geometry":{"type":"Point","coordinates":[121.499031,25.069128]}},{"type":"Feature","properties":{"id":"osm:node:4423430793","name":"臺北螢橋郵局","category":"post_office","nameEn":"Taipei Yingqiao Post Office","opening_hours":"Mo-Fr 08:30-17:30","address":"100053臺北市中正區廈門街76號","phone":"+886 2 2368 4714;+886 2 2367 0905","website":"https://www.post.gov.tw/"},"geometry":{"type":"Point","coordinates":[121.517325,25.024613]}},{"type":"Feature","properties":{"id":"osm:node:4447581392","name":"淡水竹圍郵局","category":"post_office","nameEn":"Tamsui Zhuwei Post Office","opening_hours":"Mo-Fr 08:30-17:00","address":"251033新北市淡水區民權路75號","phone":"+886 2 2809 7051","website":"https://www.post.gov.tw/"},"geometry":{"type":"Point","coordinates":[121.459997,25.138646]}},{"type":"Feature","properties":{"id":"osm:node:4452998475","name":"三重正義郵局","category":"post_office","nameEn":"Sanchong Zhengyi Post Office","opening_hours":"Mo-Fr 08:30-17:30; Sa 09:00-12:00","address":"241003新北市三重區正義南路10號","phone":"+886 2 2972 2005","website":"https://www.post.gov.tw/"},"geometry":{"type":"Point","coordinates":[121.498169,25.061515]}},{"type":"Feature","properties":{"id":"osm:node:4491559409","name":"汐止厚德郵局","category":"post_office","nameEn":"Xizhi Houde Post Office","opening_hours":"Mo-Fr 08:30-17:00","address":"221007新北市汐止區樟樹一路224號","phone":"+886 2 2647 7134","website":"https://www.post.gov.tw/"},"geometry":{"type":"Point","coordinates":[121.64249,25.066463]}},{"type":"Feature","properties":{"id":"osm:node:4524863598","name":"南港港三郵局","category":"post_office","nameEn":"Nangang Gangsan Post Office","opening_hours":"Mo-Fr 08:30-17:00","address":"115004臺北市南港區南港路三段184號","phone":"+886 2 2783 1409","website":"https://www.post.gov.tw/"},"geometry":{"type":"Point","coordinates":[121.587021,25.053139]}},{"type":"Feature","properties":{"id":"osm:node:473312867","name":"臺北西園郵局","category":"post_office","nameEn":"Taipei Xiyuan Post Office","opening_hours":"Mo-Fr 08:30-17:00","address":"108010臺北市萬華區長沙街二段156、158、160、162號","phone":"+886 2 2331 4524","website":"https://www.post.gov.tw/","wheelchair":"limited"},"geometry":{"type":"Point","coordinates":[121.50103,25.040708]}},{"type":"Feature","properties":{"id":"osm:node:4836019987","name":"三重中興橋郵局","category":"post_office","nameEn":"Sanchong Zhongxing Bridge Post Office","opening_hours":"Mo-Fr 08:30-17:00","address":"241532新北市三重區成功路52之2號","phone":"+886 2 2978 6455","website":"https://www.post.gov.tw/"},"geometry":{"type":"Point","coordinates":[121.488802,25.050482]}},{"type":"Feature","properties":{"id":"osm:node:4838106344","name":"板橋八甲郵局","category":"post_office","nameEn":"Banqiao Bajia Post Office","opening_hours":"Mo-Fr 08:30-17:00","address":"220608新北市板橋區四川路二段123號1樓","phone":"+886 2 8967 2293;+886 2 8966 2716","website":"https://www.post.gov.tw/"},"geometry":{"type":"Point","coordinates":[121.451357,24.993874]}},{"type":"Feature","properties":{"id":"osm:node:5021905666","name":"機場捷運郵局","category":"post_office"},"geometry":{"type":"Point","coordinates":[121.513558,25.048817]}},{"type":"Feature","properties":{"id":"osm:node:5071287964","name":"臺北萬大路郵局","category":"post_office","nameEn":"Taipei Wanda Road Post Office","opening_hours":"Mo-Fr 08:30-17:00","address":"108245臺北市萬華區萬大路524號","phone":"+886 2 2301 2793;+886 2 2309 7442","website":"https://www.post.gov.tw/"},"geometry":{"type":"Point","coordinates":[121.496761,25.018882]}},{"type":"Feature","properties":{"id":"osm:node:5071287965","name":"臺北華江橋郵局","category":"post_office","nameEn":"Taipei Huajiang Bridge Post Office","opening_hours":"Mo-Fr 08:30-17:30","address":"108022臺北市萬華區和平西路三段310號","phone":"+886 2 2302 0953;+886 2 2306 4473","website":"https://www.post.gov.tw/"},"geometry":{"type":"Point","coordinates":[121.49299,25.035288]}},{"type":"Feature","properties":{"id":"osm:node:5071287967","name":"臺北老松郵局","category":"post_office","nameEn":"Taipei Laosong Post Office","opening_hours":"Mo-Fr 08:30-17:00","address":"108212臺北市萬華區桂林路51號","phone":"+886 2 2389 4549","website":"https://www.post.gov.tw/"},"geometry":{"type":"Point","coordinates":[121.50398,25.0381]}},{"type":"Feature","properties":{"id":"osm:node:5071287971","name":"臺北東園郵局","category":"post_office","nameEn":"Taipei Dongyuan Post Office","opening_hours":"Mo-Fr 08:30-17:30","address":"108240臺北市萬華區東園街148、150號","phone":"+886 2 2309 9202;+886 2 2303 8013","website":"https://www.post.gov.tw/"},"geometry":{"type":"Point","coordinates":[121.497505,25.023325]}},{"type":"Feature","properties":{"id":"osm:node:5108706579","name":"新店復興郵局","category":"post_office","nameEn":"Xindian Fusing Post Office","opening_hours":"Mo-Fr 08:30-17:00","address":"231036新北市新店區復興路30號","phone":"+886 2 2911 5002","website":"https://www.post.gov.tw/"},"geometry":{"type":"Point","coordinates":[121.539156,24.986928]}},{"type":"Feature","properties":{"id":"osm:node:5110488927","name":"臺北榮星郵局","category":"post_office","nameEn":"Taipei Rongxing Post Office","opening_hours":"Mo-Fr 08:30-17:30; Sa 09:00-12:00","address":"105005臺北市松山區民權東路三段124之1、124之2號","phone":"+886 2 2712 7615;+886 2 2715 4680","website":"https://www.post.gov.tw/"},"geometry":{"type":"Point","coordinates":[121.545892,25.061814]}},{"type":"Feature","properties":{"id":"osm:node:5110490320","name":"臺北漢中街郵局","category":"post_office","nameEn":"Taipei Hanzhong Street Post Office","opening_hours":"Mo-Fr 08:30-17:30","address":"108207臺北市萬華區漢中街173號","phone":"+886 2 2361 6809;+886 2 2331 4069","website":"https://www.post.gov.tw/","wheelchair":"yes"},"geometry":{"type":"Point","coordinates":[121.50697,25.041307]}},{"type":"Feature","properties":{"id":"osm:node:5132456282","name":"總統府郵局","category":"post_office","nameEn":"Presidential Office Building Post Office","opening_hours":"Mo-Fr 08:30-17:30","address":"100006臺北市中正區重慶南路一段122號","phone":"+886 2 2311 0859","website":"https://www.post.gov.tw/","wheelchair":"yes"},"geometry":{"type":"Point","coordinates":[121.511647,25.039935]}},{"type":"Feature","properties":{"id":"osm:node:5369287019","name":"內湖金龍郵局","category":"post_office","nameEn":"Neihu Jinlong Post Office","opening_hours":"Mo-Fr 08:30-17:00","address":"114052臺北市內湖區內湖路三段131號","phone":"+886 2 2790 3378","website":"https://www.post.gov.tw/"},"geometry":{"type":"Point","coordinates":[121.589985,25.086806]}},{"type":"Feature","properties":{"id":"osm:node:5372146610","name":"永和中山路郵局","category":"post_office","nameEn":"Yonghe Zhongshan Road Post Office","opening_hours":"Mo-Fr 08:30-17:00","address":"234017新北市永和區中山路一段249、251號","phone":"+886 2 2929 2695","website":"https://www.post.gov.tw/"},"geometry":{"type":"Point","coordinates":[121.507747,25.007538]}},{"type":"Feature","properties":{"id":"osm:node:5372769743","name":"臺北世貿郵局","category":"post_office","nameEn":"Taipei World Trade Center Post Office","opening_hours":"Mo-Fr 08:30-17:00","address":"110202臺北市信義區信義路五段5號","phone":"+886 2 2725 2479","website":"https://www.post.gov.tw/"},"geometry":{"type":"Point","coordinates":[121.562227,25.034454]}},{"type":"Feature","properties":{"id":"osm:node:5513060381","name":"板橋埔墘郵局","category":"post_office","nameEn":"Banqiao Puqian Post Office","opening_hours":"Mo-Fr 08:30-17:30; Sa 09:00-12:00","address":"220089新北市板橋區中山路二段109號","phone":"+886 2 2961 9785","website":"https://www.post.gov.tw/"},"geometry":{"type":"Point","coordinates":[121.474523,25.016346]}},{"type":"Feature","properties":{"id":"osm:node:5752761712","name":"汐止南昌郵局","category":"post_office","nameEn":"Xizhi Nanchang Post Office","opening_hours":"Mo-Fr 08:30-17:00","address":"221028新北市汐止區新昌路72號","phone":"+886 2 2649 8837","website":"https://www.post.gov.tw/"},"geometry":{"type":"Point","coordinates":[121.663629,25.068852]}},{"type":"Feature","properties":{"id":"osm:node:6029650184","name":"板橋後埔郵局","category":"post_office","nameEn":"Banqiao Houpu Post Office","opening_hours":"Mo-Fr 08:30-17:30; Sa 09:00-12:00","address":"220068新北市板橋區實踐路128號","phone":"+886 2 2956 7536;+886 2 2961 0578","website":"https://www.post.gov.tw/","wheelchair":"yes"},"geometry":{"type":"Point","coordinates":[121.464391,25.002887]}},{"type":"Feature","properties":{"id":"osm:node:6090347625","name":"宅急便","category":"post_office","address":"111台北市士林區大北路100號","wheelchair":"yes"},"geometry":{"type":"Point","coordinates":[121.524256,25.090446]}},{"type":"Feature","properties":{"id":"osm:node:6205703861","name":"北投致遠郵局","category":"post_office","nameEn":"Beitou Zhiyuan Post Office","opening_hours":"Mo-Fr 08:30-17:00","address":"112051臺北市北投區致遠一路一段121號","phone":"+886 2 2823 0602","website":"https://www.post.gov.tw/"},"geometry":{"type":"Point","coordinates":[121.514927,25.109947]}},{"type":"Feature","properties":{"id":"osm:node:6259442485","name":"臺北大同郵局","category":"post_office","nameEn":"Taipei Datong Post Office","opening_hours":"Mo-Fr 08:30-17:30; Sa 09:00-12:00","address":"103247臺北市大同區承德路三段83號","phone":"+886 2 2597 4508;+886 2 2594 1868","website":"https://www.post.gov.tw/"},"geometry":{"type":"Point","coordinates":[121.518637,25.065863]}},{"type":"Feature","properties":{"id":"osm:node:6416251569","name":"郵務收據點","category":"post_office"},"geometry":{"type":"Point","coordinates":[121.485553,24.997757]}},{"type":"Feature","properties":{"id":"osm:node:6430680140","name":"監察院郵局","category":"post_office","nameEn":"Control Yuan Post Office","opening_hours":"Mo-Fr 08:30-17:00","address":"100216臺北市中正區忠孝東路一段2號","phone":"+886 2 2392 5345","website":"https://www.post.gov.tw/"},"geometry":{"type":"Point","coordinates":[121.521369,25.044845]}},{"type":"Feature","properties":{"id":"osm:node:6438554460","name":"新莊五工郵局","category":"post_office","nameEn":"Xinzhuang Wugong Post Office","opening_hours":"Mo-Fr 08:30-18:00","address":"248501新北市新莊區五工三路50巷2號","phone":"+886 2 2298 0293","website":"https://www.post.gov.tw/"},"geometry":{"type":"Point","coordinates":[121.460081,25.064344]}},{"type":"Feature","properties":{"id":"osm:node:6440171972","name":"永和福和郵局","category":"post_office","nameEn":"Yonghe Fuhe Post Office","opening_hours":"Mo-Fr 08:30-17:30; Sa 09:00-12:00","address":"234028新北市永和區福和路154、156號","phone":"+886 2 8928 9702;+886 2 8928 1732","website":"https://www.post.gov.tw/"},"geometry":{"type":"Point","coordinates":[121.521641,25.007978]}},{"type":"Feature","properties":{"id":"osm:node:6482167117","name":"深坑草地尾郵局","category":"post_office","nameEn":"Shenkeng Caodiwei Post Office","opening_hours":"Mo-Fr 08:30-17:00","address":"222001新北市深坑區北深路三段264號之1","phone":"+886 2 2664 2140","website":"https://www.post.gov.tw/"},"geometry":{"type":"Point","coordinates":[121.599041,25.004726]}},{"type":"Feature","properties":{"id":"osm:node:6720843990","name":"臺北臺北橋郵局","category":"post_office","nameEn":"Taipei Taipei-Bridge Post Office","opening_hours":"Mo-Fr 08:30-17:00","address":"103221臺北市大同區民權西路246號","phone":"+886 2 2557 8538;+886 2 2550 2821","website":"https://www.post.gov.tw/"},"geometry":{"type":"Point","coordinates":[121.512648,25.062746]}},{"type":"Feature","properties":{"id":"osm:node:6766839514","name":"內湖江南郵局","category":"post_office","nameEn":"Neihu Jiangnan Post Office","opening_hours":"Mo-Fr 08:30-17:00","address":"114063臺北市內湖區瑞光路316巷1號","phone":"+886 2 2657 2428","website":"https://www.post.gov.tw/"},"geometry":{"type":"Point","coordinates":[121.573997,25.076505]}},{"type":"Feature","properties":{"id":"osm:node:6795607650","name":"臺北松德郵局","category":"post_office","nameEn":"Taipei Songde Post Office","opening_hours":"Mo-Fr 08:30-17:30","address":"110210臺北市信義區松德路300號","phone":"+886 2 2727 3686;+886 2 2726 3738","website":"https://www.post.gov.tw/"},"geometry":{"type":"Point","coordinates":[121.574277,25.031799]}},{"type":"Feature","properties":{"id":"osm:node:6813809786","name":"瑞光路郵局","category":"post_office"},"geometry":{"type":"Point","coordinates":[121.578107,25.074609]}},{"type":"Feature","properties":{"id":"osm:node:6855627856","name":"北投實踐郵局","category":"post_office","nameEn":"Beitou Shijian Post Office","opening_hours":"Mo-Fr 08:30-17:00","address":"112034臺北市北投區實踐街48巷11號","phone":"+886 2 2822 3054","website":"https://www.post.gov.tw/"},"geometry":{"type":"Point","coordinates":[121.50941,25.114501]}},{"type":"Feature","properties":{"id":"osm:node:6981277724","name":"板橋民族路郵局","category":"post_office","nameEn":"Banqiao Minzu Road Post Office","opening_hours":"Mo-Fr 08:30-17:00","address":"220071新北市板橋區民族路263號","phone":"+886 2 2952 6805;+886 2 2958 5297","website":"https://www.post.gov.tw/"},"geometry":{"type":"Point","coordinates":[121.470569,25.006974]}},{"type":"Feature","properties":{"id":"osm:node:7192846578","name":"蘆洲郵局","category":"post_office","nameEn":"Luzhou Post Office","opening_hours":"Mo-Fr 08:30-18:00; Sa 09:00-12:00","address":"247010新北市蘆洲區三民路97號","phone":"+886 2 2282 1162","website":"https://www.post.gov.tw/"},"geometry":{"type":"Point","coordinates":[121.473567,25.084956]}},{"type":"Feature","properties":{"id":"osm:node:7902835017","name":"板橋三民路郵局","category":"post_office","nameEn":"Banqiao Sanmin Road Post Office","opening_hours":"Mo-Fr 08:30-17:30; Sa 09:00-12:00","address":"220756新北市板橋區三民路一段120號","phone":"+886 2 2951 8120","website":"https://www.post.gov.tw/"},"geometry":{"type":"Point","coordinates":[121.478983,25.020722]}},{"type":"Feature","properties":{"id":"osm:node:7902835024","name":"板橋光復橋郵局","category":"post_office","nameEn":"Banqiao Guangfu Bridge Post Office","opening_hours":"Mo-Fr 08:30-17:00","address":"220081新北市板橋區中山路二段422之13號","phone":"+886 2 2963 0620","website":"https://www.post.gov.tw/"},"geometry":{"type":"Point","coordinates":[121.483762,25.021332]}},{"type":"Feature","properties":{"id":"osm:node:8190004726","name":"文化大學郵局","category":"post_office","nameEn":"Chinese Culture University Post Office","opening_hours":"Mo-Fr 08:30-17:00","address":"111396臺北市士林區華岡路55號","phone":"+886 2 2861 5880","website":"https://www.post.gov.tw/"},"geometry":{"type":"Point","coordinates":[121.538741,25.135913]}},{"type":"Feature","properties":{"id":"osm:node:8397520224","name":"臺北圓環郵局","category":"post_office","nameEn":"Taipei Yuanhuan Post Office","opening_hours":"Mo-Fr 08:30-17:30","address":"103211臺北市大同區重慶北路二段15號","phone":"+886 2 2556 1703;+886 2 2559 2168","website":"https://www.post.gov.tw/"},"geometry":{"type":"Point","coordinates":[121.514492,25.054646]}},{"type":"Feature","properties":{"id":"osm:node:8972399037","name":"文山樟腳里郵局","category":"post_office","nameEn":"Wenshan Zhangjiaoli Post Office","opening_hours":"Mo-Fr 08:30-17:00","address":"116018臺北市文山區木新路三段25號","phone":"+886 2 2939 9424","website":"https://www.post.gov.tw/"},"geometry":{"type":"Point","coordinates":[121.564732,24.982534]}},{"type":"Feature","properties":{"id":"osm:node:926003373","name":"汐止社后郵局","category":"post_office","nameEn":"Xizhi Shehou Post Office","opening_hours":"Mo-Fr 08:30-17:30; Sa 09:00-12:00","address":"221017新北市汐止區康寧街426號","phone":"+886 2 2695 1315","website":"https://www.post.gov.tw/"},"geometry":{"type":"Point","coordinates":[121.630716,25.067991]}},{"type":"Feature","properties":{"id":"osm:node:9494420852","name":"蘆洲中山路郵局","category":"post_office","nameEn":"Luzhou Zhongshan Road Post Office","opening_hours":"Mo-Fr 08:30-17:00","address":"247019新北市蘆洲區中山一路37號","phone":"+886 2 2281 7374","website":"https://www.post.gov.tw/"},"geometry":{"type":"Point","coordinates":[121.478963,25.08079]}},{"type":"Feature","properties":{"id":"osm:node:9520343639","name":"士林中正路郵局","category":"post_office","nameEn":"Shilin Zhongzheng Road Post Office","opening_hours":"Mo-Fr 08:30-17:30","address":"111010臺北市士林區中正路420號","phone":"+886 2 8866 6045;+886 2 8866 6047","website":"https://www.post.gov.tw/"},"geometry":{"type":"Point","coordinates":[121.519468,25.09356]}},{"type":"Feature","properties":{"id":"osm:node:9565124393","name":"臺北敦南郵局","category":"post_office","nameEn":"Taipei Dunnan Post Office","opening_hours":"Mo-Fr 08:30-17:30","address":"106230臺北市大安區忠孝東路四段170巷9號","phone":"+886 2 2771 5334","website":"https://www.post.gov.tw/"},"geometry":{"type":"Point","coordinates":[121.550945,25.040584]}},{"type":"Feature","properties":{"id":"osm:way:130008118","name":"板橋國慶郵局","category":"post_office","nameEn":"Banqiao Guoqing Post Office","opening_hours":"Mo-Fr 08:30-18:00; Sa 09:00-12:00","address":"220062新北市板橋區國慶路132號","phone":"+886 2 2964 5842;+886 2 2958 0350","website":"https://www.post.gov.tw/"},"geometry":{"type":"Point","coordinates":[121.461481,24.995709]}},{"type":"Feature","properties":{"id":"osm:way:131473137","name":"臺北仁愛路郵局","category":"post_office","nameEn":"Taipei Ren-ai Rd. Post Office","opening_hours":"Mo-Fr 08:30-17:30","address":"106240臺北市大安區仁愛路三段47號","phone":"+886 2 2771 1497;+886 2 2752 4551","website":"https://www.post.gov.tw/"},"geometry":{"type":"Point","coordinates":[121.535545,25.038638]}},{"type":"Feature","properties":{"id":"osm:way:1442269190","name":"永和秀朗郵局","category":"post_office","nameEn":"Yonghe Xiulang Post Office","opening_hours":"Mo-Fr 08:30-17:30; Sa 09:00-12:00","address":"234035新北市永和區永亨路178號","phone":"+886 2 8660 8859;+886 2 8660 8873","website":"https://www.post.gov.tw/"},"geometry":{"type":"Point","coordinates":[121.525825,25.002626]}},{"type":"Feature","properties":{"id":"osm:way:1539635599","name":"臺北公館郵局","category":"post_office","nameEn":"Taipei Gongguan Post Office","brand":"中華郵政","opening_hours":"Mo-Fr 08:30-17:30; Sa 09:00-12:00","address":"100046臺北市中正區羅斯福路四段74號B1","phone":"+886 2 2365 9518;+886 2 2368 8574"},"geometry":{"type":"Point","coordinates":[121.534027,25.015322]}},{"type":"Feature","properties":{"id":"osm:way:197664906","name":"臺北莒光郵局","category":"post_office","nameEn":"Taipei Juguang Post Office","opening_hours":"Mo-Fr 08:30-17:30; Sa 09:00-12:00","address":"108228臺北市萬華區莒光路210號","phone":"+886 2 2302 4644;+886 2 2302 4649","website":"https://www.post.gov.tw/"},"geometry":{"type":"Point","coordinates":[121.501097,25.031376]}},{"type":"Feature","properties":{"id":"osm:way:206062024","name":"臺北大安郵局","category":"post_office","nameEn":"Taipei Da-an Post Office","opening_hours":"Mo-Fr 08:30-17:30; Sa 09:00-12:00","address":"106245臺北市大安區信義路三段89號","phone":"+886 2 2704 4318;+886 2 2705 3234","website":"https://www.post.gov.tw/"},"geometry":{"type":"Point","coordinates":[121.538386,25.033925]}},{"type":"Feature","properties":{"id":"osm:way:208362636","name":"內湖郵局","category":"post_office","nameEn":"Neihu Post Office","opening_hours":"Mo-Fr 08:30-18:30; Sa 09:00-12:00","address":"114059臺北市內湖區民權東路六段83號","phone":"+886 2 2790 1070","website":"https://www.post.gov.tw/","wheelchair":"yes"},"geometry":{"type":"Point","coordinates":[121.588145,25.069413]}},{"type":"Feature","properties":{"id":"osm:way:245407013","name":"世新大學郵局","category":"post_office","nameEn":"Shih Hsin University Post Office","opening_hours":"Mo-Fr 09:00-12:30,13:30-17:00","address":"116002臺北市文山區木柵路一段17巷1號","phone":"+886 2 2236 4310","website":"https://www.post.gov.tw/"},"geometry":{"type":"Point","coordinates":[121.544842,24.989338]}},{"type":"Feature","properties":{"id":"osm:way:255748844","name":"中和郵局","category":"post_office","nameEn":"Zhonghe Post Office","opening_hours":"Mo-Fr 08:30-18:00; Sa 09:00-12:00","address":"235017新北市中和區民樂路17號","phone":"+886 2 2222 4804","website":"https://www.post.gov.tw/"},"geometry":{"type":"Point","coordinates":[121.482286,25.001404]}},{"type":"Feature","properties":{"id":"osm:way:255927063","name":"板橋文化路郵局","category":"post_office","nameEn":"Banqiao Wenhua Road Post Office","opening_hours":"Mo-Fr 08:30-19:30; Sa 09:00-12:00","address":"220013新北市板橋區文化路一段395號","phone":"+886 2 2259 8788","website":"https://www.post.gov.tw/"},"geometry":{"type":"Point","coordinates":[121.467063,25.022166]}},{"type":"Feature","properties":{"id":"osm:way:261084894","name":"木柵郵局","category":"post_office","nameEn":"Muzha Post Office","opening_hours":"Mo-Fr 08:30-18:00; Sa 09:00-12:00","address":"116008臺北市文山區木柵路三段27號","phone":"+886 2 2939 2781","website":"https://www.post.gov.tw/"},"geometry":{"type":"Point","coordinates":[121.565407,24.988639]}},{"type":"Feature","properties":{"id":"osm:way:261197041","name":"臺北光復郵局","category":"post_office","nameEn":"Taipei Guangfu Post Office","opening_hours":"Mo-Fr 08:30-18:00; Sa 09:00-12:00","address":"105407臺北市松山區八德路三段240號","phone":"+886 2 2570 1157;+886 2 2578 6944","website":"https://www.post.gov.tw/","wheelchair":"yes"},"geometry":{"type":"Point","coordinates":[121.557588,25.047958]}},{"type":"Feature","properties":{"id":"osm:way:271754074","name":"臺北開封街自助郵局","category":"post_office","nameEn":"Taipei Kaifong St. Self-service Post Office","opening_hours":"24/7","address":"100002臺北市中正區開封街一段45號","website":"https://www.post.gov.tw/"},"geometry":{"type":"Point","coordinates":[121.512417,25.046246]}},{"type":"Feature","properties":{"id":"osm:way:302614755","name":"文山景美郵局","category":"post_office","nameEn":"Wenshan Jingmei Post Office","opening_hours":"Mo-Fr 08:30-17:30; Sa 09:00-12:00","address":"116052臺北市文山區羅斯福路六段389號","phone":"+886 2 2931 2010;+886 2 2932 3411","website":"https://www.post.gov.tw/"},"geometry":{"type":"Point","coordinates":[121.540905,24.992378]}},{"type":"Feature","properties":{"id":"osm:way:306352009","name":"士林外雙溪郵局","category":"post_office","nameEn":"Shilin Waishuangxi Post Office","opening_hours":"Mo-Fr 08:30-12:00,13:00-16:30","address":"111002臺北市士林區明溪街15號","phone":"+886 2 2841 1174","website":"https://www.post.gov.tw/"},"geometry":{"type":"Point","coordinates":[121.565188,25.106986]}},{"type":"Feature","properties":{"id":"osm:way:316477847","name":"新店郵局","category":"post_office","nameEn":"Xindian Post Office","opening_hours":"Mo-Fr 08:30-18:00; Sa 09:00-12:00","address":"231008新北市新店區北新路二段177號","phone":"+886 2 2911 1249;+886 2 2913 3884","website":"https://www.post.gov.tw/"},"geometry":{"type":"Point","coordinates":[121.54251,24.977175]}},{"type":"Feature","properties":{"id":"osm:way:327712846","name":"臺北信義郵局","category":"post_office","nameEn":"Taipei Xinyi Post Office","opening_hours":"Mo-Fr 08:30-17:00","address":"110065臺北市信義區松廉路76號","phone":"+886 2 2725 3080","website":"https://www.post.gov.tw/"},"geometry":{"type":"Point","coordinates":[121.567337,25.033669]}},{"type":"Feature","properties":{"id":"osm:way:329984239","name":"士林郵局","category":"post_office","nameEn":"Shilin Post Office","opening_hours":"Mo-Fr 08:30-17:30; Sa 09:00-12:00","address":"111011臺北市士林區文林路162號","phone":"+886 2 2881 8743;+886 2 2881 2535","website":"https://www.post.gov.tw/","wheelchair":"yes"},"geometry":{"type":"Point","coordinates":[121.526927,25.089187]}},{"type":"Feature","properties":{"id":"osm:way:344635229","name":"內湖舊宗郵局","category":"post_office","nameEn":"Neihu Jiuzong Post Office","opening_hours":"Mo-Fr 08:30-17:00","address":"114066臺北市內湖區舊宗路一段189號","phone":"+886 2 2792 7970","website":"https://www.post.gov.tw/"},"geometry":{"type":"Point","coordinates":[121.577956,25.06238]}},{"type":"Feature","properties":{"id":"osm:way:377273549","name":"北投明德郵局","category":"post_office","nameEn":"Beitou Mingde Post Office","opening_hours":"Mo-Fr 08:30-17:00","address":"112040臺北市北投區明德路210號","phone":"+886 2 2822 6347","website":"https://www.post.gov.tw/"},"geometry":{"type":"Point","coordinates":[121.522272,25.113241]}},{"type":"Feature","properties":{"id":"osm:way:378584681","name":"文山溝子口郵局","category":"post_office","nameEn":"Wenshan Gouzikou Post Office","opening_hours":"Mo-Fr 08:30-17:00","address":"116005臺北市文山區木柵路一段119號","phone":"+886 2 2236 0561","website":"https://www.post.gov.tw/","wheelchair":"yes"},"geometry":{"type":"Point","coordinates":[121.54848,24.987341]}},{"type":"Feature","properties":{"id":"osm:way:384799245","name":"臺北南陽郵局","category":"post_office","nameEn":"Taipei Nanyang Post Office","opening_hours":"Mo-Fr 08:30-18:00","address":"100007臺北市中正區信陽街8號","phone":"+886 2 2361 3711;+886 2 2375 4227","website":"https://www.post.gov.tw/"},"geometry":{"type":"Point","coordinates":[121.51598,25.044488]}},{"type":"Feature","properties":{"id":"osm:way:419000217","name":"臺北青田郵局","category":"post_office","nameEn":"Taipei Qingtian Post Office","opening_hours":"Mo-Fr 08:30-17:30","address":"106203臺北市大安區和平東路一段155號","phone":"+886 2 2321 4288;+886 2 2321 8001","website":"https://www.post.gov.tw/","wheelchair":"limited"},"geometry":{"type":"Point","coordinates":[121.53115,25.026714]}},{"type":"Feature","properties":{"id":"osm:way:420045120","name":"文山武功郵局","category":"post_office","nameEn":"Wenshan Wugong Post Office","opening_hours":"Mo-Fr 08:30-17:00; Sa 09:00-12:00","address":"116063臺北市文山區羅斯福路五段147號","phone":"+886 2 2935 6135;+886 2 2931 4860","website":"https://www.post.gov.tw/","wheelchair":"no"},"geometry":{"type":"Point","coordinates":[121.538984,25.004067]}},{"type":"Feature","properties":{"id":"osm:way:443282193","name":"內湖碧湖郵局","category":"post_office","nameEn":"Neihu Bihu Post Office","opening_hours":"Mo-Fr 08:30-17:00","address":"114023臺北市內湖區內湖路二段225號","phone":"+886 2 2792 2674","website":"https://www.post.gov.tw/"},"geometry":{"type":"Point","coordinates":[121.588905,25.081899]}},{"type":"Feature","properties":{"id":"osm:way:445128716","name":"蘆洲空大郵局","category":"post_office","nameEn":"Luzhou National Open University Post Office","opening_hours":"Mo-Fr 08:30-17:00","address":"247340新北市蘆洲區中正路172號","phone":"+886 2 2281 5284","website":"https://www.post.gov.tw/"},"geometry":{"type":"Point","coordinates":[121.467609,25.087441]}},{"type":"Feature","properties":{"id":"osm:way:447602722","name":"三重中山路郵局","category":"post_office","nameEn":"Sanchong Zhongshan Road Post Office","opening_hours":"Mo-Fr 08:30-19:00; Sa 09:00-12:00","address":"241040新北市三重區新北大道一段17號","phone":"+886 2 2988 2775","website":"https://www.post.gov.tw/"},"geometry":{"type":"Point","coordinates":[121.487644,25.061114]}},{"type":"Feature","properties":{"id":"osm:way:502190379","name":"士林後港郵局","category":"post_office","nameEn":"Shilin Hougang Post Office","opening_hours":"Mo-Fr 08:30-17:30","address":"111057臺北市士林區福港街149巷2號","phone":"+886 2 2883 7486;+886 2 2881 3600","website":"https://www.post.gov.tw/"},"geometry":{"type":"Point","coordinates":[121.518303,25.087347]}},{"type":"Feature","properties":{"id":"osm:way:510760787","name":"文山指南郵局","category":"post_office","nameEn":"Wenshan Zhinan Post Office","opening_hours":"Mo-Fr 08:30-17:00","address":"116011臺北市文山區指南路二段115號","phone":"+886 2 2939 3767","website":"https://www.post.gov.tw/"},"geometry":{"type":"Point","coordinates":[121.576325,24.987686]}},{"type":"Feature","properties":{"id":"osm:way:517706700","name":"DHL","category":"post_office","brand":"DHL"},"geometry":{"type":"Point","coordinates":[121.574586,25.064796]}},{"type":"Feature","properties":{"id":"osm:way:660093438","name":"士林劍潭郵局","category":"post_office","nameEn":"Shilin Jiantan Post Office","opening_hours":"Mo-Fr 08:30-17:30","address":"111013臺北市士林區基河路14號","phone":"+886 2 2885 9559;+886 2 2885 6043","website":"https://www.post.gov.tw/"},"geometry":{"type":"Point","coordinates":[121.523866,25.081755]}},{"type":"Feature","properties":{"id":"osm:way:73750289","name":"南港郵局","category":"post_office","nameEn":"Nangang Post Office","opening_hours":"Mo-Fr 08:30-18:00; Sa 09:00-12:00","address":"115029臺北市南港區南港路二段78號","phone":"+886 2 2785 0141","website":"https://www.post.gov.tw/"},"geometry":{"type":"Point","coordinates":[121.603453,25.054085]}}]}